; evenHorizon plotter export
G21 ; mm
G90 ; absolute positioning
; draw feed: 3000.0 mm/min
; travel feed: 5000.0 mm/min
G28 ; home
M5
G0 X148.5 Y107.344 F5000.0
M3 S1000
G1 X148.541 Y107.344 F3000.0
G1 X148.582 Y107.344 F3000.0
G1 X148.623 Y107.344 F3000.0
G1 X148.664 Y107.344 F3000.0
G1 X148.706 Y107.344 F3000.0
G1 X148.747 Y107.344 F3000.0
G1 X148.789 Y107.344 F3000.0
G1 X148.83 Y107.344 F3000.0
G1 X148.872 Y107.343 F3000.0
G1 X148.914 Y107.343 F3000.0
G1 X148.957 Y107.343 F3000.0
G1 X148.999 Y107.343 F3000.0
G1 X149.042 Y107.342 F3000.0
G1 X149.086 Y107.342 F3000.0
G1 X149.129 Y107.342 F3000.0
G1 X149.173 Y107.341 F3000.0
G1 X149.218 Y107.341 F3000.0
G1 X149.263 Y107.341 F3000.0
G1 X149.308 Y107.34 F3000.0
G1 X149.354 Y107.34 F3000.0
G1 X149.401 Y107.339 F3000.0
G1 X149.448 Y107.338 F3000.0
G1 X149.495 Y107.338 F3000.0
G1 X149.544 Y107.337 F3000.0
G1 X149.593 Y107.337 F3000.0
G1 X149.643 Y107.336 F3000.0
G1 X149.694 Y107.335 F3000.0
G1 X149.745 Y107.334 F3000.0
G1 X149.798 Y107.333 F3000.0
G1 X149.851 Y107.332 F3000.0
G1 X149.906 Y107.332 F3000.0
G1 X149.961 Y107.33 F3000.0
G1 X150.018 Y107.329 F3000.0
G1 X150.076 Y107.328 F3000.0
G1 X150.135 Y107.327 F3000.0
G1 X150.196 Y107.326 F3000.0
G1 X150.258 Y107.324 F3000.0
G1 X150.322 Y107.323 F3000.0
G1 X150.387 Y107.321 F3000.0
G1 X150.454 Y107.32 F3000.0
G1 X150.523 Y107.318 F3000.0
G1 X150.594 Y107.316 F3000.0
G1 X150.667 Y107.314 F3000.0
G1 X150.742 Y107.312 F3000.0
G1 X150.82 Y107.309 F3000.0
G1 X150.9 Y107.307 F3000.0
G1 X150.982 Y107.304 F3000.0
G1 X151.068 Y107.301 F3000.0
G1 X151.157 Y107.298 F3000.0
G1 X151.249 Y107.295 F3000.0
G1 X151.344 Y107.292 F3000.0
G1 X151.444 Y107.288 F3000.0
G1 X151.547 Y107.284 F3000.0
G1 X151.655 Y107.279 F3000.0
G1 X151.767 Y107.275 F3000.0
G1 X151.884 Y107.269 F3000.0
G1 X152.007 Y107.264 F3000.0
G1 X152.136 Y107.258 F3000.0
G1 X152.271 Y107.251 F3000.0
G1 X152.412 Y107.244 F3000.0
G1 X152.562 Y107.236 F3000.0
G1 X152.719 Y107.227 F3000.0
G1 X152.885 Y107.217 F3000.0
G1 X153.06 Y107.206 F3000.0
G1 X153.246 Y107.195 F3000.0
G1 X153.442 Y107.182 F3000.0
G1 X153.651 Y107.167 F3000.0
G1 X153.874 Y107.151 F3000.0
G1 X154.111 Y107.132 F3000.0
G1 X154.364 Y107.112 F3000.0
G1 X154.634 Y107.088 F3000.0
G1 X154.922 Y107.062 F3000.0
G1 X155.232 Y107.032 F3000.0
G1 X155.563 Y106.998 F3000.0
G1 X155.918 Y106.959 F3000.0
G1 X156.298 Y106.914 F3000.0
G1 X156.704 Y106.862 F3000.0
G1 X157.137 Y106.802 F3000.0
G1 X157.597 Y106.732 F3000.0
G1 X158.083 Y106.651 F3000.0
G1 X158.59 Y106.557 F3000.0
G1 X159.114 Y106.449 F3000.0
G1 X160.163 Y106.384 F3000.0
G1 X160.795 Y106.241 F3000.0
G1 X161.458 Y106.08 F3000.0
G1 X162.094 Y105.893 F3000.0
G1 X162.71 Y105.684 F3000.0
G1 X163.275 Y105.453 F3000.0
G1 X163.78 Y105.201 F3000.0
G1 X164.167 Y104.931 F3000.0
G1 X164.51 Y104.65 F3000.0
G1 X164.716 Y104.361 F3000.0
G1 X164.878 Y104.067 F3000.0
G1 X164.906 Y103.777 F3000.0
G1 X164.956 Y103.484 F3000.0
G1 X164.927 Y103.196 F3000.0
G1 X164.819 Y102.918 F3000.0
G1 X164.755 Y102.636 F3000.0
G1 X164.638 Y102.364 F3000.0
G1 X164.547 Y102.09 F3000.0
G1 X164.415 Y101.825 F3000.0
G1 X164.285 Y101.563 F3000.0
G1 X164.127 Y101.31 F3000.0
G1 X164.037 Y101.043 F3000.0
G1 X163.894 Y100.791 F3000.0
G1 X163.777 Y100.534 F3000.0
G1 X163.644 Y100.284 F3000.0
G1 X163.467 Y100.05 F3000.0
G1 X163.355 Y99.797 F3000.0
G1 X163.24 Y99.546 F3000.0
G1 X163.096 Y99.307 F3000.0
G1 X162.96 Y99.066 F3000.0
G1 X162.799 Y98.838 F3000.0
G1 X162.666 Y98.598 F3000.0
G1 X162.541 Y98.357 F3000.0
G1 X162.369 Y98.139 F3000.0
G1 X162.247 Y97.897 F3000.0
G1 X162.099 Y97.669 F3000.0
G1 X161.906 Y97.467 F3000.0
G1 X161.772 Y97.234 F3000.0
G1 X161.634 Y97.003 F3000.0
G1 X161.472 Y96.787 F3000.0
G1 X161.311 Y96.571 F3000.0
G1 X161.117 Y96.379 F3000.0
G1 X160.964 Y96.159 F3000.0
G1 X160.807 Y95.943 F3000.0
G1 X160.628 Y95.743 F3000.0
G1 X160.464 Y95.532 F3000.0
G1 X160.283 Y95.336 F3000.0
G1 X160.071 Y95.166 F3000.0
G1 X159.897 Y94.965 F3000.0
G1 X159.719 Y94.767 F3000.0
G1 X159.539 Y94.572 F3000.0
G1 X159.337 Y94.397 F3000.0
G1 X159.15 Y94.209 F3000.0
G1 X158.96 Y94.024 F3000.0
G1 X158.758 Y93.852 F3000.0
G1 X158.557 Y93.678 F3000.0
G1 X158.354 Y93.508 F3000.0
G1 X158.121 Y93.375 F3000.0
G1 X157.916 Y93.208 F3000.0
G1 X157.708 Y93.045 F3000.0
G1 X157.497 Y92.886 F3000.0
G1 X157.284 Y92.73 F3000.0
G1 X157.068 Y92.578 F3000.0
G1 X156.849 Y92.43 F3000.0
G1 X156.615 Y92.306 F3000.0
G1 X156.392 Y92.166 F3000.0
G1 X156.166 Y92.03 F3000.0
G1 X155.938 Y91.898 F3000.0
G1 X155.702 Y91.78 F3000.0
G1 X155.469 Y91.656 F3000.0
G1 X155.234 Y91.536 F3000.0
G1 X154.995 Y91.426 F3000.0
G1 X154.755 Y91.317 F3000.0
G1 X154.514 Y91.211 F3000.0
G1 X154.253 Y91.153 F3000.0
G1 X154.01 Y91.054 F3000.0
G1 X153.765 Y90.96 F3000.0
G1 X153.519 Y90.87 F3000.0
G1 X153.271 Y90.784 F3000.0
G1 X153.021 Y90.703 F3000.0
G1 X152.77 Y90.626 F3000.0
G1 X152.518 Y90.554 F3000.0
G1 X152.265 Y90.485 F3000.0
G1 X152.01 Y90.422 F3000.0
G1 X151.754 Y90.363 F3000.0
G1 X151.498 Y90.308 F3000.0
G1 X151.24 Y90.258 F3000.0
G1 X150.982 Y90.212 F3000.0
G1 X150.723 Y90.171 F3000.0
G1 X150.463 Y90.134 F3000.0
G1 X150.202 Y90.102 F3000.0
G1 X149.941 Y90.075 F3000.0
G1 X149.68 Y90.052 F3000.0
G1 X149.418 Y90.033 F3000.0
G1 X149.156 Y90.02 F3000.0
G1 X148.894 Y90.01 F3000.0
G1 X148.631 Y90.006 F3000.0
G1 X148.369 Y90.006 F3000.0
G1 X148.106 Y90.01 F3000.0
G1 X147.844 Y90.02 F3000.0
G1 X147.582 Y90.033 F3000.0
G1 X147.32 Y90.052 F3000.0
G1 X147.059 Y90.075 F3000.0
G1 X146.798 Y90.102 F3000.0
G1 X146.537 Y90.134 F3000.0
G1 X146.277 Y90.171 F3000.0
G1 X146.018 Y90.212 F3000.0
G1 X145.76 Y90.258 F3000.0
G1 X145.502 Y90.308 F3000.0
G1 X145.246 Y90.363 F3000.0
G1 X144.99 Y90.422 F3000.0
G1 X144.735 Y90.485 F3000.0
G1 X144.482 Y90.554 F3000.0
G1 X144.23 Y90.626 F3000.0
G1 X143.979 Y90.703 F3000.0
G1 X143.729 Y90.784 F3000.0
G1 X143.481 Y90.87 F3000.0
G1 X143.235 Y90.96 F3000.0
G1 X142.99 Y91.054 F3000.0
G1 X142.747 Y91.153 F3000.0
G1 X142.486 Y91.211 F3000.0
G1 X142.245 Y91.317 F3000.0
G1 X142.005 Y91.426 F3000.0
G1 X141.766 Y91.536 F3000.0
G1 X141.531 Y91.656 F3000.0
G1 X141.298 Y91.78 F3000.0
G1 X141.062 Y91.898 F3000.0
G1 X140.834 Y92.03 F3000.0
G1 X140.608 Y92.166 F3000.0
G1 X140.385 Y92.306 F3000.0
G1 X140.151 Y92.43 F3000.0
G1 X139.932 Y92.578 F3000.0
G1 X139.716 Y92.73 F3000.0
G1 X139.503 Y92.886 F3000.0
G1 X139.292 Y93.045 F3000.0
G1 X139.084 Y93.208 F3000.0
G1 X138.879 Y93.375 F3000.0
G1 X138.646 Y93.508 F3000.0
G1 X138.443 Y93.678 F3000.0
G1 X138.242 Y93.852 F3000.0
G1 X138.04 Y94.024 F3000.0
G1 X137.85 Y94.209 F3000.0
G1 X137.663 Y94.397 F3000.0
G1 X137.461 Y94.572 F3000.0
G1 X137.281 Y94.767 F3000.0
G1 X137.103 Y94.965 F3000.0
G1 X136.929 Y95.166 F3000.0
G1 X136.717 Y95.336 F3000.0
G1 X136.536 Y95.532 F3000.0
G1 X136.372 Y95.743 F3000.0
G1 X136.193 Y95.943 F3000.0
G1 X136.036 Y96.159 F3000.0
G1 X135.883 Y96.379 F3000.0
G1 X135.689 Y96.571 F3000.0
G1 X135.528 Y96.787 F3000.0
G1 X135.366 Y97.003 F3000.0
G1 X135.228 Y97.234 F3000.0
G1 X135.094 Y97.467 F3000.0
G1 X134.901 Y97.669 F3000.0
G1 X134.753 Y97.897 F3000.0
G1 X134.631 Y98.139 F3000.0
G1 X134.459 Y98.357 F3000.0
G1 X134.334 Y98.598 F3000.0
G1 X134.201 Y98.838 F3000.0
G1 X134.04 Y99.066 F3000.0
G1 X133.904 Y99.307 F3000.0
G1 X133.76 Y99.546 F3000.0
G1 X133.645 Y99.797 F3000.0
G1 X133.533 Y100.05 F3000.0
G1 X133.356 Y100.284 F3000.0
G1 X133.223 Y100.534 F3000.0
G1 X133.106 Y100.791 F3000.0
G1 X132.963 Y101.043 F3000.0
G1 X132.873 Y101.31 F3000.0
G1 X132.715 Y101.563 F3000.0
G1 X132.585 Y101.825 F3000.0
G1 X132.453 Y102.09 F3000.0
G1 X132.362 Y102.364 F3000.0
G1 X132.245 Y102.636 F3000.0
G1 X132.181 Y102.918 F3000.0
G1 X132.073 Y103.196 F3000.0
G1 X132.044 Y103.484 F3000.0
G1 X132.094 Y103.777 F3000.0
G1 X132.122 Y104.067 F3000.0
G1 X132.284 Y104.361 F3000.0
G1 X132.49 Y104.65 F3000.0
G1 X132.833 Y104.931 F3000.0
G1 X133.22 Y105.201 F3000.0
G1 X133.725 Y105.453 F3000.0
G1 X134.29 Y105.684 F3000.0
G1 X134.906 Y105.893 F3000.0
G1 X135.542 Y106.08 F3000.0
G1 X136.205 Y106.241 F3000.0
G1 X136.837 Y106.384 F3000.0
G1 X137.886 Y106.449 F3000.0
G1 X138.41 Y106.557 F3000.0
G1 X138.917 Y106.651 F3000.0
G1 X139.403 Y106.732 F3000.0
G1 X139.863 Y106.802 F3000.0
G1 X140.296 Y106.862 F3000.0
G1 X140.702 Y106.914 F3000.0
G1 X141.082 Y106.959 F3000.0
G1 X141.437 Y106.998 F3000.0
G1 X141.768 Y107.032 F3000.0
G1 X142.078 Y107.062 F3000.0
G1 X142.366 Y107.088 F3000.0
G1 X142.636 Y107.112 F3000.0
G1 X142.889 Y107.132 F3000.0
G1 X143.126 Y107.151 F3000.0
G1 X143.349 Y107.167 F3000.0
G1 X143.558 Y107.182 F3000.0
G1 X143.754 Y107.195 F3000.0
G1 X143.94 Y107.206 F3000.0
G1 X144.115 Y107.217 F3000.0
G1 X144.281 Y107.227 F3000.0
G1 X144.438 Y107.236 F3000.0
G1 X144.588 Y107.244 F3000.0
G1 X144.729 Y107.251 F3000.0
G1 X144.864 Y107.258 F3000.0
G1 X144.993 Y107.264 F3000.0
G1 X145.116 Y107.269 F3000.0
G1 X145.233 Y107.275 F3000.0
G1 X145.345 Y107.279 F3000.0
G1 X145.453 Y107.284 F3000.0
G1 X145.556 Y107.288 F3000.0
G1 X145.656 Y107.292 F3000.0
G1 X145.751 Y107.295 F3000.0
G1 X145.843 Y107.298 F3000.0
G1 X145.932 Y107.301 F3000.0
G1 X146.018 Y107.304 F3000.0
G1 X146.1 Y107.307 F3000.0
G1 X146.18 Y107.309 F3000.0
G1 X146.258 Y107.312 F3000.0
G1 X146.333 Y107.314 F3000.0
G1 X146.406 Y107.316 F3000.0
G1 X146.477 Y107.318 F3000.0
G1 X146.546 Y107.32 F3000.0
G1 X146.613 Y107.321 F3000.0
G1 X146.678 Y107.323 F3000.0
G1 X146.742 Y107.324 F3000.0
G1 X146.804 Y107.326 F3000.0
G1 X146.865 Y107.327 F3000.0
G1 X146.924 Y107.328 F3000.0
G1 X146.982 Y107.329 F3000.0
G1 X147.039 Y107.33 F3000.0
G1 X147.094 Y107.332 F3000.0
G1 X147.149 Y107.332 F3000.0
G1 X147.202 Y107.333 F3000.0
G1 X147.255 Y107.334 F3000.0
G1 X147.306 Y107.335 F3000.0
G1 X147.357 Y107.336 F3000.0
G1 X147.407 Y107.337 F3000.0
G1 X147.456 Y107.337 F3000.0
G1 X147.505 Y107.338 F3000.0
G1 X147.552 Y107.338 F3000.0
G1 X147.599 Y107.339 F3000.0
G1 X147.646 Y107.34 F3000.0
G1 X147.692 Y107.34 F3000.0
G1 X147.737 Y107.341 F3000.0
G1 X147.782 Y107.341 F3000.0
G1 X147.827 Y107.341 F3000.0
G1 X147.871 Y107.342 F3000.0
G1 X147.914 Y107.342 F3000.0
G1 X147.958 Y107.342 F3000.0
G1 X148.001 Y107.343 F3000.0
G1 X148.043 Y107.343 F3000.0
G1 X148.086 Y107.343 F3000.0
G1 X148.128 Y107.343 F3000.0
G1 X148.17 Y107.344 F3000.0
G1 X148.211 Y107.344 F3000.0
G1 X148.253 Y107.344 F3000.0
G1 X148.294 Y107.344 F3000.0
G1 X148.336 Y107.344 F3000.0
G1 X148.377 Y107.344 F3000.0
G1 X148.418 Y107.344 F3000.0
G1 X148.459 Y107.344 F3000.0
G1 X148.5 Y107.344 F3000.0
M5
G0 X148.5 Y109.298 F5000.0
M3 S1000
G1 X148.575 Y109.298 F3000.0
G1 X148.65 Y109.298 F3000.0
G1 X148.726 Y109.298 F3000.0
G1 X148.801 Y109.297 F3000.0
G1 X148.877 Y109.297 F3000.0
G1 X148.953 Y109.297 F3000.0
G1 X149.029 Y109.297 F3000.0
G1 X149.106 Y109.297 F3000.0
G1 X149.182 Y109.296 F3000.0
G1 X149.26 Y109.296 F3000.0
G1 X149.337 Y109.295 F3000.0
G1 X149.416 Y109.295 F3000.0
G1 X149.494 Y109.294 F3000.0
G1 X149.574 Y109.294 F3000.0
G1 X149.654 Y109.293 F3000.0
G1 X149.734 Y109.292 F3000.0
G1 X149.816 Y109.292 F3000.0
G1 X149.898 Y109.291 F3000.0
G1 X149.982 Y109.29 F3000.0
G1 X150.066 Y109.289 F3000.0
G1 X150.151 Y109.288 F3000.0
G1 X150.237 Y109.287 F3000.0
G1 X150.325 Y109.286 F3000.0
G1 X150.414 Y109.285 F3000.0
G1 X150.504 Y109.284 F3000.0
G1 X150.595 Y109.282 F3000.0
G1 X150.688 Y109.281 F3000.0
G1 X150.783 Y109.279 F3000.0
G1 X150.879 Y109.278 F3000.0
G1 X150.977 Y109.276 F3000.0
G1 X151.077 Y109.274 F3000.0
G1 X151.179 Y109.273 F3000.0
G1 X151.283 Y109.271 F3000.0
G1 X151.389 Y109.268 F3000.0
G1 X151.498 Y109.266 F3000.0
G1 X151.609 Y109.264 F3000.0
G1 X151.723 Y109.261 F3000.0
G1 X151.84 Y109.258 F3000.0
G1 X151.959 Y109.256 F3000.0
G1 X152.082 Y109.253 F3000.0
G1 X152.209 Y109.249 F3000.0
G1 X152.339 Y109.246 F3000.0
G1 X152.472 Y109.242 F3000.0
G1 X152.61 Y109.238 F3000.0
G1 X152.752 Y109.234 F3000.0
G1 X152.899 Y109.229 F3000.0
G1 X153.051 Y109.225 F3000.0
G1 X153.208 Y109.219 F3000.0
G1 X153.371 Y109.214 F3000.0
G1 X153.539 Y109.208 F3000.0
G1 X153.715 Y109.201 F3000.0
G1 X153.897 Y109.194 F3000.0
G1 X154.086 Y109.187 F3000.0
G1 X154.284 Y109.179 F3000.0
G1 X154.489 Y109.17 F3000.0
G1 X154.705 Y109.161 F3000.0
G1 X154.93 Y109.15 F3000.0
G1 X155.166 Y109.139 F3000.0
G1 X155.413 Y109.127 F3000.0
G1 X155.673 Y109.113 F3000.0
G1 X155.946 Y109.099 F3000.0
G1 X156.234 Y109.083 F3000.0
G1 X156.538 Y109.065 F3000.0
G1 X156.86 Y109.045 F3000.0
G1 X157.2 Y109.024 F3000.0
G1 X157.561 Y108.999 F3000.0
G1 X157.944 Y108.973 F3000.0
G1 X158.352 Y108.943 F3000.0
G1 X158.786 Y108.909 F3000.0
G1 X159.25 Y108.871 F3000.0
G1 X159.803 Y108.848 F3000.0
G1 X160.331 Y108.798 F3000.0
G1 X160.9 Y108.743 F3000.0
G1 X161.525 Y108.684 F3000.0
G1 X162.189 Y108.614 F3000.0
G1 X162.936 Y108.543 F3000.0
G1 X163.684 Y108.446 F3000.0
G1 X164.508 Y108.339 F3000.0
G1 X165.407 Y108.219 F3000.0
G1 X166.35 Y108.076 F3000.0
G1 X167.328 Y107.906 F3000.0
G1 X168.383 Y107.714 F3000.0
G1 X169.457 Y107.487 F3000.0
G1 X170.535 Y107.225 F3000.0
G1 X171.614 Y106.926 F3000.0
G1 X172.627 Y106.586 F3000.0
G1 X173.573 Y106.208 F3000.0
G1 X174.355 Y105.792 F3000.0
G1 X175.0 Y105.348 F3000.0
G1 X175.505 Y104.882 F3000.0
G1 X175.737 Y104.404 F3000.0
G1 X175.828 Y103.923 F3000.0
G1 X175.7 Y103.451 F3000.0
G1 X175.516 Y102.987 F3000.0
G1 X175.18 Y102.542 F3000.0
G1 X174.804 Y102.111 F3000.0
G1 X174.369 Y101.7 F3000.0
G1 X173.889 Y101.308 F3000.0
G1 X173.469 Y100.922 F3000.0
G1 X173.017 Y100.554 F3000.0
G1 X172.6 Y100.193 F3000.0
G1 X172.19 Y99.842 F3000.0
G1 X171.789 Y99.5 F3000.0
G1 X171.422 Y99.162 F3000.0
G1 X171.012 Y98.845 F3000.0
G1 X170.699 Y98.51 F3000.0
G1 X170.382 Y98.185 F3000.0
G1 X170.061 Y97.869 F3000.0
G1 X169.735 Y97.562 F3000.0
G1 X169.457 Y97.245 F3000.0
G1 X169.169 Y96.938 F3000.0
G1 X168.886 Y96.634 F3000.0
G1 X168.587 Y96.343 F3000.0
G1 X168.337 Y96.036 F3000.0
G1 X168.059 Y95.746 F3000.0
G1 X167.801 Y95.451 F3000.0
G1 X167.538 Y95.163 F3000.0
G1 X167.271 Y94.881 F3000.0
G1 X167.023 Y94.592 F3000.0
G1 X166.748 Y94.322 F3000.0
G1 X166.47 Y94.058 F3000.0
G1 X166.254 Y93.759 F3000.0
G1 X165.989 Y93.493 F3000.0
G1 X165.699 Y93.247 F3000.0
G1 X165.47 Y92.963 F3000.0
G1 X165.194 Y92.714 F3000.0
G1 X164.956 Y92.44 F3000.0
G1 X164.672 Y92.202 F3000.0
G1 X164.426 Y91.937 F3000.0
G1 X164.136 Y91.711 F3000.0
G1 X163.881 Y91.456 F3000.0
G1 X163.627 Y91.202 F3000.0
G1 X163.341 Y90.98 F3000.0
G1 X163.075 Y90.74 F3000.0
G1 X162.806 Y90.505 F3000.0
G1 X162.514 Y90.295 F3000.0
G1 X162.237 Y90.071 F3000.0
G1 X161.96 Y89.848 F3000.0
G1 X161.655 Y89.658 F3000.0
G1 X161.385 Y89.431 F3000.0
G1 X161.094 Y89.228 F3000.0
G1 X160.804 Y89.025 F3000.0
G1 X160.488 Y88.859 F3000.0
G1 X160.204 Y88.652 F3000.0
G1 X159.901 Y88.47 F3000.0
G1 X159.603 Y88.284 F3000.0
G1 X159.304 Y88.101 F3000.0
G1 X158.977 Y87.961 F3000.0
G1 X158.678 Y87.78 F3000.0
G1 X158.375 Y87.605 F3000.0
G1 X158.056 Y87.457 F3000.0
G1 X157.742 Y87.304 F3000.0
G1 X157.428 Y87.151 F3000.0
G1 X157.089 Y87.05 F3000.0
G1 X156.774 Y86.902 F3000.0
G1 X156.456 Y86.76 F3000.0
G1 X156.135 Y86.624 F3000.0
G1 X155.813 Y86.493 F3000.0
G1 X155.478 Y86.392 F3000.0
G1 X155.152 Y86.273 F3000.0
G1 X154.819 Y86.171 F3000.0
G1 X154.488 Y86.064 F3000.0
G1 X154.154 Y85.968 F3000.0
G1 X153.819 Y85.877 F3000.0
G1 X153.47 Y85.838 F3000.0
G1 X153.134 Y85.754 F3000.0
G1 X152.796 Y85.676 F3000.0
G1 X152.458 Y85.603 F3000.0
G1 X152.118 Y85.537 F3000.0
G1 X151.776 Y85.477 F3000.0
G1 X151.434 Y85.422 F3000.0
G1 X151.091 Y85.374 F3000.0
G1 X150.747 Y85.332 F3000.0
G1 X150.403 Y85.295 F3000.0
G1 X150.058 Y85.265 F3000.0
G1 X149.712 Y85.241 F3000.0
G1 X149.366 Y85.223 F3000.0
G1 X149.019 Y85.236 F3000.0
G1 X148.673 Y85.23 F3000.0
G1 X148.327 Y85.23 F3000.0
G1 X147.981 Y85.236 F3000.0
G1 X147.634 Y85.223 F3000.0
G1 X147.288 Y85.241 F3000.0
G1 X146.942 Y85.265 F3000.0
G1 X146.597 Y85.295 F3000.0
G1 X146.253 Y85.332 F3000.0
G1 X145.909 Y85.374 F3000.0
G1 X145.566 Y85.422 F3000.0
G1 X145.224 Y85.477 F3000.0
G1 X144.882 Y85.537 F3000.0
G1 X144.542 Y85.603 F3000.0
G1 X144.204 Y85.676 F3000.0
G1 X143.866 Y85.754 F3000.0
G1 X143.53 Y85.838 F3000.0
G1 X143.181 Y85.877 F3000.0
G1 X142.846 Y85.968 F3000.0
G1 X142.512 Y86.064 F3000.0
G1 X142.181 Y86.171 F3000.0
G1 X141.848 Y86.273 F3000.0
G1 X141.522 Y86.392 F3000.0
G1 X141.187 Y86.493 F3000.0
G1 X140.865 Y86.624 F3000.0
G1 X140.544 Y86.76 F3000.0
G1 X140.226 Y86.902 F3000.0
G1 X139.911 Y87.05 F3000.0
G1 X139.572 Y87.151 F3000.0
G1 X139.258 Y87.304 F3000.0
G1 X138.944 Y87.457 F3000.0
G1 X138.625 Y87.605 F3000.0
G1 X138.322 Y87.78 F3000.0
G1 X138.023 Y87.961 F3000.0
G1 X137.696 Y88.101 F3000.0
G1 X137.397 Y88.284 F3000.0
G1 X137.099 Y88.47 F3000.0
G1 X136.796 Y88.652 F3000.0
G1 X136.512 Y88.859 F3000.0
G1 X136.196 Y89.025 F3000.0
G1 X135.906 Y89.228 F3000.0
G1 X135.615 Y89.431 F3000.0
G1 X135.345 Y89.658 F3000.0
G1 X135.04 Y89.848 F3000.0
G1 X134.763 Y90.071 F3000.0
G1 X134.486 Y90.295 F3000.0
G1 X134.194 Y90.505 F3000.0
G1 X133.925 Y90.74 F3000.0
G1 X133.659 Y90.98 F3000.0
G1 X133.373 Y91.202 F3000.0
G1 X133.119 Y91.456 F3000.0
G1 X132.864 Y91.711 F3000.0
G1 X132.574 Y91.937 F3000.0
G1 X132.328 Y92.202 F3000.0
G1 X132.044 Y92.44 F3000.0
G1 X131.806 Y92.714 F3000.0
G1 X131.53 Y92.963 F3000.0
G1 X131.301 Y93.247 F3000.0
G1 X131.011 Y93.493 F3000.0
G1 X130.746 Y93.759 F3000.0
G1 X130.53 Y94.058 F3000.0
G1 X130.252 Y94.322 F3000.0
G1 X129.977 Y94.592 F3000.0
G1 X129.729 Y94.881 F3000.0
G1 X129.462 Y95.163 F3000.0
G1 X129.199 Y95.451 F3000.0
G1 X128.941 Y95.746 F3000.0
G1 X128.663 Y96.036 F3000.0
G1 X128.413 Y96.343 F3000.0
G1 X128.114 Y96.634 F3000.0
G1 X127.831 Y96.938 F3000.0
G1 X127.543 Y97.245 F3000.0
G1 X127.265 Y97.562 F3000.0
G1 X126.939 Y97.869 F3000.0
G1 X126.618 Y98.185 F3000.0
G1 X126.301 Y98.51 F3000.0
G1 X125.988 Y98.845 F3000.0
G1 X125.578 Y99.162 F3000.0
G1 X125.211 Y99.5 F3000.0
G1 X124.81 Y99.842 F3000.0
G1 X124.4 Y100.193 F3000.0
G1 X123.983 Y100.554 F3000.0
G1 X123.531 Y100.922 F3000.0
G1 X123.111 Y101.308 F3000.0
G1 X122.631 Y101.7 F3000.0
G1 X122.196 Y102.111 F3000.0
G1 X121.82 Y102.542 F3000.0
G1 X121.484 Y102.987 F3000.0
G1 X121.3 Y103.451 F3000.0
G1 X121.172 Y103.923 F3000.0
G1 X121.263 Y104.404 F3000.0
G1 X121.495 Y104.882 F3000.0
G1 X122.0 Y105.348 F3000.0
G1 X122.645 Y105.792 F3000.0
G1 X123.427 Y106.208 F3000.0
G1 X124.373 Y106.586 F3000.0
G1 X125.386 Y106.926 F3000.0
G1 X126.465 Y107.225 F3000.0
G1 X127.543 Y107.487 F3000.0
G1 X128.617 Y107.714 F3000.0
G1 X129.672 Y107.906 F3000.0
G1 X130.65 Y108.076 F3000.0
G1 X131.593 Y108.219 F3000.0
G1 X132.492 Y108.339 F3000.0
G1 X133.316 Y108.446 F3000.0
G1 X134.064 Y108.543 F3000.0
G1 X134.811 Y108.614 F3000.0
G1 X135.475 Y108.684 F3000.0
G1 X136.1 Y108.743 F3000.0
G1 X136.669 Y108.798 F3000.0
G1 X137.197 Y108.848 F3000.0
G1 X137.75 Y108.871 F3000.0
G1 X138.214 Y108.909 F3000.0
G1 X138.648 Y108.943 F3000.0
G1 X139.056 Y108.973 F3000.0
G1 X139.439 Y108.999 F3000.0
G1 X139.8 Y109.024 F3000.0
G1 X140.14 Y109.045 F3000.0
G1 X140.462 Y109.065 F3000.0
G1 X140.766 Y109.083 F3000.0
G1 X141.054 Y109.099 F3000.0
G1 X141.327 Y109.113 F3000.0
G1 X141.587 Y109.127 F3000.0
G1 X141.834 Y109.139 F3000.0
G1 X142.07 Y109.15 F3000.0
G1 X142.295 Y109.161 F3000.0
G1 X142.511 Y109.17 F3000.0
G1 X142.716 Y109.179 F3000.0
G1 X142.914 Y109.187 F3000.0
G1 X143.103 Y109.194 F3000.0
G1 X143.285 Y109.201 F3000.0
G1 X143.461 Y109.208 F3000.0
G1 X143.629 Y109.214 F3000.0
G1 X143.792 Y109.219 F3000.0
G1 X143.949 Y109.225 F3000.0
G1 X144.101 Y109.229 F3000.0
G1 X144.248 Y109.234 F3000.0
G1 X144.39 Y109.238 F3000.0
G1 X144.528 Y109.242 F3000.0
G1 X144.661 Y109.246 F3000.0
G1 X144.791 Y109.249 F3000.0
G1 X144.918 Y109.253 F3000.0
G1 X145.041 Y109.256 F3000.0
G1 X145.16 Y109.258 F3000.0
G1 X145.277 Y109.261 F3000.0
G1 X145.391 Y109.264 F3000.0
G1 X145.502 Y109.266 F3000.0
G1 X145.611 Y109.268 F3000.0
G1 X145.717 Y109.271 F3000.0
G1 X145.821 Y109.273 F3000.0
G1 X145.923 Y109.274 F3000.0
G1 X146.023 Y109.276 F3000.0
G1 X146.121 Y109.278 F3000.0
G1 X146.217 Y109.279 F3000.0
G1 X146.312 Y109.281 F3000.0
G1 X146.405 Y109.282 F3000.0
G1 X146.496 Y109.284 F3000.0
G1 X146.586 Y109.285 F3000.0
G1 X146.675 Y109.286 F3000.0
G1 X146.763 Y109.287 F3000.0
G1 X146.849 Y109.288 F3000.0
G1 X146.934 Y109.289 F3000.0
G1 X147.018 Y109.29 F3000.0
G1 X147.102 Y109.291 F3000.0
G1 X147.184 Y109.292 F3000.0
G1 X147.266 Y109.292 F3000.0
G1 X147.346 Y109.293 F3000.0
G1 X147.426 Y109.294 F3000.0
G1 X147.506 Y109.294 F3000.0
G1 X147.584 Y109.295 F3000.0
G1 X147.663 Y109.295 F3000.0
G1 X147.74 Y109.296 F3000.0
G1 X147.818 Y109.296 F3000.0
G1 X147.894 Y109.297 F3000.0
G1 X147.971 Y109.297 F3000.0
G1 X148.047 Y109.297 F3000.0
G1 X148.123 Y109.297 F3000.0
G1 X148.199 Y109.297 F3000.0
G1 X148.274 Y109.298 F3000.0
G1 X148.35 Y109.298 F3000.0
G1 X148.425 Y109.298 F3000.0
G1 X148.5 Y109.298 F3000.0
M5
G0 X148.5 Y111.251 F5000.0
M3 S1000
G1 X148.609 Y111.251 F3000.0
G1 X148.719 Y111.251 F3000.0
G1 X148.829 Y111.251 F3000.0
G1 X148.938 Y111.251 F3000.0
G1 X149.048 Y111.251 F3000.0
G1 X149.159 Y111.25 F3000.0
G1 X149.27 Y111.25 F3000.0
G1 X149.381 Y111.249 F3000.0
G1 X149.493 Y111.249 F3000.0
G1 X149.605 Y111.248 F3000.0
G1 X149.718 Y111.248 F3000.0
G1 X149.832 Y111.247 F3000.0
G1 X149.946 Y111.246 F3000.0
G1 X150.062 Y111.245 F3000.0
G1 X150.178 Y111.245 F3000.0
G1 X150.296 Y111.244 F3000.0
G1 X150.414 Y111.242 F3000.0
G1 X150.534 Y111.241 F3000.0
G1 X150.655 Y111.24 F3000.0
G1 X150.778 Y111.239 F3000.0
G1 X150.902 Y111.237 F3000.0
G1 X151.027 Y111.236 F3000.0
G1 X151.155 Y111.234 F3000.0
G1 X151.284 Y111.233 F3000.0
G1 X151.415 Y111.231 F3000.0
G1 X151.548 Y111.229 F3000.0
G1 X151.683 Y111.227 F3000.0
G1 X151.821 Y111.225 F3000.0
G1 X151.961 Y111.222 F3000.0
G1 X152.103 Y111.22 F3000.0
G1 X152.249 Y111.217 F3000.0
G1 X152.397 Y111.215 F3000.0
G1 X152.548 Y111.212 F3000.0
G1 X152.703 Y111.209 F3000.0
G1 X152.861 Y111.205 F3000.0
G1 X153.022 Y111.202 F3000.0
G1 X153.188 Y111.198 F3000.0
G1 X153.358 Y111.194 F3000.0
G1 X153.532 Y111.19 F3000.0
G1 X153.711 Y111.186 F3000.0
G1 X153.895 Y111.181 F3000.0
G1 X154.083 Y111.176 F3000.0
G1 X154.278 Y111.17 F3000.0
G1 X154.479 Y111.165 F3000.0
G1 X154.685 Y111.158 F3000.0
G1 X154.899 Y111.152 F3000.0
G1 X155.12 Y111.145 F3000.0
G1 X155.348 Y111.137 F3000.0
G1 X155.585 Y111.129 F3000.0
G1 X155.83 Y111.12 F3000.0
G1 X156.085 Y111.111 F3000.0
G1 X156.35 Y111.101 F3000.0
G1 X156.625 Y111.09 F3000.0
G1 X156.912 Y111.078 F3000.0
G1 X157.212 Y111.066 F3000.0
G1 X157.525 Y111.052 F3000.0
G1 X157.852 Y111.037 F3000.0
G1 X158.195 Y111.02 F3000.0
G1 X158.564 Y111.008 F3000.0
G1 X158.95 Y110.993 F3000.0
G1 X159.326 Y110.959 F3000.0
G1 X159.748 Y110.937 F3000.0
G1 X160.203 Y110.918 F3000.0
G1 X160.685 Y110.896 F3000.0
G1 X161.186 Y110.867 F3000.0
G1 X161.704 Y110.828 F3000.0
G1 X162.235 Y110.777 F3000.0
G1 X162.866 Y110.749 F3000.0
G1 X163.51 Y110.704 F3000.0
G1 X164.165 Y110.641 F3000.0
G1 X164.899 Y110.583 F3000.0
G1 X165.692 Y110.519 F3000.0
G1 X166.53 Y110.442 F3000.0
G1 X167.425 Y110.353 F3000.0
G1 X168.396 Y110.254 F3000.0
G1 X169.413 Y110.132 F3000.0
G1 X170.518 Y109.997 F3000.0
G1 X171.719 Y109.843 F3000.0
G1 X172.977 Y109.66 F3000.0
G1 X174.304 Y109.447 F3000.0
G1 X175.739 Y109.204 F3000.0
G1 X177.23 Y108.921 F3000.0
G1 X178.719 Y108.587 F3000.0
G1 X180.261 Y108.207 F3000.0
G1 X181.761 Y107.772 F3000.0
G1 X183.124 Y107.276 F3000.0
G1 X184.413 Y106.73 F3000.0
G1 X185.487 Y106.133 F3000.0
G1 X186.271 Y105.496 F3000.0
G1 X186.728 Y104.833 F3000.0
G1 X186.934 Y104.159 F3000.0
G1 X186.866 Y103.488 F3000.0
G1 X186.513 Y102.835 F3000.0
G1 X185.956 Y102.209 F3000.0
G1 X185.262 Y101.613 F3000.0
G1 X184.479 Y101.049 F3000.0
G1 X183.662 Y100.514 F3000.0
G1 X182.811 Y100.011 F3000.0
G1 X181.98 Y99.532 F3000.0
G1 X181.17 Y99.075 F3000.0
G1 X180.434 Y98.63 F3000.0
G1 X179.692 Y98.208 F3000.0
G1 X179.011 Y97.795 F3000.0
G1 X178.364 Y97.394 F3000.0
G1 X177.751 Y97.002 F3000.0
G1 X177.172 Y96.618 F3000.0
G1 X176.615 Y96.244 F3000.0
G1 X176.079 Y95.879 F3000.0
G1 X175.614 Y95.503 F3000.0
G1 X175.145 Y95.14 F3000.0
G1 X174.672 Y94.791 F3000.0
G1 X174.256 Y94.43 F3000.0
G1 X173.811 Y94.092 F3000.0
G1 X173.423 Y93.738 F3000.0
G1 X173.031 Y93.394 F3000.0
G1 X172.634 Y93.06 F3000.0
G1 X172.233 Y92.737 F3000.0
G1 X171.898 Y92.386 F3000.0
G1 X171.512 Y92.069 F3000.0
G1 X171.168 Y91.735 F3000.0
G1 X170.775 Y91.437 F3000.0
G1 X170.445 Y91.106 F3000.0
G1 X170.11 Y90.782 F3000.0
G1 X169.748 Y90.481 F3000.0
G1 X169.405 Y90.172 F3000.0
G1 X169.057 Y89.871 F3000.0
G1 X168.726 Y89.562 F3000.0
G1 X168.37 Y89.276 F3000.0
G1 X168.01 Y88.997 F3000.0
G1 X167.69 Y88.69 F3000.0
G1 X167.339 Y88.411 F3000.0
G1 X166.988 Y88.138 F3000.0
G1 X166.613 Y87.889 F3000.0
G1 X166.292 Y87.593 F3000.0
G1 X165.929 Y87.341 F3000.0
G1 X165.59 Y87.067 F3000.0
G1 X165.229 Y86.819 F3000.0
G1 X164.882 Y86.559 F3000.0
G1 X164.514 Y86.325 F3000.0
G1 X164.159 Y86.078 F3000.0
G1 X163.785 Y85.858 F3000.0
G1 X163.431 Y85.615 F3000.0
G1 X163.043 Y85.42 F3000.0
G1 X162.698 Y85.168 F3000.0
G1 X162.333 Y84.944 F3000.0
G1 X161.937 Y84.771 F3000.0
G1 X161.581 Y84.539 F3000.0
G1 X161.207 Y84.336 F3000.0
G1 X160.803 Y84.184 F3000.0
G1 X160.437 Y83.972 F3000.0
G1 X160.054 Y83.79 F3000.0
G1 X159.675 Y83.602 F3000.0
G1 X159.27 Y83.469 F3000.0
G1 X158.891 Y83.284 F3000.0
G1 X158.51 Y83.105 F3000.0
G1 X158.114 Y82.958 F3000.0
G1 X157.722 Y82.805 F3000.0
G1 X157.308 Y82.708 F3000.0
G1 X156.916 Y82.557 F3000.0
G1 X156.522 Y82.413 F3000.0
G1 X156.118 Y82.301 F3000.0
G1 X155.719 Y82.172 F3000.0
G1 X155.315 Y82.061 F3000.0
G1 X154.911 Y81.952 F3000.0
G1 X154.491 Y81.901 F3000.0
G1 X154.086 Y81.799 F3000.0
G1 X153.679 Y81.705 F3000.0
G1 X153.271 Y81.618 F3000.0
G1 X152.861 Y81.538 F3000.0
G1 X152.45 Y81.465 F3000.0
G1 X152.033 Y81.426 F3000.0
G1 X151.62 Y81.368 F3000.0
G1 X151.206 Y81.317 F3000.0
G1 X150.791 Y81.273 F3000.0
G1 X150.375 Y81.236 F3000.0
G1 X149.958 Y81.22 F3000.0
G1 X149.542 Y81.198 F3000.0
G1 X149.125 Y81.184 F3000.0
G1 X148.708 Y81.177 F3000.0
G1 X148.292 Y81.177 F3000.0
G1 X147.875 Y81.184 F3000.0
G1 X147.458 Y81.198 F3000.0
G1 X147.042 Y81.22 F3000.0
G1 X146.625 Y81.236 F3000.0
G1 X146.209 Y81.273 F3000.0
G1 X145.794 Y81.317 F3000.0
G1 X145.38 Y81.368 F3000.0
G1 X144.967 Y81.426 F3000.0
G1 X144.55 Y81.465 F3000.0
G1 X144.139 Y81.538 F3000.0
G1 X143.729 Y81.618 F3000.0
G1 X143.321 Y81.705 F3000.0
G1 X142.914 Y81.799 F3000.0
G1 X142.509 Y81.901 F3000.0
G1 X142.089 Y81.952 F3000.0
G1 X141.685 Y82.061 F3000.0
G1 X141.281 Y82.172 F3000.0
G1 X140.882 Y82.301 F3000.0
G1 X140.478 Y82.413 F3000.0
G1 X140.084 Y82.557 F3000.0
G1 X139.692 Y82.708 F3000.0
G1 X139.278 Y82.805 F3000.0
G1 X138.886 Y82.958 F3000.0
G1 X138.49 Y83.105 F3000.0
G1 X138.109 Y83.284 F3000.0
G1 X137.73 Y83.469 F3000.0
G1 X137.325 Y83.602 F3000.0
G1 X136.946 Y83.79 F3000.0
G1 X136.563 Y83.972 F3000.0
G1 X136.197 Y84.184 F3000.0
G1 X135.793 Y84.336 F3000.0
G1 X135.419 Y84.539 F3000.0
G1 X135.063 Y84.771 F3000.0
G1 X134.667 Y84.944 F3000.0
G1 X134.302 Y85.168 F3000.0
G1 X133.957 Y85.42 F3000.0
G1 X133.569 Y85.615 F3000.0
G1 X133.215 Y85.858 F3000.0
G1 X132.841 Y86.078 F3000.0
G1 X132.486 Y86.325 F3000.0
G1 X132.118 Y86.559 F3000.0
G1 X131.771 Y86.819 F3000.0
G1 X131.41 Y87.067 F3000.0
G1 X131.071 Y87.341 F3000.0
G1 X130.708 Y87.593 F3000.0
G1 X130.387 Y87.889 F3000.0
G1 X130.012 Y88.138 F3000.0
G1 X129.661 Y88.411 F3000.0
G1 X129.31 Y88.69 F3000.0
G1 X128.99 Y88.997 F3000.0
G1 X128.63 Y89.276 F3000.0
G1 X128.274 Y89.562 F3000.0
G1 X127.943 Y89.871 F3000.0
G1 X127.595 Y90.172 F3000.0
G1 X127.252 Y90.481 F3000.0
G1 X126.89 Y90.782 F3000.0
G1 X126.555 Y91.106 F3000.0
G1 X126.225 Y91.437 F3000.0
G1 X125.832 Y91.735 F3000.0
G1 X125.488 Y92.069 F3000.0
G1 X125.102 Y92.386 F3000.0
G1 X124.767 Y92.737 F3000.0
G1 X124.366 Y93.06 F3000.0
G1 X123.969 Y93.394 F3000.0
G1 X123.577 Y93.738 F3000.0
G1 X123.189 Y94.092 F3000.0
G1 X122.744 Y94.43 F3000.0
G1 X122.328 Y94.791 F3000.0
G1 X121.855 Y95.14 F3000.0
G1 X121.386 Y95.503 F3000.0
G1 X120.921 Y95.879 F3000.0
G1 X120.385 Y96.244 F3000.0
G1 X119.828 Y96.618 F3000.0
G1 X119.249 Y97.002 F3000.0
G1 X118.636 Y97.394 F3000.0
G1 X117.989 Y97.795 F3000.0
G1 X117.308 Y98.208 F3000.0
G1 X116.566 Y98.63 F3000.0
G1 X115.83 Y99.075 F3000.0
G1 X115.02 Y99.532 F3000.0
G1 X114.189 Y100.011 F3000.0
G1 X113.338 Y100.514 F3000.0
G1 X112.521 Y101.049 F3000.0
G1 X111.738 Y101.613 F3000.0
G1 X111.044 Y102.209 F3000.0
G1 X110.487 Y102.835 F3000.0
G1 X110.134 Y103.488 F3000.0
G1 X110.066 Y104.159 F3000.0
G1 X110.272 Y104.833 F3000.0
G1 X110.729 Y105.496 F3000.0
G1 X111.513 Y106.133 F3000.0
G1 X112.587 Y106.73 F3000.0
G1 X113.876 Y107.276 F3000.0
G1 X115.239 Y107.772 F3000.0
G1 X116.739 Y108.207 F3000.0
G1 X118.281 Y108.587 F3000.0
G1 X119.77 Y108.921 F3000.0
G1 X121.261 Y109.204 F3000.0
G1 X122.696 Y109.447 F3000.0
G1 X124.023 Y109.66 F3000.0
G1 X125.281 Y109.843 F3000.0
G1 X126.482 Y109.997 F3000.0
G1 X127.587 Y110.132 F3000.0
G1 X128.604 Y110.254 F3000.0
G1 X129.575 Y110.353 F3000.0
G1 X130.47 Y110.442 F3000.0
G1 X131.308 Y110.519 F3000.0
G1 X132.101 Y110.583 F3000.0
G1 X132.835 Y110.641 F3000.0
G1 X133.49 Y110.704 F3000.0
G1 X134.134 Y110.749 F3000.0
G1 X134.765 Y110.777 F3000.0
G1 X135.296 Y110.828 F3000.0
G1 X135.814 Y110.867 F3000.0
G1 X136.315 Y110.896 F3000.0
G1 X136.797 Y110.918 F3000.0
G1 X137.252 Y110.937 F3000.0
G1 X137.674 Y110.959 F3000.0
G1 X138.05 Y110.993 F3000.0
G1 X138.436 Y111.008 F3000.0
G1 X138.805 Y111.02 F3000.0
G1 X139.148 Y111.037 F3000.0
G1 X139.475 Y111.052 F3000.0
G1 X139.788 Y111.066 F3000.0
G1 X140.088 Y111.078 F3000.0
G1 X140.375 Y111.09 F3000.0
G1 X140.65 Y111.101 F3000.0
G1 X140.915 Y111.111 F3000.0
G1 X141.17 Y111.12 F3000.0
G1 X141.415 Y111.129 F3000.0
G1 X141.652 Y111.137 F3000.0
G1 X141.88 Y111.145 F3000.0
G1 X142.101 Y111.152 F3000.0
G1 X142.315 Y111.158 F3000.0
G1 X142.521 Y111.165 F3000.0
G1 X142.722 Y111.17 F3000.0
G1 X142.917 Y111.176 F3000.0
G1 X143.105 Y111.181 F3000.0
G1 X143.289 Y111.186 F3000.0
G1 X143.468 Y111.19 F3000.0
G1 X143.642 Y111.194 F3000.0
G1 X143.812 Y111.198 F3000.0
G1 X143.978 Y111.202 F3000.0
G1 X144.139 Y111.205 F3000.0
G1 X144.297 Y111.209 F3000.0
G1 X144.452 Y111.212 F3000.0
G1 X144.603 Y111.215 F3000.0
G1 X144.751 Y111.217 F3000.0
G1 X144.897 Y111.22 F3000.0
G1 X145.039 Y111.222 F3000.0
G1 X145.179 Y111.225 F3000.0
G1 X145.317 Y111.227 F3000.0
G1 X145.452 Y111.229 F3000.0
G1 X145.585 Y111.231 F3000.0
G1 X145.716 Y111.233 F3000.0
G1 X145.845 Y111.234 F3000.0
G1 X145.973 Y111.236 F3000.0
G1 X146.098 Y111.237 F3000.0
G1 X146.222 Y111.239 F3000.0
G1 X146.345 Y111.24 F3000.0
G1 X146.466 Y111.241 F3000.0
G1 X146.586 Y111.242 F3000.0
G1 X146.704 Y111.244 F3000.0
G1 X146.822 Y111.245 F3000.0
G1 X146.938 Y111.245 F3000.0
G1 X147.054 Y111.246 F3000.0
G1 X147.168 Y111.247 F3000.0
G1 X147.282 Y111.248 F3000.0
G1 X147.395 Y111.248 F3000.0
G1 X147.507 Y111.249 F3000.0
G1 X147.619 Y111.249 F3000.0
G1 X147.73 Y111.25 F3000.0
G1 X147.841 Y111.25 F3000.0
G1 X147.952 Y111.251 F3000.0
G1 X148.062 Y111.251 F3000.0
G1 X148.171 Y111.251 F3000.0
G1 X148.281 Y111.251 F3000.0
G1 X148.391 Y111.251 F3000.0
G1 X148.5 Y111.251 F3000.0
M5
G0 X148.5 Y113.205 F5000.0
M3 S1000
G1 X148.644 Y113.205 F3000.0
G1 X148.787 Y113.205 F3000.0
G1 X148.931 Y113.205 F3000.0
G1 X149.075 Y113.204 F3000.0
G1 X149.22 Y113.204 F3000.0
G1 X149.365 Y113.204 F3000.0
G1 X149.51 Y113.203 F3000.0
G1 X149.656 Y113.202 F3000.0
G1 X149.803 Y113.202 F3000.0
G1 X149.95 Y113.201 F3000.0
G1 X150.099 Y113.2 F3000.0
G1 X150.248 Y113.199 F3000.0
G1 X150.398 Y113.198 F3000.0
G1 X150.55 Y113.197 F3000.0
G1 X150.703 Y113.196 F3000.0
G1 X150.857 Y113.195 F3000.0
G1 X151.012 Y113.193 F3000.0
G1 X151.17 Y113.192 F3000.0
G1 X151.329 Y113.19 F3000.0
G1 X151.489 Y113.188 F3000.0
G1 X151.652 Y113.187 F3000.0
G1 X151.817 Y113.185 F3000.0
G1 X151.984 Y113.183 F3000.0
G1 X152.154 Y113.18 F3000.0
G1 X152.326 Y113.178 F3000.0
G1 X152.5 Y113.175 F3000.0
G1 X152.678 Y113.173 F3000.0
G1 X152.858 Y113.17 F3000.0
G1 X153.042 Y113.167 F3000.0
G1 X153.229 Y113.164 F3000.0
G1 X153.42 Y113.16 F3000.0
G1 X153.615 Y113.157 F3000.0
G1 X153.813 Y113.153 F3000.0
G1 X154.016 Y113.149 F3000.0
G1 X154.223 Y113.144 F3000.0
G1 X154.436 Y113.14 F3000.0
G1 X154.653 Y113.135 F3000.0
G1 X154.876 Y113.13 F3000.0
G1 X155.104 Y113.124 F3000.0
G1 X155.339 Y113.118 F3000.0
G1 X155.58 Y113.112 F3000.0
G1 X155.828 Y113.106 F3000.0
G1 X156.084 Y113.099 F3000.0
G1 X156.347 Y113.091 F3000.0
G1 X156.618 Y113.083 F3000.0
G1 X156.899 Y113.074 F3000.0
G1 X157.184 Y113.061 F3000.0
G1 X157.494 Y113.061 F3000.0
G1 X157.795 Y113.041 F3000.0
G1 X158.127 Y113.038 F3000.0
G1 X158.464 Y113.028 F3000.0
G1 X158.79 Y112.998 F3000.0
G1 X159.169 Y112.997 F3000.0
G1 X159.542 Y112.978 F3000.0
G1 X159.943 Y112.967 F3000.0
G1 X160.334 Y112.936 F3000.0
G1 X160.782 Y112.928 F3000.0
G1 X161.239 Y112.91 F3000.0
G1 X161.703 Y112.882 F3000.0
G1 X162.175 Y112.842 F3000.0
G1 X162.717 Y112.826 F3000.0
G1 X163.279 Y112.801 F3000.0
G1 X163.87 Y112.772 F3000.0
G1 X164.48 Y112.732 F3000.0
G1 X165.13 Y112.691 F3000.0
G1 X165.823 Y112.646 F3000.0
G1 X166.558 Y112.596 F3000.0
G1 X167.335 Y112.537 F3000.0
G1 X168.167 Y112.474 F3000.0
G1 X169.079 Y112.411 F3000.0
G1 X169.997 Y112.319 F3000.0
G1 X171.021 Y112.231 F3000.0
G1 X172.127 Y112.132 F3000.0
G1 X173.289 Y112.012 F3000.0
G1 X174.534 Y111.874 F3000.0
G1 X175.886 Y111.721 F3000.0
G1 X177.346 Y111.546 F3000.0
G1 X178.915 Y111.345 F3000.0
G1 X180.567 Y111.105 F3000.0
G1 X182.326 Y110.829 F3000.0
G1 X184.14 Y110.501 F3000.0
G1 X186.059 Y110.126 F3000.0
G1 X188.031 Y109.692 F3000.0
G1 X189.947 Y109.185 F3000.0
G1 X191.898 Y108.616 F3000.0
G1 X193.682 Y107.97 F3000.0
G1 X195.255 Y107.252 F3000.0
G1 X196.575 Y106.473 F3000.0
G1 X197.51 Y105.643 F3000.0
G1 X197.994 Y104.783 F3000.0
G1 X198.15 Y103.914 F3000.0
G1 X197.849 Y103.056 F3000.0
G1 X197.244 Y102.224 F3000.0
G1 X196.358 Y101.434 F3000.0
G1 X195.299 Y100.688 F3000.0
G1 X194.069 Y99.995 F3000.0
G1 X192.869 Y99.34 F3000.0
G1 X191.609 Y98.732 F3000.0
G1 X190.354 Y98.164 F3000.0
G1 X189.227 Y97.614 F3000.0
G1 X188.091 Y97.102 F3000.0
G1 X187.005 Y96.616 F3000.0
G1 X186.018 Y96.14 F3000.0
G1 X185.105 Y95.676 F3000.0
G1 X184.239 Y95.228 F3000.0
G1 X183.421 Y94.792 F3000.0
G1 X182.65 Y94.365 F3000.0
G1 X181.913 Y93.949 F3000.0
G1 X181.223 Y93.538 F3000.0
G1 X180.541 Y93.144 F3000.0
G1 X179.931 Y92.74 F3000.0
G1 X179.366 Y92.334 F3000.0
G1 X178.796 Y91.943 F3000.0
G1 X178.247 Y91.558 F3000.0
G1 X177.718 Y91.176 F3000.0
G1 X177.184 Y90.809 F3000.0
G1 X176.671 Y90.444 F3000.0
G1 X176.201 Y90.067 F3000.0
G1 X175.75 Y89.689 F3000.0
G1 X175.282 Y89.328 F3000.0
G1 X174.822 Y88.973 F3000.0
G1 X174.368 Y88.621 F3000.0
G1 X173.922 Y88.274 F3000.0
G1 X173.496 Y87.92 F3000.0
G1 X173.061 Y87.579 F3000.0
G1 X172.629 Y87.243 F3000.0
G1 X172.182 Y86.924 F3000.0
G1 X171.758 Y86.595 F3000.0
G1 X171.35 Y86.258 F3000.0
G1 X170.927 Y85.938 F3000.0
G1 X170.506 Y85.623 F3000.0
G1 X170.085 Y85.313 F3000.0
G1 X169.664 Y85.007 F3000.0
G1 X169.235 Y84.714 F3000.0
G1 X168.812 Y84.42 F3000.0
G1 X168.393 Y84.125 F3000.0
G1 X167.953 Y83.859 F3000.0
G1 X167.547 Y83.559 F3000.0
G1 X167.115 Y83.292 F3000.0
G1 X166.681 Y83.031 F3000.0
G1 X166.263 Y82.755 F3000.0
G1 X165.82 Y82.513 F3000.0
G1 X165.377 Y82.277 F3000.0
G1 X164.961 Y82.007 F3000.0
G1 X164.511 Y81.788 F3000.0
G1 X164.087 Y81.533 F3000.0
G1 X163.631 Y81.331 F3000.0
G1 X163.201 Y81.093 F3000.0
G1 X162.768 Y80.86 F3000.0
G1 X162.316 Y80.662 F3000.0
G1 X161.869 Y80.459 F3000.0
G1 X161.407 Y80.287 F3000.0
G1 X160.972 Y80.065 F3000.0
G1 X160.517 Y79.887 F3000.0
G1 X160.048 Y79.741 F3000.0
G1 X159.604 Y79.542 F3000.0
G1 X159.146 Y79.376 F3000.0
G1 X158.689 Y79.213 F3000.0
G1 X158.215 Y79.094 F3000.0
G1 X157.76 Y78.928 F3000.0
G1 X157.294 Y78.795 F3000.0
G1 X156.83 Y78.658 F3000.0
G1 X156.349 Y78.58 F3000.0
G1 X155.886 Y78.446 F3000.0
G1 X155.42 Y78.321 F3000.0
G1 X154.946 Y78.23 F3000.0
G1 X154.476 Y78.121 F3000.0
G1 X154.002 Y78.034 F3000.0
G1 X153.528 Y77.948 F3000.0
G1 X153.053 Y77.871 F3000.0
G1 X152.569 Y77.848 F3000.0
G1 X152.094 Y77.781 F3000.0
G1 X151.617 Y77.722 F3000.0
G1 X151.139 Y77.671 F3000.0
G1 X150.66 Y77.629 F3000.0
G1 X150.181 Y77.596 F3000.0
G1 X149.701 Y77.571 F3000.0
G1 X149.221 Y77.554 F3000.0
G1 X148.74 Y77.545 F3000.0
G1 X148.26 Y77.545 F3000.0
G1 X147.779 Y77.554 F3000.0
G1 X147.299 Y77.571 F3000.0
G1 X146.819 Y77.596 F3000.0
G1 X146.34 Y77.629 F3000.0
G1 X145.861 Y77.671 F3000.0
G1 X145.383 Y77.722 F3000.0
G1 X144.906 Y77.781 F3000.0
G1 X144.431 Y77.848 F3000.0
G1 X143.947 Y77.871 F3000.0
G1 X143.472 Y77.948 F3000.0
G1 X142.998 Y78.034 F3000.0
G1 X142.524 Y78.121 F3000.0
G1 X142.054 Y78.23 F3000.0
G1 X141.58 Y78.321 F3000.0
G1 X141.114 Y78.446 F3000.0
G1 X140.651 Y78.58 F3000.0
G1 X140.17 Y78.658 F3000.0
G1 X139.706 Y78.795 F3000.0
G1 X139.24 Y78.928 F3000.0
G1 X138.785 Y79.094 F3000.0
G1 X138.311 Y79.213 F3000.0
G1 X137.854 Y79.376 F3000.0
G1 X137.396 Y79.542 F3000.0
G1 X136.952 Y79.741 F3000.0
G1 X136.483 Y79.887 F3000.0
G1 X136.028 Y80.065 F3000.0
G1 X135.593 Y80.287 F3000.0
G1 X135.131 Y80.459 F3000.0
G1 X134.684 Y80.662 F3000.0
G1 X134.232 Y80.86 F3000.0
G1 X133.799 Y81.093 F3000.0
G1 X133.369 Y81.331 F3000.0
G1 X132.913 Y81.533 F3000.0
G1 X132.489 Y81.788 F3000.0
G1 X132.039 Y82.007 F3000.0
G1 X131.623 Y82.277 F3000.0
G1 X131.18 Y82.513 F3000.0
G1 X130.737 Y82.755 F3000.0
G1 X130.319 Y83.031 F3000.0
G1 X129.885 Y83.292 F3000.0
G1 X129.453 Y83.559 F3000.0
G1 X129.047 Y83.859 F3000.0
G1 X128.607 Y84.125 F3000.0
G1 X128.188 Y84.42 F3000.0
G1 X127.765 Y84.714 F3000.0
G1 X127.336 Y85.007 F3000.0
G1 X126.915 Y85.313 F3000.0
G1 X126.494 Y85.623 F3000.0
G1 X126.073 Y85.938 F3000.0
G1 X125.65 Y86.258 F3000.0
G1 X125.242 Y86.595 F3000.0
G1 X124.818 Y86.924 F3000.0
G1 X124.371 Y87.243 F3000.0
G1 X123.939 Y87.579 F3000.0
G1 X123.504 Y87.92 F3000.0
G1 X123.078 Y88.274 F3000.0
G1 X122.632 Y88.621 F3000.0
G1 X122.178 Y88.973 F3000.0
G1 X121.718 Y89.328 F3000.0
G1 X121.25 Y89.689 F3000.0
G1 X120.799 Y90.067 F3000.0
G1 X120.329 Y90.444 F3000.0
G1 X119.816 Y90.809 F3000.0
G1 X119.282 Y91.176 F3000.0
G1 X118.753 Y91.558 F3000.0
G1 X118.204 Y91.943 F3000.0
G1 X117.634 Y92.334 F3000.0
G1 X117.069 Y92.74 F3000.0
G1 X116.459 Y93.144 F3000.0
G1 X115.777 Y93.538 F3000.0
G1 X115.087 Y93.949 F3000.0
G1 X114.35 Y94.365 F3000.0
G1 X113.579 Y94.792 F3000.0
G1 X112.761 Y95.228 F3000.0
G1 X111.895 Y95.676 F3000.0
G1 X110.982 Y96.14 F3000.0
G1 X109.995 Y96.616 F3000.0
G1 X108.909 Y97.102 F3000.0
G1 X107.773 Y97.614 F3000.0
G1 X106.646 Y98.164 F3000.0
G1 X105.391 Y98.732 F3000.0
G1 X104.131 Y99.34 F3000.0
G1 X102.931 Y99.995 F3000.0
G1 X101.701 Y100.688 F3000.0
G1 X100.642 Y101.434 F3000.0
G1 X99.756 Y102.224 F3000.0
G1 X99.151 Y103.056 F3000.0
G1 X98.85 Y103.914 F3000.0
G1 X99.006 Y104.783 F3000.0
G1 X99.49 Y105.643 F3000.0
G1 X100.425 Y106.473 F3000.0
G1 X101.745 Y107.252 F3000.0
G1 X103.318 Y107.97 F3000.0
G1 X105.102 Y108.616 F3000.0
G1 X107.053 Y109.185 F3000.0
G1 X108.969 Y109.692 F3000.0
G1 X110.941 Y110.126 F3000.0
G1 X112.86 Y110.501 F3000.0
G1 X114.674 Y110.829 F3000.0
G1 X116.433 Y111.105 F3000.0
G1 X118.085 Y111.345 F3000.0
G1 X119.654 Y111.546 F3000.0
G1 X121.114 Y111.721 F3000.0
G1 X122.466 Y111.874 F3000.0
G1 X123.711 Y112.012 F3000.0
G1 X124.873 Y112.132 F3000.0
G1 X125.979 Y112.231 F3000.0
G1 X127.003 Y112.319 F3000.0
G1 X127.921 Y112.411 F3000.0
G1 X128.833 Y112.474 F3000.0
G1 X129.665 Y112.537 F3000.0
G1 X130.442 Y112.596 F3000.0
G1 X131.177 Y112.646 F3000.0
G1 X131.87 Y112.691 F3000.0
G1 X132.52 Y112.732 F3000.0
G1 X133.13 Y112.772 F3000.0
G1 X133.721 Y112.801 F3000.0
G1 X134.283 Y112.826 F3000.0
G1 X134.825 Y112.842 F3000.0
G1 X135.297 Y112.882 F3000.0
G1 X135.761 Y112.91 F3000.0
G1 X136.218 Y112.928 F3000.0
G1 X136.666 Y112.936 F3000.0
G1 X137.057 Y112.967 F3000.0
G1 X137.458 Y112.978 F3000.0
G1 X137.831 Y112.997 F3000.0
G1 X138.21 Y112.998 F3000.0
G1 X138.536 Y113.028 F3000.0
G1 X138.873 Y113.038 F3000.0
G1 X139.205 Y113.041 F3000.0
G1 X139.506 Y113.061 F3000.0
G1 X139.816 Y113.061 F3000.0
G1 X140.101 Y113.074 F3000.0
G1 X140.382 Y113.083 F3000.0
G1 X140.653 Y113.091 F3000.0
G1 X140.916 Y113.099 F3000.0
G1 X141.172 Y113.106 F3000.0
G1 X141.42 Y113.112 F3000.0
G1 X141.661 Y113.118 F3000.0
G1 X141.896 Y113.124 F3000.0
G1 X142.124 Y113.13 F3000.0
G1 X142.347 Y113.135 F3000.0
G1 X142.564 Y113.14 F3000.0
G1 X142.777 Y113.144 F3000.0
G1 X142.984 Y113.149 F3000.0
G1 X143.187 Y113.153 F3000.0
G1 X143.385 Y113.157 F3000.0
G1 X143.58 Y113.16 F3000.0
G1 X143.771 Y113.164 F3000.0
G1 X143.958 Y113.167 F3000.0
G1 X144.142 Y113.17 F3000.0
G1 X144.322 Y113.173 F3000.0
G1 X144.5 Y113.175 F3000.0
G1 X144.674 Y113.178 F3000.0
G1 X144.846 Y113.18 F3000.0
G1 X145.016 Y113.183 F3000.0
G1 X145.183 Y113.185 F3000.0
G1 X145.348 Y113.187 F3000.0
G1 X145.511 Y113.188 F3000.0
G1 X145.671 Y113.19 F3000.0
G1 X145.83 Y113.192 F3000.0
G1 X145.988 Y113.193 F3000.0
G1 X146.143 Y113.195 F3000.0
G1 X146.297 Y113.196 F3000.0
G1 X146.45 Y113.197 F3000.0
G1 X146.602 Y113.198 F3000.0
G1 X146.752 Y113.199 F3000.0
G1 X146.901 Y113.2 F3000.0
G1 X147.05 Y113.201 F3000.0
G1 X147.197 Y113.202 F3000.0
G1 X147.344 Y113.202 F3000.0
G1 X147.49 Y113.203 F3000.0
G1 X147.635 Y113.204 F3000.0
G1 X147.78 Y113.204 F3000.0
G1 X147.925 Y113.204 F3000.0
G1 X148.069 Y113.205 F3000.0
G1 X148.213 Y113.205 F3000.0
G1 X148.356 Y113.205 F3000.0
G1 X148.5 Y113.205 F3000.0
M5
G0 X148.5 Y115.158 F5000.0
M3 S1000
G1 X148.678 Y115.158 F3000.0
G1 X148.856 Y115.158 F3000.0
G1 X149.034 Y115.158 F3000.0
G1 X149.212 Y115.158 F3000.0
G1 X149.391 Y115.157 F3000.0
G1 X149.571 Y115.157 F3000.0
G1 X149.751 Y115.156 F3000.0
G1 X149.931 Y115.155 F3000.0
G1 X150.113 Y115.155 F3000.0
G1 X150.295 Y115.154 F3000.0
G1 X150.479 Y115.153 F3000.0
G1 X150.664 Y115.151 F3000.0
G1 X150.85 Y115.15 F3000.0
G1 X151.038 Y115.149 F3000.0
G1 X151.227 Y115.147 F3000.0
G1 X151.418 Y115.146 F3000.0
G1 X151.611 Y115.144 F3000.0
G1 X151.805 Y115.142 F3000.0
G1 X152.002 Y115.14 F3000.0
G1 X152.201 Y115.138 F3000.0
G1 X152.403 Y115.136 F3000.0
G1 X152.607 Y115.133 F3000.0
G1 X152.814 Y115.131 F3000.0
G1 X153.023 Y115.128 F3000.0
G1 X153.236 Y115.125 F3000.0
G1 X153.453 Y115.122 F3000.0
G1 X153.672 Y115.119 F3000.0
G1 X153.896 Y115.115 F3000.0
G1 X154.123 Y115.111 F3000.0
G1 X154.355 Y115.107 F3000.0
G1 X154.593 Y115.106 F3000.0
G1 X154.834 Y115.101 F3000.0
G1 X155.077 Y115.092 F3000.0
G1 X155.318 Y115.072 F3000.0
G1 X155.588 Y115.086 F3000.0
G1 X155.847 Y115.076 F3000.0
G1 X156.116 Y115.069 F3000.0
G1 X156.396 Y115.068 F3000.0
G1 X156.67 Y115.05 F3000.0
G1 X156.949 Y115.03 F3000.0
G1 X157.267 Y115.045 F3000.0
G1 X157.578 Y115.041 F3000.0
G1 X157.871 Y115.008 F3000.0
G1 X158.215 Y115.017 F3000.0
G1 X158.533 Y114.989 F3000.0
G1 X158.904 Y115.003 F3000.0
G1 X159.257 Y114.985 F3000.0
G1 X159.634 Y114.978 F3000.0
G1 X160.02 Y114.966 F3000.0
G1 X160.419 Y114.952 F3000.0
G1 X160.832 Y114.936 F3000.0
G1 X161.256 Y114.914 F3000.0
G1 X161.713 Y114.904 F3000.0
G1 X162.157 Y114.867 F3000.0
G1 X162.656 Y114.855 F3000.0
G1 X163.16 Y114.83 F3000.0
G1 X163.67 Y114.792 F3000.0
G1 X164.25 Y114.78 F3000.0
G1 X164.847 Y114.758 F3000.0
G1 X165.472 Y114.733 F3000.0
G1 X166.114 Y114.695 F3000.0
G1 X166.796 Y114.658 F3000.0
G1 X167.519 Y114.617 F3000.0
G1 X168.283 Y114.573 F3000.0
G1 X169.088 Y114.521 F3000.0
G1 X169.947 Y114.467 F3000.0
G1 X170.861 Y114.406 F3000.0
G1 X171.829 Y114.336 F3000.0
G1 X172.853 Y114.255 F3000.0
G1 X173.933 Y114.159 F3000.0
G1 X175.145 Y114.072 F3000.0
G1 X176.36 Y113.945 F3000.0
G1 X177.735 Y113.825 F3000.0
G1 X179.192 Y113.681 F3000.0
G1 X180.761 Y113.518 F3000.0
G1 X182.406 Y113.321 F3000.0
G1 X184.215 Y113.105 F3000.0
G1 X186.107 Y112.845 F3000.0
G1 X188.159 Y112.551 F3000.0
G1 X190.293 Y112.202 F3000.0
G1 X192.533 Y111.797 F3000.0
G1 X194.879 Y111.33 F3000.0
G1 X197.303 Y110.792 F3000.0
G1 X199.724 Y110.172 F3000.0
G1 X202.001 Y109.458 F3000.0
G1 X204.217 Y108.662 F3000.0
G1 X206.099 Y107.774 F3000.0
G1 X207.644 Y106.812 F3000.0
G1 X208.716 Y105.79 F3000.0
G1 X209.285 Y104.734 F3000.0
G1 X209.332 Y103.669 F3000.0
G1 X208.866 Y102.622 F3000.0
G1 X207.965 Y101.614 F3000.0
G1 X206.73 Y100.661 F3000.0
G1 X205.28 Y99.768 F3000.0
G1 X203.683 Y98.94 F3000.0
G1 X202.035 Y98.17 F3000.0
G1 X200.351 Y97.461 F3000.0
G1 X198.726 Y96.797 F3000.0
G1 X197.174 Y96.173 F3000.0
G1 X195.668 Y95.591 F3000.0
G1 X194.296 Y95.028 F3000.0
G1 X192.985 Y94.495 F3000.0
G1 X191.754 Y93.983 F3000.0
G1 X190.61 Y93.486 F3000.0
G1 X189.514 Y93.01 F3000.0
G1 X188.531 Y92.533 F3000.0
G1 X187.542 Y92.087 F3000.0
G1 X186.678 Y91.628 F3000.0
G1 X185.835 Y91.185 F3000.0
G1 X185.013 Y90.757 F3000.0
G1 X184.263 Y90.324 F3000.0
G1 X183.57 Y89.886 F3000.0
G1 X182.849 Y89.478 F3000.0
G1 X182.185 Y89.062 F3000.0
G1 X181.577 Y88.635 F3000.0
G1 X180.941 Y88.237 F3000.0
G1 X180.361 Y87.824 F3000.0
G1 X179.775 Y87.426 F3000.0
G1 X179.186 Y87.044 F3000.0
G1 X178.65 Y86.642 F3000.0
G1 X178.087 Y86.267 F3000.0
G1 X177.554 Y85.884 F3000.0
G1 X177.039 Y85.499 F3000.0
G1 X176.519 Y85.126 F3000.0
G1 X175.994 Y84.766 F3000.0
G1 X175.488 Y84.401 F3000.0
G1 X174.955 Y84.064 F3000.0
G1 X174.482 Y83.689 F3000.0
G1 X173.962 Y83.359 F3000.0
G1 X173.48 Y83.005 F3000.0
G1 X172.995 Y82.659 F3000.0
G1 X172.481 Y82.346 F3000.0
G1 X172.005 Y82.004 F3000.0
G1 X171.505 Y81.691 F3000.0
G1 X171.02 Y81.369 F3000.0
G1 X170.531 Y81.057 F3000.0
G1 X170.037 Y80.755 F3000.0
G1 X169.54 Y80.463 F3000.0
G1 X169.057 Y80.16 F3000.0
G1 X168.552 Y79.887 F3000.0
G1 X168.045 Y79.625 F3000.0
G1 X167.574 Y79.319 F3000.0
G1 X167.067 Y79.065 F3000.0
G1 X166.565 Y78.81 F3000.0
G1 X166.082 Y78.531 F3000.0
G1 X165.58 Y78.283 F3000.0
G1 X165.054 Y78.079 F3000.0
G1 X164.567 Y77.817 F3000.0
G1 X164.049 Y77.609 F3000.0
G1 X163.554 Y77.365 F3000.0
G1 X163.031 Y77.176 F3000.0
G1 X162.53 Y76.95 F3000.0
G1 X162.026 Y76.732 F3000.0
G1 X161.507 Y76.549 F3000.0
G1 X160.991 Y76.362 F3000.0
G1 X160.462 Y76.21 F3000.0
G1 X159.957 Y76.005 F3000.0
G1 X159.433 Y75.846 F3000.0
G1 X158.899 Y75.722 F3000.0
G1 X158.385 Y75.544 F3000.0
G1 X157.86 Y75.401 F3000.0
G1 X157.335 Y75.261 F3000.0
G1 X156.797 Y75.169 F3000.0
G1 X156.274 Y75.028 F3000.0
G1 X155.742 Y74.923 F3000.0
G1 X155.211 Y74.813 F3000.0
G1 X154.681 Y74.707 F3000.0
G1 X154.139 Y74.662 F3000.0
G1 X153.607 Y74.568 F3000.0
G1 X153.074 Y74.484 F3000.0
G1 X152.539 Y74.408 F3000.0
G1 X152.0 Y74.369 F3000.0
G1 X151.463 Y74.312 F3000.0
G1 X150.926 Y74.265 F3000.0
G1 X150.387 Y74.241 F3000.0
G1 X149.848 Y74.212 F3000.0
G1 X149.309 Y74.193 F3000.0
G1 X148.77 Y74.184 F3000.0
G1 X148.23 Y74.184 F3000.0
G1 X147.691 Y74.193 F3000.0
G1 X147.152 Y74.212 F3000.0
G1 X146.613 Y74.241 F3000.0
G1 X146.074 Y74.265 F3000.0
G1 X145.537 Y74.312 F3000.0
G1 X145.0 Y74.369 F3000.0
G1 X144.461 Y74.408 F3000.0
G1 X143.926 Y74.484 F3000.0
G1 X143.393 Y74.568 F3000.0
G1 X142.861 Y74.662 F3000.0
G1 X142.319 Y74.707 F3000.0
G1 X141.789 Y74.813 F3000.0
G1 X141.258 Y74.923 F3000.0
G1 X140.726 Y75.028 F3000.0
G1 X140.203 Y75.169 F3000.0
G1 X139.665 Y75.261 F3000.0
G1 X139.14 Y75.401 F3000.0
G1 X138.615 Y75.544 F3000.0
G1 X138.101 Y75.722 F3000.0
G1 X137.567 Y75.846 F3000.0
G1 X137.043 Y76.005 F3000.0
G1 X136.538 Y76.21 F3000.0
G1 X136.009 Y76.362 F3000.0
G1 X135.493 Y76.549 F3000.0
G1 X134.974 Y76.732 F3000.0
G1 X134.47 Y76.95 F3000.0
G1 X133.969 Y77.176 F3000.0
G1 X133.446 Y77.365 F3000.0
G1 X132.951 Y77.609 F3000.0
G1 X132.433 Y77.817 F3000.0
G1 X131.946 Y78.079 F3000.0
G1 X131.42 Y78.283 F3000.0
G1 X130.918 Y78.531 F3000.0
G1 X130.435 Y78.81 F3000.0
G1 X129.933 Y79.065 F3000.0
G1 X129.426 Y79.319 F3000.0
G1 X128.955 Y79.625 F3000.0
G1 X128.448 Y79.887 F3000.0
G1 X127.943 Y80.16 F3000.0
G1 X127.46 Y80.463 F3000.0
G1 X126.963 Y80.755 F3000.0
G1 X126.469 Y81.057 F3000.0
G1 X125.98 Y81.369 F3000.0
G1 X125.495 Y81.691 F3000.0
G1 X124.995 Y82.004 F3000.0
G1 X124.519 Y82.346 F3000.0
G1 X124.005 Y82.659 F3000.0
G1 X123.52 Y83.005 F3000.0
G1 X123.038 Y83.359 F3000.0
G1 X122.518 Y83.689 F3000.0
G1 X122.045 Y84.064 F3000.0
G1 X121.512 Y84.401 F3000.0
G1 X121.006 Y84.766 F3000.0
G1 X120.481 Y85.126 F3000.0
G1 X119.961 Y85.499 F3000.0
G1 X119.446 Y85.884 F3000.0
G1 X118.913 Y86.267 F3000.0
G1 X118.35 Y86.642 F3000.0
G1 X117.814 Y87.044 F3000.0
G1 X117.225 Y87.426 F3000.0
G1 X116.639 Y87.824 F3000.0
G1 X116.059 Y88.237 F3000.0
G1 X115.423 Y88.635 F3000.0
G1 X114.815 Y89.062 F3000.0
G1 X114.151 Y89.478 F3000.0
G1 X113.43 Y89.886 F3000.0
G1 X112.737 Y90.324 F3000.0
G1 X111.987 Y90.757 F3000.0
G1 X111.165 Y91.185 F3000.0
G1 X110.322 Y91.628 F3000.0
G1 X109.458 Y92.087 F3000.0
G1 X108.469 Y92.533 F3000.0
G1 X107.486 Y93.01 F3000.0
G1 X106.39 Y93.486 F3000.0
G1 X105.246 Y93.983 F3000.0
G1 X104.015 Y94.495 F3000.0
G1 X102.704 Y95.028 F3000.0
G1 X101.332 Y95.591 F3000.0
G1 X99.826 Y96.173 F3000.0
G1 X98.274 Y96.797 F3000.0
G1 X96.649 Y97.461 F3000.0
G1 X94.965 Y98.17 F3000.0
G1 X93.317 Y98.94 F3000.0
G1 X91.72 Y99.768 F3000.0
G1 X90.27 Y100.661 F3000.0
G1 X89.035 Y101.614 F3000.0
G1 X88.134 Y102.622 F3000.0
G1 X87.668 Y103.669 F3000.0
G1 X87.715 Y104.734 F3000.0
G1 X88.284 Y105.79 F3000.0
G1 X89.356 Y106.812 F3000.0
G1 X90.901 Y107.774 F3000.0
G1 X92.783 Y108.662 F3000.0
G1 X94.999 Y109.458 F3000.0
G1 X97.276 Y110.172 F3000.0
G1 X99.697 Y110.792 F3000.0
G1 X102.121 Y111.33 F3000.0
G1 X104.467 Y111.797 F3000.0
G1 X106.707 Y112.202 F3000.0
G1 X108.841 Y112.551 F3000.0
G1 X110.893 Y112.845 F3000.0
G1 X112.785 Y113.105 F3000.0
G1 X114.594 Y113.321 F3000.0
G1 X116.239 Y113.518 F3000.0
G1 X117.808 Y113.681 F3000.0
G1 X119.265 Y113.825 F3000.0
G1 X120.64 Y113.945 F3000.0
G1 X121.855 Y114.072 F3000.0
G1 X123.067 Y114.159 F3000.0
G1 X124.147 Y114.255 F3000.0
G1 X125.171 Y114.336 F3000.0
G1 X126.139 Y114.406 F3000.0
G1 X127.053 Y114.467 F3000.0
G1 X127.912 Y114.521 F3000.0
G1 X128.717 Y114.573 F3000.0
G1 X129.481 Y114.617 F3000.0
G1 X130.204 Y114.658 F3000.0
G1 X130.886 Y114.695 F3000.0
G1 X131.528 Y114.733 F3000.0
G1 X132.153 Y114.758 F3000.0
G1 X132.75 Y114.78 F3000.0
G1 X133.33 Y114.792 F3000.0
G1 X133.84 Y114.83 F3000.0
G1 X134.344 Y114.855 F3000.0
G1 X134.843 Y114.867 F3000.0
G1 X135.287 Y114.904 F3000.0
G1 X135.744 Y114.914 F3000.0
G1 X136.168 Y114.936 F3000.0
G1 X136.581 Y114.952 F3000.0
G1 X136.98 Y114.966 F3000.0
G1 X137.366 Y114.978 F3000.0
G1 X137.743 Y114.985 F3000.0
G1 X138.096 Y115.003 F3000.0
G1 X138.467 Y114.989 F3000.0
G1 X138.785 Y115.017 F3000.0
G1 X139.129 Y115.008 F3000.0
G1 X139.422 Y115.041 F3000.0
G1 X139.733 Y115.045 F3000.0
G1 X140.051 Y115.03 F3000.0
G1 X140.33 Y115.05 F3000.0
G1 X140.604 Y115.068 F3000.0
G1 X140.884 Y115.069 F3000.0
G1 X141.153 Y115.076 F3000.0
G1 X141.412 Y115.086 F3000.0
G1 X141.682 Y115.072 F3000.0
G1 X141.923 Y115.092 F3000.0
G1 X142.166 Y115.101 F3000.0
G1 X142.407 Y115.106 F3000.0
G1 X142.645 Y115.107 F3000.0
G1 X142.877 Y115.111 F3000.0
G1 X143.104 Y115.115 F3000.0
G1 X143.328 Y115.119 F3000.0
G1 X143.547 Y115.122 F3000.0
G1 X143.764 Y115.125 F3000.0
G1 X143.977 Y115.128 F3000.0
G1 X144.186 Y115.131 F3000.0
G1 X144.393 Y115.133 F3000.0
G1 X144.597 Y115.136 F3000.0
G1 X144.799 Y115.138 F3000.0
G1 X144.998 Y115.14 F3000.0
G1 X145.195 Y115.142 F3000.0
G1 X145.389 Y115.144 F3000.0
G1 X145.582 Y115.146 F3000.0
G1 X145.773 Y115.147 F3000.0
G1 X145.962 Y115.149 F3000.0
G1 X146.15 Y115.15 F3000.0
G1 X146.336 Y115.151 F3000.0
G1 X146.521 Y115.153 F3000.0
G1 X146.705 Y115.154 F3000.0
G1 X146.887 Y115.155 F3000.0
G1 X147.069 Y115.155 F3000.0
G1 X147.249 Y115.156 F3000.0
G1 X147.429 Y115.157 F3000.0
G1 X147.609 Y115.157 F3000.0
G1 X147.788 Y115.158 F3000.0
G1 X147.966 Y115.158 F3000.0
G1 X148.144 Y115.158 F3000.0
G1 X148.322 Y115.158 F3000.0
G1 X148.5 Y115.158 F3000.0
M5
G0 X148.5 Y117.103 F5000.0
M3 S1000
G1 X148.712 Y117.101 F3000.0
G1 X148.924 Y117.096 F3000.0
G1 X149.135 Y117.087 F3000.0
G1 X149.349 Y117.111 F3000.0
G1 X149.562 Y117.101 F3000.0
G1 X149.775 Y117.096 F3000.0
G1 X149.991 Y117.11 F3000.0
G1 X150.206 Y117.106 F3000.0
G1 X150.423 Y117.11 F3000.0
G1 X150.64 Y117.103 F3000.0
G1 X150.86 Y117.104 F3000.0
G1 X151.076 Y117.086 F3000.0
G1 X151.299 Y117.089 F3000.0
G1 X151.525 Y117.097 F3000.0
G1 X151.743 Y117.068 F3000.0
G1 X151.974 Y117.079 F3000.0
G1 X152.206 Y117.087 F3000.0
G1 X152.441 Y117.092 F3000.0
G1 X152.671 Y117.076 F3000.0
G1 X152.908 Y117.074 F3000.0
G1 X153.154 Y117.087 F3000.0
G1 X153.395 Y117.079 F3000.0
G1 X153.638 Y117.066 F3000.0
G1 X153.882 Y117.05 F3000.0
G1 X154.147 Y117.072 F3000.0
G1 X154.402 Y117.062 F3000.0
G1 X154.661 Y117.053 F3000.0
G1 X154.935 Y117.063 F3000.0
G1 X155.207 Y117.059 F3000.0
G1 X155.461 Y117.017 F3000.0
G1 X155.763 Y117.047 F3000.0
G1 X156.051 Y117.043 F3000.0
G1 X156.33 Y117.014 F3000.0
G1 X156.642 Y117.029 F3000.0
G1 X156.945 Y117.018 F3000.0
G1 X157.265 Y117.02 F3000.0
G1 X157.581 Y117.006 F3000.0
G1 X157.915 Y117.005 F3000.0
G1 X158.245 Y116.988 F3000.0
G1 X158.594 Y116.982 F3000.0
G1 X158.93 Y116.95 F3000.0
G1 X159.318 Y116.965 F3000.0
G1 X159.677 Y116.936 F3000.0
G1 X160.074 Y116.934 F3000.0
G1 X160.484 Y116.931 F3000.0
G1 X160.903 Y116.924 F3000.0
G1 X161.33 Y116.91 F3000.0
G1 X161.767 Y116.89 F3000.0
G1 X162.232 Y116.88 F3000.0
G1 X162.672 Y116.833 F3000.0
G1 X163.195 Y116.84 F3000.0
G1 X163.704 Y116.817 F3000.0
G1 X164.238 Y116.796 F3000.0
G1 X164.797 Y116.775 F3000.0
G1 X165.388 Y116.758 F3000.0
G1 X165.974 Y116.717 F3000.0
G1 X166.614 Y116.692 F3000.0
G1 X167.259 Y116.649 F3000.0
G1 X167.999 Y116.64 F3000.0
G1 X168.723 Y116.597 F3000.0
G1 X169.498 Y116.558 F3000.0
G1 X170.314 Y116.515 F3000.0
G1 X171.171 Y116.464 F3000.0
G1 X172.07 Y116.405 F3000.0
G1 X173.035 Y116.347 F3000.0
G1 X174.067 Y116.285 F3000.0
G1 X175.153 Y116.211 F3000.0
G1 X176.31 Y116.129 F3000.0
G1 X177.519 Y116.028 F3000.0
G1 X178.836 Y115.925 F3000.0
G1 X180.235 Y115.805 F3000.0
G1 X181.741 Y115.672 F3000.0
G1 X183.356 Y115.521 F3000.0
G1 X185.08 Y115.347 F3000.0
G1 X186.912 Y115.142 F3000.0
G1 X188.918 Y114.919 F3000.0
G1 X191.008 Y114.646 F3000.0
G1 X193.272 Y114.339 F3000.0
G1 X195.723 Y113.991 F3000.0
G1 X198.295 Y113.581 F3000.0
G1 X200.98 Y113.1 F3000.0
G1 X203.718 Y112.536 F3000.0
G1 X206.592 Y111.895 F3000.0
G1 X209.406 Y111.15 F3000.0
G1 X212.186 Y110.307 F3000.0
G1 X214.74 Y109.354 F3000.0
G1 X216.957 Y108.297 F3000.0
G1 X218.726 Y107.152 F3000.0
G1 X219.937 Y105.938 F3000.0
G1 X220.548 Y104.685 F3000.0
G1 X220.465 Y103.425 F3000.0
G1 X219.848 Y102.189 F3000.0
G1 X218.645 Y101.006 F3000.0
G1 X217.118 Y99.887 F3000.0
G1 X215.246 Y98.85 F3000.0
G1 X213.256 Y97.888 F3000.0
G1 X211.146 Y97.008 F3000.0
G1 X209.079 Y96.192 F3000.0
G1 X207.004 Y95.445 F3000.0
G1 X205.088 Y94.738 F3000.0
G1 X203.232 Y94.082 F3000.0
G1 X201.482 Y93.463 F3000.0
G1 X199.807 Y92.884 F3000.0
G1 X198.312 Y92.313 F3000.0
G1 X196.864 Y91.776 F3000.0
G1 X195.568 Y91.241 F3000.0
G1 X194.32 Y90.73 F3000.0
G1 X193.145 Y90.234 F3000.0
G1 X192.044 Y89.748 F3000.0
G1 X190.99 Y89.277 F3000.0
G1 X190.008 Y88.809 F3000.0
G1 X189.123 Y88.329 F3000.0
G1 X188.234 Y87.876 F3000.0
G1 X187.403 Y87.42 F3000.0
G1 X186.604 Y86.972 F3000.0
G1 X185.838 Y86.527 F3000.0
G1 X185.093 Y86.092 F3000.0
G1 X184.373 Y85.661 F3000.0
G1 X183.673 Y85.237 F3000.0
G1 X182.974 Y84.827 F3000.0
G1 X182.341 Y84.394 F3000.0
G1 X181.681 Y83.991 F3000.0
G1 X181.063 Y83.576 F3000.0
G1 X180.417 Y83.19 F3000.0
G1 X179.834 Y82.775 F3000.0
G1 X179.203 Y82.404 F3000.0
G1 X178.633 Y82.0 F3000.0
G1 X178.058 Y81.609 F3000.0
G1 X177.478 Y81.231 F3000.0
G1 X176.895 Y80.866 F3000.0
G1 X176.308 Y80.515 F3000.0
G1 X175.776 Y80.122 F3000.0
G1 X175.2 Y79.777 F3000.0
G1 X174.65 Y79.416 F3000.0
G1 X174.076 Y79.086 F3000.0
G1 X173.526 Y78.739 F3000.0
G1 X172.981 Y78.394 F3000.0
G1 X172.396 Y78.1 F3000.0
G1 X171.852 Y77.767 F3000.0
G1 X171.304 Y77.445 F3000.0
G1 X170.751 Y77.133 F3000.0
G1 X170.195 Y76.833 F3000.0
G1 X169.635 Y76.543 F3000.0
G1 X169.072 Y76.265 F3000.0
G1 X168.505 Y75.997 F3000.0
G1 X167.972 Y75.685 F3000.0
G1 X167.406 Y75.427 F3000.0
G1 X166.843 Y75.169 F3000.0
G1 X166.264 Y74.945 F3000.0
G1 X165.722 Y74.662 F3000.0
G1 X165.15 Y74.435 F3000.0
G1 X164.589 Y74.193 F3000.0
G1 X164.01 Y73.991 F3000.0
G1 X163.431 Y73.797 F3000.0
G1 X162.871 Y73.564 F3000.0
G1 X162.287 Y73.391 F3000.0
G1 X161.732 Y73.155 F3000.0
G1 X161.155 Y72.971 F3000.0
G1 X160.571 Y72.811 F3000.0
G1 X159.997 Y72.63 F3000.0
G1 X159.404 Y72.51 F3000.0
G1 X158.833 Y72.324 F3000.0
G1 X158.252 Y72.174 F3000.0
G1 X157.669 Y72.033 F3000.0
G1 X157.077 Y71.93 F3000.0
G1 X156.491 Y71.811 F3000.0
G1 X155.909 Y71.676 F3000.0
G1 X155.32 Y71.574 F3000.0
G1 X154.724 Y71.516 F3000.0
G1 X154.137 Y71.412 F3000.0
G1 X153.548 Y71.319 F3000.0
G1 X152.954 Y71.262 F3000.0
G1 X152.363 Y71.189 F3000.0
G1 X151.769 Y71.14 F3000.0
G1 X151.176 Y71.095 F3000.0
G1 X150.578 Y71.113 F3000.0
G1 X149.985 Y71.082 F3000.0
G1 X149.391 Y71.061 F3000.0
G1 X148.797 Y71.051 F3000.0
G1 X148.203 Y71.051 F3000.0
G1 X147.609 Y71.061 F3000.0
G1 X147.015 Y71.082 F3000.0
G1 X146.422 Y71.113 F3000.0
G1 X145.824 Y71.095 F3000.0
G1 X145.231 Y71.14 F3000.0
G1 X144.637 Y71.189 F3000.0
G1 X144.046 Y71.262 F3000.0
G1 X143.452 Y71.319 F3000.0
G1 X142.863 Y71.412 F3000.0
G1 X142.276 Y71.516 F3000.0
G1 X141.68 Y71.574 F3000.0
G1 X141.091 Y71.676 F3000.0
G1 X140.509 Y71.811 F3000.0
G1 X139.923 Y71.93 F3000.0
G1 X139.331 Y72.033 F3000.0
G1 X138.748 Y72.174 F3000.0
G1 X138.167 Y72.324 F3000.0
G1 X137.596 Y72.51 F3000.0
G1 X137.003 Y72.63 F3000.0
G1 X136.429 Y72.811 F3000.0
G1 X135.845 Y72.971 F3000.0
G1 X135.268 Y73.155 F3000.0
G1 X134.713 Y73.391 F3000.0
G1 X134.129 Y73.564 F3000.0
G1 X133.569 Y73.797 F3000.0
G1 X132.99 Y73.991 F3000.0
G1 X132.411 Y74.193 F3000.0
G1 X131.85 Y74.435 F3000.0
G1 X131.278 Y74.662 F3000.0
G1 X130.736 Y74.945 F3000.0
G1 X130.157 Y75.169 F3000.0
G1 X129.594 Y75.427 F3000.0
G1 X129.028 Y75.685 F3000.0
G1 X128.495 Y75.997 F3000.0
G1 X127.928 Y76.265 F3000.0
G1 X127.365 Y76.543 F3000.0
G1 X126.805 Y76.833 F3000.0
G1 X126.249 Y77.133 F3000.0
G1 X125.696 Y77.445 F3000.0
G1 X125.148 Y77.767 F3000.0
G1 X124.604 Y78.1 F3000.0
G1 X124.019 Y78.394 F3000.0
G1 X123.474 Y78.739 F3000.0
G1 X122.924 Y79.086 F3000.0
G1 X122.35 Y79.416 F3000.0
G1 X121.8 Y79.777 F3000.0
G1 X121.224 Y80.122 F3000.0
G1 X120.692 Y80.515 F3000.0
G1 X120.105 Y80.866 F3000.0
G1 X119.522 Y81.231 F3000.0
G1 X118.942 Y81.609 F3000.0
G1 X118.367 Y82.0 F3000.0
G1 X117.797 Y82.404 F3000.0
G1 X117.166 Y82.775 F3000.0
G1 X116.583 Y83.19 F3000.0
G1 X115.937 Y83.576 F3000.0
G1 X115.319 Y83.991 F3000.0
G1 X114.659 Y84.394 F3000.0
G1 X114.026 Y84.827 F3000.0
G1 X113.327 Y85.237 F3000.0
G1 X112.627 Y85.661 F3000.0
G1 X111.907 Y86.092 F3000.0
G1 X111.162 Y86.527 F3000.0
G1 X110.396 Y86.972 F3000.0
G1 X109.597 Y87.42 F3000.0
G1 X108.766 Y87.876 F3000.0
G1 X107.877 Y88.329 F3000.0
G1 X106.992 Y88.809 F3000.0
G1 X106.01 Y89.277 F3000.0
G1 X104.956 Y89.748 F3000.0
G1 X103.855 Y90.234 F3000.0
G1 X102.68 Y90.73 F3000.0
G1 X101.432 Y91.241 F3000.0
G1 X100.136 Y91.776 F3000.0
G1 X98.688 Y92.313 F3000.0
G1 X97.193 Y92.884 F3000.0
G1 X95.518 Y93.463 F3000.0
G1 X93.768 Y94.082 F3000.0
G1 X91.912 Y94.738 F3000.0
G1 X89.996 Y95.445 F3000.0
G1 X87.921 Y96.192 F3000.0
G1 X85.854 Y97.008 F3000.0
G1 X83.744 Y97.888 F3000.0
G1 X81.754 Y98.85 F3000.0
G1 X79.882 Y99.887 F3000.0
G1 X78.355 Y101.006 F3000.0
G1 X77.152 Y102.189 F3000.0
G1 X76.535 Y103.425 F3000.0
G1 X76.452 Y104.685 F3000.0
G1 X77.063 Y105.938 F3000.0
G1 X78.274 Y107.152 F3000.0
G1 X80.043 Y108.297 F3000.0
G1 X82.26 Y109.354 F3000.0
G1 X84.814 Y110.307 F3000.0
G1 X87.594 Y111.15 F3000.0
G1 X90.408 Y111.895 F3000.0
G1 X93.282 Y112.536 F3000.0
G1 X96.02 Y113.1 F3000.0
G1 X98.705 Y113.581 F3000.0
G1 X101.277 Y113.991 F3000.0
G1 X103.728 Y114.339 F3000.0
G1 X105.992 Y114.646 F3000.0
G1 X108.082 Y114.919 F3000.0
G1 X110.088 Y115.142 F3000.0
G1 X111.92 Y115.347 F3000.0
G1 X113.644 Y115.521 F3000.0
G1 X115.259 Y115.672 F3000.0
G1 X116.765 Y115.805 F3000.0
G1 X118.164 Y115.925 F3000.0
G1 X119.481 Y116.028 F3000.0
G1 X120.69 Y116.129 F3000.0
G1 X121.847 Y116.211 F3000.0
G1 X122.933 Y116.285 F3000.0
G1 X123.965 Y116.347 F3000.0
G1 X124.93 Y116.405 F3000.0
G1 X125.829 Y116.464 F3000.0
G1 X126.686 Y116.515 F3000.0
G1 X127.502 Y116.558 F3000.0
G1 X128.277 Y116.597 F3000.0
G1 X129.001 Y116.64 F3000.0
G1 X129.741 Y116.649 F3000.0
G1 X130.386 Y116.692 F3000.0
G1 X131.026 Y116.717 F3000.0
G1 X131.612 Y116.758 F3000.0
G1 X132.203 Y116.775 F3000.0
G1 X132.762 Y116.796 F3000.0
G1 X133.296 Y116.817 F3000.0
G1 X133.805 Y116.84 F3000.0
G1 X134.328 Y116.833 F3000.0
G1 X134.768 Y116.88 F3000.0
G1 X135.233 Y116.89 F3000.0
G1 X135.67 Y116.91 F3000.0
G1 X136.097 Y116.924 F3000.0
G1 X136.516 Y116.931 F3000.0
G1 X136.926 Y116.934 F3000.0
G1 X137.323 Y116.936 F3000.0
G1 X137.682 Y116.965 F3000.0
G1 X138.07 Y116.95 F3000.0
G1 X138.406 Y116.982 F3000.0
G1 X138.755 Y116.988 F3000.0
G1 X139.085 Y117.005 F3000.0
G1 X139.419 Y117.006 F3000.0
G1 X139.735 Y117.02 F3000.0
G1 X140.055 Y117.018 F3000.0
G1 X140.358 Y117.029 F3000.0
G1 X140.67 Y117.014 F3000.0
G1 X140.949 Y117.043 F3000.0
G1 X141.237 Y117.047 F3000.0
G1 X141.539 Y117.017 F3000.0
G1 X141.793 Y117.059 F3000.0
G1 X142.065 Y117.063 F3000.0
G1 X142.339 Y117.053 F3000.0
G1 X142.598 Y117.062 F3000.0
G1 X142.853 Y117.072 F3000.0
G1 X143.118 Y117.05 F3000.0
G1 X143.362 Y117.066 F3000.0
G1 X143.605 Y117.079 F3000.0
G1 X143.846 Y117.087 F3000.0
G1 X144.092 Y117.074 F3000.0
G1 X144.329 Y117.076 F3000.0
G1 X144.559 Y117.092 F3000.0
G1 X144.794 Y117.087 F3000.0
G1 X145.026 Y117.079 F3000.0
G1 X145.257 Y117.068 F3000.0
G1 X145.475 Y117.097 F3000.0
G1 X145.701 Y117.089 F3000.0
G1 X145.924 Y117.086 F3000.0
G1 X146.14 Y117.104 F3000.0
G1 X146.36 Y117.103 F3000.0
G1 X146.577 Y117.11 F3000.0
G1 X146.794 Y117.106 F3000.0
G1 X147.009 Y117.11 F3000.0
G1 X147.225 Y117.096 F3000.0
G1 X147.438 Y117.101 F3000.0
G1 X147.651 Y117.111 F3000.0
G1 X147.865 Y117.087 F3000.0
G1 X148.076 Y117.096 F3000.0
G1 X148.288 Y117.101 F3000.0
G1 X148.5 Y117.103 F3000.0
M5
G0 X148.5 Y119.067 F5000.0
M3 S1000
G1 X148.746 Y119.065 F3000.0
G1 X148.992 Y119.058 F3000.0
G1 X149.238 Y119.048 F3000.0
G1 X149.484 Y119.033 F3000.0
G1 X149.734 Y119.064 F3000.0
G1 X149.982 Y119.057 F3000.0
G1 X150.23 Y119.052 F3000.0
G1 X150.482 Y119.064 F3000.0
G1 X150.732 Y119.05 F3000.0
G1 X150.981 Y119.031 F3000.0
G1 X151.239 Y119.053 F3000.0
G1 X151.49 Y119.025 F3000.0
G1 X151.75 Y119.038 F3000.0
G1 X152.014 Y119.052 F3000.0
G1 X152.27 Y119.028 F3000.0
G1 X152.54 Y119.049 F3000.0
G1 X152.806 Y119.043 F3000.0
G1 X153.077 Y119.044 F3000.0
G1 X153.35 Y119.042 F3000.0
G1 X153.61 Y118.997 F3000.0
G1 X153.888 Y118.993 F3000.0
G1 X154.187 Y119.032 F3000.0
G1 X154.472 Y119.026 F3000.0
G1 X154.761 Y119.018 F3000.0
G1 X155.056 Y119.016 F3000.0
G1 X155.343 Y118.985 F3000.0
G1 X155.659 Y119.004 F3000.0
G1 X155.966 Y118.995 F3000.0
G1 X156.287 Y119.001 F3000.0
G1 X156.598 Y118.979 F3000.0
G1 X156.93 Y118.983 F3000.0
G1 X157.269 Y118.985 F3000.0
G1 X157.59 Y118.949 F3000.0
G1 X157.945 Y118.952 F3000.0
G1 X158.302 Y118.948 F3000.0
G1 X158.663 Y118.937 F3000.0
G1 X159.026 Y118.917 F3000.0
G1 X159.432 Y118.939 F3000.0
G1 X159.826 Y118.932 F3000.0
G1 X160.198 Y118.887 F3000.0
G1 X160.64 Y118.91 F3000.0
G1 X161.062 Y118.894 F3000.0
G1 X161.505 Y118.888 F3000.0
G1 X161.924 Y118.841 F3000.0
G1 X162.421 Y118.861 F3000.0
G1 X162.901 Y118.845 F3000.0
G1 X163.388 Y118.819 F3000.0
G1 X163.907 Y118.807 F3000.0
G1 X164.411 Y118.765 F3000.0
G1 X164.969 Y118.751 F3000.0
G1 X165.574 Y118.756 F3000.0
G1 X166.162 Y118.727 F3000.0
G1 X166.755 Y118.683 F3000.0
G1 X167.417 Y118.668 F3000.0
G1 X168.085 Y118.635 F3000.0
G1 X168.812 Y118.62 F3000.0
G1 X169.523 Y118.57 F3000.0
G1 X170.296 Y118.534 F3000.0
G1 X171.131 Y118.51 F3000.0
G1 X171.949 Y118.448 F3000.0
G1 X172.889 Y118.425 F3000.0
G1 X173.813 Y118.362 F3000.0
G1 X174.802 Y118.3 F3000.0
G1 X175.869 Y118.243 F3000.0
G1 X176.991 Y118.176 F3000.0
G1 X178.168 Y118.095 F3000.0
G1 X179.401 Y117.998 F3000.0
G1 X180.777 Y117.917 F3000.0
G1 X182.21 Y117.81 F3000.0
G1 X183.737 Y117.69 F3000.0
G1 X185.361 Y117.55 F3000.0
G1 X187.105 Y117.394 F3000.0
G1 X188.971 Y117.216 F3000.0
G1 X190.959 Y117.01 F3000.0
G1 X193.109 Y116.779 F3000.0
G1 X195.42 Y116.515 F3000.0
G1 X197.881 Y116.206 F3000.0
G1 X200.503 Y115.848 F3000.0
G1 X203.312 Y115.436 F3000.0
G1 X206.282 Y114.957 F3000.0
G1 X209.385 Y114.398 F3000.0
G1 X212.566 Y113.744 F3000.0
G1 X215.89 Y112.999 F3000.0
G1 X219.153 Y112.134 F3000.0
G1 X222.34 Y111.153 F3000.0
G1 X225.244 Y110.044 F3000.0
G1 X227.795 Y108.819 F3000.0
G1 X229.815 Y107.491 F3000.0
G1 X231.139 Y106.085 F3000.0
G1 X231.792 Y104.636 F3000.0
G1 X231.665 Y103.18 F3000.0
G1 X230.826 Y101.756 F3000.0
G1 X229.372 Y100.395 F3000.0
G1 X227.453 Y99.116 F3000.0
G1 X225.219 Y97.931 F3000.0
G1 X222.795 Y96.841 F3000.0
G1 X220.284 Y95.842 F3000.0
G1 X217.768 Y94.928 F3000.0
G1 X215.29 Y94.092 F3000.0
G1 X212.943 Y93.314 F3000.0
G1 X210.723 Y92.588 F3000.0
G1 X208.63 Y91.907 F3000.0
G1 X206.677 Y91.262 F3000.0
G1 X204.798 Y90.661 F3000.0
G1 X203.086 Y90.075 F3000.0
G1 X201.539 Y89.495 F3000.0
G1 X200.04 Y88.949 F3000.0
G1 X198.654 Y88.412 F3000.0
G1 X197.342 Y87.892 F3000.0
G1 X196.128 Y87.376 F3000.0
G1 X194.967 Y86.875 F3000.0
G1 X193.866 Y86.383 F3000.0
G1 X192.831 Y85.895 F3000.0
G1 X191.841 Y85.415 F3000.0
G1 X190.909 Y84.935 F3000.0
G1 X189.974 Y84.481 F3000.0
G1 X189.132 Y84.005 F3000.0
G1 X188.286 Y83.552 F3000.0
G1 X187.489 Y83.092 F3000.0
G1 X186.677 Y82.661 F3000.0
G1 X185.913 Y82.219 F3000.0
G1 X185.203 Y81.762 F3000.0
G1 X184.466 Y81.337 F3000.0
G1 X183.758 Y80.907 F3000.0
G1 X183.069 Y80.48 F3000.0
G1 X182.375 Y80.07 F3000.0
G1 X181.699 Y79.66 F3000.0
G1 X181.051 Y79.241 F3000.0
G1 X180.378 Y78.853 F3000.0
G1 X179.752 Y78.438 F3000.0
G1 X179.101 Y78.055 F3000.0
G1 X178.466 Y77.668 F3000.0
G1 X177.828 Y77.295 F3000.0
G1 X177.204 Y76.917 F3000.0
G1 X176.558 Y76.571 F3000.0
G1 X175.954 Y76.191 F3000.0
G1 X175.328 Y75.843 F3000.0
G1 X174.716 Y75.489 F3000.0
G1 X174.082 Y75.166 F3000.0
G1 X173.471 Y74.826 F3000.0
G1 X172.864 Y74.488 F3000.0
G1 X172.253 Y74.161 F3000.0
G1 X171.613 Y73.88 F3000.0
G1 X171.003 Y73.567 F3000.0
G1 X170.388 Y73.267 F3000.0
G1 X169.77 Y72.978 F3000.0
G1 X169.149 Y72.7 F3000.0
G1 X168.524 Y72.435 F3000.0
G1 X167.931 Y72.124 F3000.0
G1 X167.306 Y71.871 F3000.0
G1 X166.685 Y71.617 F3000.0
G1 X166.049 Y71.399 F3000.0
G1 X165.44 Y71.133 F3000.0
G1 X164.816 Y70.902 F3000.0
G1 X164.172 Y70.719 F3000.0
G1 X163.559 Y70.475 F3000.0
G1 X162.922 Y70.29 F3000.0
G1 X162.302 Y70.068 F3000.0
G1 X161.661 Y69.907 F3000.0
G1 X161.035 Y69.707 F3000.0
G1 X160.39 Y69.57 F3000.0
G1 X159.768 Y69.367 F3000.0
G1 X159.13 Y69.22 F3000.0
G1 X158.486 Y69.097 F3000.0
G1 X157.849 Y68.954 F3000.0
G1 X157.214 Y68.809 F3000.0
G1 X156.565 Y68.727 F3000.0
G1 X155.929 Y68.592 F3000.0
G1 X155.285 Y68.494 F3000.0
G1 X154.643 Y68.394 F3000.0
G1 X153.992 Y68.358 F3000.0
G1 X153.35 Y68.267 F3000.0
G1 X152.706 Y68.188 F3000.0
G1 X152.061 Y68.12 F3000.0
G1 X151.413 Y68.09 F3000.0
G1 X150.767 Y68.045 F3000.0
G1 X150.119 Y68.011 F3000.0
G1 X149.472 Y68.002 F3000.0
G1 X148.824 Y67.99 F3000.0
G1 X148.176 Y67.99 F3000.0
G1 X147.528 Y68.002 F3000.0
G1 X146.881 Y68.011 F3000.0
G1 X146.233 Y68.045 F3000.0
G1 X145.587 Y68.09 F3000.0
G1 X144.939 Y68.12 F3000.0
G1 X144.294 Y68.188 F3000.0
G1 X143.65 Y68.267 F3000.0
G1 X143.008 Y68.358 F3000.0
G1 X142.357 Y68.394 F3000.0
G1 X141.715 Y68.494 F3000.0
G1 X141.071 Y68.592 F3000.0
G1 X140.435 Y68.727 F3000.0
G1 X139.786 Y68.809 F3000.0
G1 X139.151 Y68.954 F3000.0
G1 X138.514 Y69.097 F3000.0
G1 X137.87 Y69.22 F3000.0
G1 X137.232 Y69.367 F3000.0
G1 X136.61 Y69.57 F3000.0
G1 X135.965 Y69.707 F3000.0
G1 X135.339 Y69.907 F3000.0
G1 X134.698 Y70.068 F3000.0
G1 X134.078 Y70.29 F3000.0
G1 X133.441 Y70.475 F3000.0
G1 X132.828 Y70.719 F3000.0
G1 X132.184 Y70.902 F3000.0
G1 X131.56 Y71.133 F3000.0
G1 X130.951 Y71.399 F3000.0
G1 X130.315 Y71.617 F3000.0
G1 X129.694 Y71.871 F3000.0
G1 X129.069 Y72.124 F3000.0
G1 X128.476 Y72.435 F3000.0
G1 X127.851 Y72.7 F3000.0
G1 X127.23 Y72.978 F3000.0
G1 X126.612 Y73.267 F3000.0
G1 X125.997 Y73.567 F3000.0
G1 X125.387 Y73.88 F3000.0
G1 X124.747 Y74.161 F3000.0
G1 X124.136 Y74.488 F3000.0
G1 X123.529 Y74.826 F3000.0
G1 X122.918 Y75.166 F3000.0
G1 X122.284 Y75.489 F3000.0
G1 X121.672 Y75.843 F3000.0
G1 X121.046 Y76.191 F3000.0
G1 X120.442 Y76.571 F3000.0
G1 X119.796 Y76.917 F3000.0
G1 X119.172 Y77.295 F3000.0
G1 X118.534 Y77.668 F3000.0
G1 X117.899 Y78.055 F3000.0
G1 X117.248 Y78.438 F3000.0
G1 X116.622 Y78.853 F3000.0
G1 X115.949 Y79.241 F3000.0
G1 X115.301 Y79.66 F3000.0
G1 X114.625 Y80.07 F3000.0
G1 X113.931 Y80.48 F3000.0
G1 X113.242 Y80.907 F3000.0
G1 X112.534 Y81.337 F3000.0
G1 X111.797 Y81.762 F3000.0
G1 X111.087 Y82.219 F3000.0
G1 X110.323 Y82.661 F3000.0
G1 X109.511 Y83.092 F3000.0
G1 X108.714 Y83.552 F3000.0
G1 X107.868 Y84.005 F3000.0
G1 X107.026 Y84.481 F3000.0
G1 X106.091 Y84.935 F3000.0
G1 X105.159 Y85.415 F3000.0
G1 X104.169 Y85.895 F3000.0
G1 X103.134 Y86.383 F3000.0
G1 X102.033 Y86.875 F3000.0
G1 X100.872 Y87.376 F3000.0
G1 X99.658 Y87.892 F3000.0
G1 X98.346 Y88.412 F3000.0
G1 X96.96 Y88.949 F3000.0
G1 X95.461 Y89.495 F3000.0
G1 X93.914 Y90.075 F3000.0
G1 X92.202 Y90.661 F3000.0
G1 X90.323 Y91.262 F3000.0
G1 X88.37 Y91.907 F3000.0
G1 X86.277 Y92.588 F3000.0
G1 X84.057 Y93.314 F3000.0
G1 X81.71 Y94.092 F3000.0
G1 X79.232 Y94.928 F3000.0
G1 X76.716 Y95.842 F3000.0
G1 X74.205 Y96.841 F3000.0
G1 X71.781 Y97.931 F3000.0
G1 X69.547 Y99.116 F3000.0
G1 X67.628 Y100.395 F3000.0
G1 X66.174 Y101.756 F3000.0
G1 X65.335 Y103.18 F3000.0
G1 X65.208 Y104.636 F3000.0
G1 X65.861 Y106.085 F3000.0
G1 X67.185 Y107.491 F3000.0
G1 X69.205 Y108.819 F3000.0
G1 X71.756 Y110.044 F3000.0
G1 X74.66 Y111.153 F3000.0
G1 X77.847 Y112.134 F3000.0
G1 X81.11 Y112.999 F3000.0
G1 X84.434 Y113.744 F3000.0
G1 X87.615 Y114.398 F3000.0
G1 X90.718 Y114.957 F3000.0
G1 X93.688 Y115.436 F3000.0
G1 X96.497 Y115.848 F3000.0
G1 X99.119 Y116.206 F3000.0
G1 X101.58 Y116.515 F3000.0
G1 X103.891 Y116.779 F3000.0
G1 X106.041 Y117.01 F3000.0
G1 X108.029 Y117.216 F3000.0
G1 X109.895 Y117.394 F3000.0
G1 X111.639 Y117.55 F3000.0
G1 X113.263 Y117.69 F3000.0
G1 X114.79 Y117.81 F3000.0
G1 X116.223 Y117.917 F3000.0
G1 X117.599 Y117.998 F3000.0
G1 X118.832 Y118.095 F3000.0
G1 X120.009 Y118.176 F3000.0
G1 X121.131 Y118.243 F3000.0
G1 X122.198 Y118.3 F3000.0
G1 X123.187 Y118.362 F3000.0
G1 X124.111 Y118.425 F3000.0
G1 X125.051 Y118.448 F3000.0
G1 X125.869 Y118.51 F3000.0
G1 X126.704 Y118.534 F3000.0
G1 X127.477 Y118.57 F3000.0
G1 X128.188 Y118.62 F3000.0
G1 X128.915 Y118.635 F3000.0
G1 X129.583 Y118.668 F3000.0
G1 X130.245 Y118.683 F3000.0
G1 X130.838 Y118.727 F3000.0
G1 X131.426 Y118.756 F3000.0
G1 X132.031 Y118.751 F3000.0
G1 X132.589 Y118.765 F3000.0
G1 X133.093 Y118.807 F3000.0
G1 X133.612 Y118.819 F3000.0
G1 X134.099 Y118.845 F3000.0
G1 X134.579 Y118.861 F3000.0
G1 X135.076 Y118.841 F3000.0
G1 X135.495 Y118.888 F3000.0
G1 X135.938 Y118.894 F3000.0
G1 X136.36 Y118.91 F3000.0
G1 X136.802 Y118.887 F3000.0
G1 X137.174 Y118.932 F3000.0
G1 X137.568 Y118.939 F3000.0
G1 X137.974 Y118.917 F3000.0
G1 X138.337 Y118.937 F3000.0
G1 X138.698 Y118.948 F3000.0
G1 X139.055 Y118.952 F3000.0
G1 X139.41 Y118.949 F3000.0
G1 X139.731 Y118.985 F3000.0
G1 X140.07 Y118.983 F3000.0
G1 X140.402 Y118.979 F3000.0
G1 X140.713 Y119.001 F3000.0
G1 X141.034 Y118.995 F3000.0
G1 X141.341 Y119.004 F3000.0
G1 X141.657 Y118.985 F3000.0
G1 X141.944 Y119.016 F3000.0
G1 X142.239 Y119.018 F3000.0
G1 X142.528 Y119.026 F3000.0
G1 X142.813 Y119.032 F3000.0
G1 X143.112 Y118.993 F3000.0
G1 X143.39 Y118.997 F3000.0
G1 X143.65 Y119.042 F3000.0
G1 X143.923 Y119.044 F3000.0
G1 X144.194 Y119.043 F3000.0
G1 X144.46 Y119.049 F3000.0
G1 X144.73 Y119.028 F3000.0
G1 X144.986 Y119.052 F3000.0
G1 X145.25 Y119.038 F3000.0
G1 X145.51 Y119.025 F3000.0
G1 X145.761 Y119.053 F3000.0
G1 X146.019 Y119.031 F3000.0
G1 X146.268 Y119.05 F3000.0
G1 X146.518 Y119.064 F3000.0
G1 X146.77 Y119.052 F3000.0
G1 X147.018 Y119.057 F3000.0
G1 X147.266 Y119.064 F3000.0
G1 X147.516 Y119.033 F3000.0
G1 X147.762 Y119.048 F3000.0
G1 X148.008 Y119.058 F3000.0
G1 X148.254 Y119.065 F3000.0
G1 X148.5 Y119.067 F3000.0
M5
G0 X148.5 Y121.02 F5000.0
M3 S1000
G1 X148.78 Y121.018 F3000.0
G1 X149.061 Y121.01 F3000.0
G1 X149.341 Y121.01 F3000.0
G1 X149.623 Y121.018 F3000.0
G1 X149.903 Y120.996 F3000.0
G1 X150.188 Y121.019 F3000.0
G1 X150.471 Y121.01 F3000.0
G1 X150.755 Y120.997 F3000.0
G1 X151.044 Y121.016 F3000.0
G1 X151.33 Y121.005 F3000.0
G1 X151.62 Y121.008 F3000.0
G1 X151.909 Y120.993 F3000.0
G1 X152.205 Y121.003 F3000.0
G1 X152.491 Y120.96 F3000.0
G1 X152.795 Y120.983 F3000.0
G1 X153.102 Y121.001 F3000.0
G1 X153.403 Y120.989 F3000.0
G1 X153.713 Y120.995 F3000.0
G1 X154.02 Y120.984 F3000.0
G1 X154.333 Y120.979 F3000.0
G1 X154.653 Y120.98 F3000.0
G1 X154.969 Y120.962 F3000.0
G1 X155.297 Y120.962 F3000.0
G1 X155.616 Y120.933 F3000.0
G1 X155.968 Y120.965 F3000.0
G1 X156.302 Y120.946 F3000.0
G1 X156.655 Y120.953 F3000.0
G1 X156.998 Y120.931 F3000.0
G1 X157.362 Y120.935 F3000.0
G1 X157.732 Y120.937 F3000.0
G1 X158.086 Y120.899 F3000.0
G1 X158.471 Y120.902 F3000.0
G1 X158.859 Y120.896 F3000.0
G1 X159.251 Y120.882 F3000.0
G1 X159.677 Y120.904 F3000.0
G1 X160.088 Y120.891 F3000.0
G1 X160.504 Y120.871 F3000.0
G1 X160.948 Y120.872 F3000.0
G1 X161.379 Y120.842 F3000.0
G1 X161.854 Y120.852 F3000.0
G1 X162.317 Y120.831 F3000.0
G1 X162.802 Y120.819 F3000.0
G1 X163.308 Y120.813 F3000.0
G1 X163.8 Y120.776 F3000.0
G1 X164.352 Y120.783 F3000.0
G1 X164.871 Y120.739 F3000.0
G1 X165.451 Y120.735 F3000.0
G1 X166.037 Y120.716 F3000.0
G1 X166.627 Y120.682 F3000.0
G1 X167.283 Y120.683 F3000.0
G1 X167.945 Y120.666 F3000.0
G1 X168.59 Y120.615 F3000.0
G1 X169.331 Y120.613 F3000.0
G1 X170.067 Y120.583 F3000.0
G1 X170.837 Y120.551 F3000.0
G1 X171.634 Y120.513 F3000.0
G1 X172.459 Y120.465 F3000.0
G1 X173.358 Y120.436 F3000.0
G1 X174.264 Y120.38 F3000.0
G1 X175.245 Y120.337 F3000.0
G1 X176.256 Y120.278 F3000.0
G1 X177.35 Y120.229 F3000.0
G1 X178.476 Y120.158 F3000.0
G1 X179.687 Y120.091 F3000.0
G1 X180.94 Y120.002 F3000.0
G1 X182.298 Y119.918 F3000.0
G1 X183.738 Y119.823 F3000.0
G1 X185.26 Y119.711 F3000.0
G1 X186.891 Y119.589 F3000.0
G1 X188.602 Y119.442 F3000.0
G1 X190.474 Y119.291 F3000.0
G1 X192.455 Y119.112 F3000.0
G1 X194.546 Y118.899 F3000.0
G1 X196.85 Y118.676 F3000.0
G1 X199.264 Y118.404 F3000.0
G1 X201.892 Y118.103 F3000.0
G1 X204.71 Y117.756 F3000.0
G1 X207.689 Y117.347 F3000.0
G1 X210.856 Y116.872 F3000.0
G1 X214.237 Y116.328 F3000.0
G1 X217.79 Y115.695 F3000.0
G1 X221.421 Y114.952 F3000.0
G1 X225.181 Y114.101 F3000.0
G1 X228.879 Y113.116 F3000.0
G1 X232.471 Y111.997 F3000.0
G1 X235.78 Y110.737 F3000.0
G1 X238.645 Y109.342 F3000.0
G1 X240.882 Y107.83 F3000.0
G1 X242.401 Y106.233 F3000.0
G1 X243.055 Y104.586 F3000.0
G1 X242.829 Y102.936 F3000.0
G1 X241.809 Y101.324 F3000.0
G1 X240.05 Y99.787 F3000.0
G1 X237.795 Y98.346 F3000.0
G1 X235.197 Y97.011 F3000.0
G1 X232.339 Y95.792 F3000.0
G1 X229.386 Y94.681 F3000.0
G1 X226.448 Y93.666 F3000.0
G1 X223.553 Y92.742 F3000.0
G1 X220.81 Y91.887 F3000.0
G1 X218.207 Y91.095 F3000.0
G1 X215.756 Y90.355 F3000.0
G1 X213.42 Y89.669 F3000.0
G1 X211.329 Y88.997 F3000.0
G1 X209.313 Y88.372 F3000.0
G1 X207.464 Y87.763 F3000.0
G1 X205.715 Y87.182 F3000.0
G1 X204.119 Y86.605 F3000.0
G1 X202.594 Y86.053 F3000.0
G1 X201.169 Y85.51 F3000.0
G1 X199.818 Y84.982 F3000.0
G1 X198.565 Y84.455 F3000.0
G1 X197.371 Y83.938 F3000.0
G1 X196.223 Y83.435 F3000.0
G1 X195.146 Y82.93 F3000.0
G1 X194.09 Y82.445 F3000.0
G1 X193.104 Y81.953 F3000.0
G1 X192.138 Y81.475 F3000.0
G1 X191.234 Y80.988 F3000.0
G1 X190.343 Y80.515 F3000.0
G1 X189.467 Y80.056 F3000.0
G1 X188.639 Y79.586 F3000.0
G1 X187.784 Y79.154 F3000.0
G1 X187.018 Y78.68 F3000.0
G1 X186.22 Y78.245 F3000.0
G1 X185.468 Y77.794 F3000.0
G1 X184.684 Y77.381 F3000.0
G1 X183.943 Y76.952 F3000.0
G1 X183.198 Y76.54 F3000.0
G1 X182.51 Y76.094 F3000.0
G1 X181.778 Y75.698 F3000.0
G1 X181.081 Y75.283 F3000.0
G1 X180.386 Y74.878 F3000.0
G1 X179.657 Y74.517 F3000.0
G1 X178.968 Y74.129 F3000.0
G1 X178.313 Y73.716 F3000.0
G1 X177.624 Y73.348 F3000.0
G1 X176.932 Y72.994 F3000.0
G1 X176.245 Y72.644 F3000.0
G1 X175.589 Y72.266 F3000.0
G1 X174.895 Y71.944 F3000.0
G1 X174.231 Y71.593 F3000.0
G1 X173.563 Y71.254 F3000.0
G1 X172.874 Y70.953 F3000.0
G1 X172.214 Y70.62 F3000.0
G1 X171.534 Y70.322 F3000.0
G1 X170.866 Y70.014 F3000.0
G1 X170.194 Y69.72 F3000.0
G1 X169.519 Y69.438 F3000.0
G1 X168.84 Y69.169 F3000.0
G1 X168.159 Y68.912 F3000.0
G1 X167.487 Y68.645 F3000.0
G1 X166.8 Y68.414 F3000.0
G1 X166.135 Y68.145 F3000.0
G1 X165.453 Y67.918 F3000.0
G1 X164.769 Y67.701 F3000.0
G1 X164.093 Y67.47 F3000.0
G1 X163.404 Y67.279 F3000.0
G1 X162.714 Y67.099 F3000.0
G1 X162.039 Y66.881 F3000.0
G1 X161.344 Y66.726 F3000.0
G1 X160.665 Y66.533 F3000.0
G1 X159.967 Y66.403 F3000.0
G1 X159.282 Y66.234 F3000.0
G1 X158.597 Y66.071 F3000.0
G1 X157.9 Y65.959 F3000.0
G1 X157.21 Y65.826 F3000.0
G1 X156.519 Y65.699 F3000.0
G1 X155.819 Y65.624 F3000.0
G1 X155.128 Y65.502 F3000.0
G1 X154.432 Y65.419 F3000.0
G1 X153.737 Y65.334 F3000.0
G1 X153.034 Y65.315 F3000.0
G1 X152.339 Y65.242 F3000.0
G1 X151.643 Y65.181 F3000.0
G1 X150.945 Y65.132 F3000.0
G1 X150.247 Y65.095 F3000.0
G1 X149.548 Y65.098 F3000.0
G1 X148.849 Y65.086 F3000.0
G1 X148.151 Y65.086 F3000.0
G1 X147.452 Y65.098 F3000.0
G1 X146.753 Y65.095 F3000.0
G1 X146.055 Y65.132 F3000.0
G1 X145.357 Y65.181 F3000.0
G1 X144.661 Y65.242 F3000.0
G1 X143.966 Y65.315 F3000.0
G1 X143.263 Y65.334 F3000.0
G1 X142.568 Y65.419 F3000.0
G1 X141.872 Y65.502 F3000.0
G1 X141.181 Y65.624 F3000.0
G1 X140.481 Y65.699 F3000.0
G1 X139.79 Y65.826 F3000.0
G1 X139.1 Y65.959 F3000.0
G1 X138.403 Y66.071 F3000.0
G1 X137.718 Y66.234 F3000.0
G1 X137.033 Y66.403 F3000.0
G1 X136.335 Y66.533 F3000.0
G1 X135.656 Y66.726 F3000.0
G1 X134.961 Y66.881 F3000.0
G1 X134.286 Y67.099 F3000.0
G1 X133.596 Y67.279 F3000.0
G1 X132.907 Y67.47 F3000.0
G1 X132.231 Y67.701 F3000.0
G1 X131.547 Y67.918 F3000.0
G1 X130.865 Y68.145 F3000.0
G1 X130.2 Y68.414 F3000.0
G1 X129.513 Y68.645 F3000.0
G1 X128.841 Y68.912 F3000.0
G1 X128.16 Y69.169 F3000.0
G1 X127.481 Y69.438 F3000.0
G1 X126.806 Y69.72 F3000.0
G1 X126.134 Y70.014 F3000.0
G1 X125.466 Y70.322 F3000.0
G1 X124.786 Y70.62 F3000.0
G1 X124.126 Y70.953 F3000.0
G1 X123.437 Y71.254 F3000.0
G1 X122.769 Y71.593 F3000.0
G1 X122.105 Y71.944 F3000.0
G1 X121.411 Y72.266 F3000.0
G1 X120.755 Y72.644 F3000.0
G1 X120.068 Y72.994 F3000.0
G1 X119.376 Y73.348 F3000.0
G1 X118.687 Y73.716 F3000.0
G1 X118.032 Y74.129 F3000.0
G1 X117.343 Y74.517 F3000.0
G1 X116.614 Y74.878 F3000.0
G1 X115.919 Y75.283 F3000.0
G1 X115.222 Y75.698 F3000.0
G1 X114.49 Y76.094 F3000.0
G1 X113.802 Y76.54 F3000.0
G1 X113.057 Y76.952 F3000.0
G1 X112.316 Y77.381 F3000.0
G1 X111.532 Y77.794 F3000.0
G1 X110.78 Y78.245 F3000.0
G1 X109.982 Y78.68 F3000.0
G1 X109.216 Y79.154 F3000.0
G1 X108.361 Y79.586 F3000.0
G1 X107.533 Y80.056 F3000.0
G1 X106.657 Y80.515 F3000.0
G1 X105.766 Y80.988 F3000.0
G1 X104.862 Y81.475 F3000.0
G1 X103.896 Y81.953 F3000.0
G1 X102.91 Y82.445 F3000.0
G1 X101.854 Y82.93 F3000.0
G1 X100.777 Y83.435 F3000.0
G1 X99.629 Y83.938 F3000.0
G1 X98.435 Y84.455 F3000.0
G1 X97.182 Y84.982 F3000.0
G1 X95.831 Y85.51 F3000.0
G1 X94.406 Y86.053 F3000.0
G1 X92.881 Y86.605 F3000.0
G1 X91.285 Y87.182 F3000.0
G1 X89.536 Y87.763 F3000.0
G1 X87.687 Y88.372 F3000.0
G1 X85.671 Y88.997 F3000.0
G1 X83.58 Y89.669 F3000.0
G1 X81.244 Y90.355 F3000.0
G1 X78.793 Y91.095 F3000.0
G1 X76.19 Y91.887 F3000.0
G1 X73.447 Y92.742 F3000.0
G1 X70.552 Y93.666 F3000.0
G1 X67.614 Y94.681 F3000.0
G1 X64.661 Y95.792 F3000.0
G1 X61.803 Y97.011 F3000.0
G1 X59.205 Y98.346 F3000.0
G1 X56.95 Y99.787 F3000.0
G1 X55.191 Y101.324 F3000.0
G1 X54.171 Y102.936 F3000.0
G1 X53.945 Y104.586 F3000.0
G1 X54.599 Y106.233 F3000.0
G1 X56.118 Y107.83 F3000.0
G1 X58.355 Y109.342 F3000.0
G1 X61.22 Y110.737 F3000.0
G1 X64.529 Y111.997 F3000.0
G1 X68.121 Y113.116 F3000.0
G1 X71.819 Y114.101 F3000.0
G1 X75.579 Y114.952 F3000.0
G1 X79.21 Y115.695 F3000.0
G1 X82.763 Y116.328 F3000.0
G1 X86.144 Y116.872 F3000.0
G1 X89.311 Y117.347 F3000.0
G1 X92.29 Y117.756 F3000.0
G1 X95.108 Y118.103 F3000.0
G1 X97.736 Y118.404 F3000.0
G1 X100.15 Y118.676 F3000.0
G1 X102.454 Y118.899 F3000.0
G1 X104.545 Y119.112 F3000.0
G1 X106.526 Y119.291 F3000.0
G1 X108.398 Y119.442 F3000.0
G1 X110.109 Y119.589 F3000.0
G1 X111.74 Y119.711 F3000.0
G1 X113.262 Y119.823 F3000.0
G1 X114.702 Y119.918 F3000.0
G1 X116.06 Y120.002 F3000.0
G1 X117.313 Y120.091 F3000.0
G1 X118.524 Y120.158 F3000.0
G1 X119.65 Y120.229 F3000.0
G1 X120.744 Y120.278 F3000.0
G1 X121.755 Y120.337 F3000.0
G1 X122.736 Y120.38 F3000.0
G1 X123.642 Y120.436 F3000.0
G1 X124.541 Y120.465 F3000.0
G1 X125.366 Y120.513 F3000.0
G1 X126.163 Y120.551 F3000.0
G1 X126.933 Y120.583 F3000.0
G1 X127.669 Y120.613 F3000.0
G1 X128.41 Y120.615 F3000.0
G1 X129.055 Y120.666 F3000.0
G1 X129.717 Y120.683 F3000.0
G1 X130.373 Y120.682 F3000.0
G1 X130.963 Y120.716 F3000.0
G1 X131.549 Y120.735 F3000.0
G1 X132.129 Y120.739 F3000.0
G1 X132.648 Y120.783 F3000.0
G1 X133.2 Y120.776 F3000.0
G1 X133.692 Y120.813 F3000.0
G1 X134.198 Y120.819 F3000.0
G1 X134.683 Y120.831 F3000.0
G1 X135.146 Y120.852 F3000.0
G1 X135.621 Y120.842 F3000.0
G1 X136.052 Y120.872 F3000.0
G1 X136.496 Y120.871 F3000.0
G1 X136.912 Y120.891 F3000.0
G1 X137.323 Y120.904 F3000.0
G1 X137.749 Y120.882 F3000.0
G1 X138.141 Y120.896 F3000.0
G1 X138.529 Y120.902 F3000.0
G1 X138.914 Y120.899 F3000.0
G1 X139.268 Y120.937 F3000.0
G1 X139.638 Y120.935 F3000.0
G1 X140.002 Y120.931 F3000.0
G1 X140.345 Y120.953 F3000.0
G1 X140.698 Y120.946 F3000.0
G1 X141.032 Y120.965 F3000.0
G1 X141.384 Y120.933 F3000.0
G1 X141.703 Y120.962 F3000.0
G1 X142.031 Y120.962 F3000.0
G1 X142.347 Y120.98 F3000.0
G1 X142.667 Y120.979 F3000.0
G1 X142.98 Y120.984 F3000.0
G1 X143.287 Y120.995 F3000.0
G1 X143.597 Y120.989 F3000.0
G1 X143.898 Y121.001 F3000.0
G1 X144.205 Y120.983 F3000.0
G1 X144.509 Y120.96 F3000.0
G1 X144.795 Y121.003 F3000.0
G1 X145.091 Y120.993 F3000.0
G1 X145.38 Y121.008 F3000.0
G1 X145.67 Y121.005 F3000.0
G1 X145.956 Y121.016 F3000.0
G1 X146.245 Y120.997 F3000.0
G1 X146.529 Y121.01 F3000.0
G1 X146.812 Y121.019 F3000.0
G1 X147.097 Y120.996 F3000.0
G1 X147.377 Y121.018 F3000.0
G1 X147.659 Y121.01 F3000.0
G1 X147.939 Y121.01 F3000.0
G1 X148.22 Y121.018 F3000.0
G1 X148.5 Y121.02 F3000.0
M5
G0 X148.5 Y122.955 F5000.0
M3 S1000
G1 X148.814 Y122.952 F3000.0
G1 X149.128 Y122.944 F3000.0
G1 X149.442 Y122.93 F3000.0
G1 X149.76 Y122.974 F3000.0
G1 X150.076 Y122.962 F3000.0
G1 X150.393 Y122.957 F3000.0
G1 X150.713 Y122.971 F3000.0
G1 X151.03 Y122.955 F3000.0
G1 X151.348 Y122.933 F3000.0
G1 X151.675 Y122.955 F3000.0
G1 X151.994 Y122.922 F3000.0
G1 X152.328 Y122.957 F3000.0
G1 X152.656 Y122.95 F3000.0
G1 X152.979 Y122.911 F3000.0
G1 X153.318 Y122.929 F3000.0
G1 X153.659 Y122.94 F3000.0
G1 X154.002 Y122.944 F3000.0
G1 X154.347 Y122.943 F3000.0
G1 X154.694 Y122.934 F3000.0
G1 X155.042 Y122.92 F3000.0
G1 X155.391 Y122.898 F3000.0
G1 X155.766 Y122.929 F3000.0
G1 X156.124 Y122.906 F3000.0
G1 X156.489 Y122.887 F3000.0
G1 X156.877 Y122.908 F3000.0
G1 X157.246 Y122.874 F3000.0
G1 X157.651 Y122.903 F3000.0
G1 X158.049 Y122.899 F3000.0
G1 X158.45 Y122.891 F3000.0
G1 X158.838 Y122.846 F3000.0
G1 X159.256 Y122.84 F3000.0
G1 X159.705 Y122.87 F3000.0
G1 X160.136 Y122.855 F3000.0
G1 X160.586 Y122.854 F3000.0
G1 X161.016 Y122.81 F3000.0
G1 X161.495 Y122.82 F3000.0
G1 X161.98 Y122.822 F3000.0
G1 X162.45 Y122.787 F3000.0
G1 X162.957 Y122.784 F3000.0
G1 X163.469 Y122.769 F3000.0
G1 X163.985 Y122.741 F3000.0
G1 X164.557 Y122.76 F3000.0
G1 X165.099 Y122.726 F3000.0
G1 X165.682 Y122.716 F3000.0
G1 X166.288 Y122.711 F3000.0
G1 X166.9 Y122.689 F3000.0
G1 X167.536 Y122.67 F3000.0
G1 X168.157 Y122.617 F3000.0
G1 X168.863 Y122.616 F3000.0
G1 X169.575 Y122.597 F3000.0
G1 X170.293 Y122.558 F3000.0
G1 X171.068 Y122.541 F3000.0
G1 X171.829 Y122.486 F3000.0
G1 X172.694 Y122.481 F3000.0
G1 X173.54 Y122.433 F3000.0
G1 X174.449 Y122.4 F3000.0
G1 X175.388 Y122.356 F3000.0
G1 X176.39 Y122.319 F3000.0
G1 X177.425 Y122.267 F3000.0
G1 X178.508 Y122.208 F3000.0
G1 X179.647 Y122.144 F3000.0
G1 X180.864 Y122.084 F3000.0
G1 X182.137 Y122.01 F3000.0
G1 X183.466 Y121.92 F3000.0
G1 X184.912 Y121.839 F3000.0
G1 X186.414 Y121.735 F3000.0
G1 X187.987 Y121.609 F3000.0
G1 X189.741 Y121.504 F3000.0
G1 X191.553 Y121.361 F3000.0
G1 X193.507 Y121.208 F3000.0
G1 X195.557 Y121.021 F3000.0
G1 X197.774 Y120.82 F3000.0
G1 X200.179 Y120.599 F3000.0
G1 X202.746 Y120.344 F3000.0
G1 X205.477 Y120.044 F3000.0
G1 X208.424 Y119.706 F3000.0
G1 X211.557 Y119.309 F3000.0
G1 X214.913 Y118.854 F3000.0
G1 X218.471 Y118.322 F3000.0
G1 X222.252 Y117.709 F3000.0
G1 X226.199 Y116.993 F3000.0
G1 X230.28 Y116.161 F3000.0
G1 X234.476 Y115.205 F3000.0
G1 X238.621 Y114.1 F3000.0
G1 X242.623 Y112.843 F3000.0
G1 X246.305 Y111.428 F3000.0
G1 X249.458 Y109.863 F3000.0
G1 X251.979 Y108.17 F3000.0
G1 X253.622 Y106.38 F3000.0
G1 X254.29 Y104.537 F3000.0
G1 X253.969 Y102.692 F3000.0
G1 X252.788 Y100.891 F3000.0
G1 X250.784 Y99.176 F3000.0
G1 X248.18 Y97.572 F3000.0
G1 X245.15 Y96.094 F3000.0
G1 X241.873 Y94.745 F3000.0
G1 X238.472 Y93.522 F3000.0
G1 X235.084 Y92.41 F3000.0
G1 X231.823 Y91.391 F3000.0
G1 X228.654 Y90.465 F3000.0
G1 X225.64 Y89.612 F3000.0
G1 X222.833 Y88.814 F3000.0
G1 X220.232 Y88.061 F3000.0
G1 X217.788 Y87.352 F3000.0
G1 X215.505 Y86.679 F3000.0
G1 X213.353 Y86.042 F3000.0
G1 X211.366 Y85.422 F3000.0
G1 X209.539 Y84.812 F3000.0
G1 X207.798 Y84.23 F3000.0
G1 X206.177 Y83.657 F3000.0
G1 X204.629 Y83.106 F3000.0
G1 X203.217 Y82.546 F3000.0
G1 X201.852 Y82.007 F3000.0
G1 X200.559 Y81.475 F3000.0
G1 X199.325 Y80.953 F3000.0
G1 X198.162 Y80.431 F3000.0
G1 X197.031 Y79.923 F3000.0
G1 X195.946 Y79.422 F3000.0
G1 X194.905 Y78.925 F3000.0
G1 X193.908 Y78.429 F3000.0
G1 X192.943 Y77.939 F3000.0
G1 X192.008 Y77.453 F3000.0
G1 X191.082 Y76.984 F3000.0
G1 X190.164 Y76.531 F3000.0
G1 X189.308 Y76.054 F3000.0
G1 X188.449 Y75.6 F3000.0
G1 X187.64 Y75.125 F3000.0
G1 X186.806 Y74.686 F3000.0
G1 X186.0 Y74.242 F3000.0
G1 X185.21 Y73.799 F3000.0
G1 X184.417 Y73.374 F3000.0
G1 X183.64 Y72.949 F3000.0
G1 X182.881 Y72.522 F3000.0
G1 X182.113 Y72.115 F3000.0
G1 X181.353 Y71.713 F3000.0
G1 X180.609 Y71.307 F3000.0
G1 X179.831 Y70.949 F3000.0
G1 X179.088 Y70.567 F3000.0
G1 X178.377 Y70.158 F3000.0
G1 X177.633 Y69.797 F3000.0
G1 X176.904 Y69.428 F3000.0
G1 X176.146 Y69.107 F3000.0
G1 X175.434 Y68.736 F3000.0
G1 X174.685 Y68.423 F3000.0
G1 X173.965 Y68.081 F3000.0
G1 X173.248 Y67.741 F3000.0
G1 X172.498 Y67.461 F3000.0
G1 X171.782 Y67.138 F3000.0
G1 X171.061 Y66.829 F3000.0
G1 X170.336 Y66.533 F3000.0
G1 X169.596 Y66.275 F3000.0
G1 X168.877 Y65.983 F3000.0
G1 X168.143 Y65.728 F3000.0
G1 X167.407 Y65.487 F3000.0
G1 X166.668 Y65.26 F3000.0
G1 X165.951 Y64.991 F3000.0
G1 X165.214 Y64.772 F3000.0
G1 X164.478 Y64.561 F3000.0
G1 X163.73 Y64.388 F3000.0
G1 X163.008 Y64.153 F3000.0
G1 X162.266 Y63.981 F3000.0
G1 X161.534 Y63.785 F3000.0
G1 X160.791 Y63.628 F3000.0
G1 X160.058 Y63.445 F3000.0
G1 X159.309 Y63.327 F3000.0
G1 X158.572 Y63.17 F3000.0
G1 X157.833 Y63.023 F3000.0
G1 X157.085 Y62.922 F3000.0
G1 X156.343 Y62.805 F3000.0
G1 X155.6 Y62.694 F3000.0
G1 X154.849 Y62.635 F3000.0
G1 X154.107 Y62.531 F3000.0
G1 X153.36 Y62.466 F3000.0
G1 X152.613 Y62.401 F3000.0
G1 X151.867 Y62.342 F3000.0
G1 X151.116 Y62.35 F3000.0
G1 X150.369 Y62.31 F3000.0
G1 X149.622 Y62.284 F3000.0
G1 X148.874 Y62.271 F3000.0
G1 X148.126 Y62.271 F3000.0
G1 X147.378 Y62.284 F3000.0
G1 X146.631 Y62.31 F3000.0
G1 X145.884 Y62.35 F3000.0
G1 X145.133 Y62.342 F3000.0
G1 X144.387 Y62.401 F3000.0
G1 X143.64 Y62.466 F3000.0
G1 X142.893 Y62.531 F3000.0
G1 X142.151 Y62.635 F3000.0
G1 X141.4 Y62.694 F3000.0
G1 X140.657 Y62.805 F3000.0
G1 X139.915 Y62.922 F3000.0
G1 X139.167 Y63.023 F3000.0
G1 X138.428 Y63.17 F3000.0
G1 X137.691 Y63.327 F3000.0
G1 X136.942 Y63.445 F3000.0
G1 X136.209 Y63.628 F3000.0
G1 X135.466 Y63.785 F3000.0
G1 X134.734 Y63.981 F3000.0
G1 X133.992 Y64.153 F3000.0
G1 X133.27 Y64.388 F3000.0
G1 X132.522 Y64.561 F3000.0
G1 X131.786 Y64.772 F3000.0
G1 X131.049 Y64.991 F3000.0
G1 X130.332 Y65.26 F3000.0
G1 X129.593 Y65.487 F3000.0
G1 X128.857 Y65.728 F3000.0
G1 X128.123 Y65.983 F3000.0
G1 X127.404 Y66.275 F3000.0
G1 X126.664 Y66.533 F3000.0
G1 X125.939 Y66.829 F3000.0
G1 X125.218 Y67.138 F3000.0
G1 X124.502 Y67.461 F3000.0
G1 X123.752 Y67.741 F3000.0
G1 X123.035 Y68.081 F3000.0
G1 X122.315 Y68.423 F3000.0
G1 X121.566 Y68.736 F3000.0
G1 X120.854 Y69.107 F3000.0
G1 X120.096 Y69.428 F3000.0
G1 X119.367 Y69.797 F3000.0
G1 X118.623 Y70.158 F3000.0
G1 X117.912 Y70.567 F3000.0
G1 X117.169 Y70.949 F3000.0
G1 X116.391 Y71.307 F3000.0
G1 X115.647 Y71.713 F3000.0
G1 X114.887 Y72.115 F3000.0
G1 X114.119 Y72.522 F3000.0
G1 X113.36 Y72.949 F3000.0
G1 X112.583 Y73.374 F3000.0
G1 X111.79 Y73.799 F3000.0
G1 X111.0 Y74.242 F3000.0
G1 X110.194 Y74.686 F3000.0
G1 X109.36 Y75.125 F3000.0
G1 X108.551 Y75.6 F3000.0
G1 X107.692 Y76.054 F3000.0
G1 X106.836 Y76.531 F3000.0
G1 X105.918 Y76.984 F3000.0
G1 X104.992 Y77.453 F3000.0
G1 X104.057 Y77.939 F3000.0
G1 X103.092 Y78.429 F3000.0
G1 X102.095 Y78.925 F3000.0
G1 X101.054 Y79.422 F3000.0
G1 X99.969 Y79.923 F3000.0
G1 X98.838 Y80.431 F3000.0
G1 X97.675 Y80.953 F3000.0
G1 X96.441 Y81.475 F3000.0
G1 X95.148 Y82.007 F3000.0
G1 X93.783 Y82.546 F3000.0
G1 X92.371 Y83.106 F3000.0
G1 X90.823 Y83.657 F3000.0
G1 X89.202 Y84.23 F3000.0
G1 X87.461 Y84.812 F3000.0
G1 X85.634 Y85.422 F3000.0
G1 X83.647 Y86.042 F3000.0
G1 X81.495 Y86.679 F3000.0
G1 X79.212 Y87.352 F3000.0
G1 X76.768 Y88.061 F3000.0
G1 X74.167 Y88.814 F3000.0
G1 X71.36 Y89.612 F3000.0
G1 X68.346 Y90.465 F3000.0
G1 X65.177 Y91.391 F3000.0
G1 X61.916 Y92.41 F3000.0
G1 X58.528 Y93.522 F3000.0
G1 X55.127 Y94.745 F3000.0
G1 X51.85 Y96.094 F3000.0
G1 X48.82 Y97.572 F3000.0
G1 X46.216 Y99.176 F3000.0
G1 X44.212 Y100.891 F3000.0
G1 X43.031 Y102.692 F3000.0
G1 X42.71 Y104.537 F3000.0
G1 X43.378 Y106.38 F3000.0
G1 X45.021 Y108.17 F3000.0
G1 X47.542 Y109.863 F3000.0
G1 X50.695 Y111.428 F3000.0
G1 X54.377 Y112.843 F3000.0
G1 X58.379 Y114.1 F3000.0
G1 X62.524 Y115.205 F3000.0
G1 X66.72 Y116.161 F3000.0
G1 X70.801 Y116.993 F3000.0
G1 X74.748 Y117.709 F3000.0
G1 X78.529 Y118.322 F3000.0
G1 X82.087 Y118.854 F3000.0
G1 X85.443 Y119.309 F3000.0
G1 X88.576 Y119.706 F3000.0
G1 X91.523 Y120.044 F3000.0
G1 X94.254 Y120.344 F3000.0
G1 X96.821 Y120.599 F3000.0
G1 X99.226 Y120.82 F3000.0
G1 X101.443 Y121.021 F3000.0
G1 X103.493 Y121.208 F3000.0
G1 X105.447 Y121.361 F3000.0
G1 X107.259 Y121.504 F3000.0
G1 X109.013 Y121.609 F3000.0
G1 X110.586 Y121.735 F3000.0
G1 X112.088 Y121.839 F3000.0
G1 X113.534 Y121.92 F3000.0
G1 X114.863 Y122.01 F3000.0
G1 X116.136 Y122.084 F3000.0
G1 X117.353 Y122.144 F3000.0
G1 X118.492 Y122.208 F3000.0
G1 X119.575 Y122.267 F3000.0
G1 X120.61 Y122.319 F3000.0
G1 X121.612 Y122.356 F3000.0
G1 X122.551 Y122.4 F3000.0
G1 X123.46 Y122.433 F3000.0
G1 X124.306 Y122.481 F3000.0
G1 X125.171 Y122.486 F3000.0
G1 X125.932 Y122.541 F3000.0
G1 X126.707 Y122.558 F3000.0
G1 X127.425 Y122.597 F3000.0
G1 X128.137 Y122.616 F3000.0
G1 X128.843 Y122.617 F3000.0
G1 X129.464 Y122.67 F3000.0
G1 X130.1 Y122.689 F3000.0
G1 X130.712 Y122.711 F3000.0
G1 X131.318 Y122.716 F3000.0
G1 X131.901 Y122.726 F3000.0
G1 X132.443 Y122.76 F3000.0
G1 X133.015 Y122.741 F3000.0
G1 X133.531 Y122.769 F3000.0
G1 X134.043 Y122.784 F3000.0
G1 X134.55 Y122.787 F3000.0
G1 X135.02 Y122.822 F3000.0
G1 X135.505 Y122.82 F3000.0
G1 X135.984 Y122.81 F3000.0
G1 X136.414 Y122.854 F3000.0
G1 X136.864 Y122.855 F3000.0
G1 X137.295 Y122.87 F3000.0
G1 X137.744 Y122.84 F3000.0
G1 X138.162 Y122.846 F3000.0
G1 X138.55 Y122.891 F3000.0
G1 X138.951 Y122.899 F3000.0
G1 X139.349 Y122.903 F3000.0
G1 X139.754 Y122.874 F3000.0
G1 X140.123 Y122.908 F3000.0
G1 X140.511 Y122.887 F3000.0
G1 X140.876 Y122.906 F3000.0
G1 X141.234 Y122.929 F3000.0
G1 X141.609 Y122.898 F3000.0
G1 X141.958 Y122.92 F3000.0
G1 X142.306 Y122.934 F3000.0
G1 X142.653 Y122.943 F3000.0
G1 X142.998 Y122.944 F3000.0
G1 X143.341 Y122.94 F3000.0
G1 X143.682 Y122.929 F3000.0
G1 X144.021 Y122.911 F3000.0
G1 X144.344 Y122.95 F3000.0
G1 X144.672 Y122.957 F3000.0
G1 X145.006 Y122.922 F3000.0
G1 X145.325 Y122.955 F3000.0
G1 X145.652 Y122.933 F3000.0
G1 X145.97 Y122.955 F3000.0
G1 X146.287 Y122.971 F3000.0
G1 X146.607 Y122.957 F3000.0
G1 X146.924 Y122.962 F3000.0
G1 X147.24 Y122.974 F3000.0
G1 X147.558 Y122.93 F3000.0
G1 X147.872 Y122.944 F3000.0
G1 X148.186 Y122.952 F3000.0
G1 X148.5 Y122.955 F3000.0
M5
G0 X0 Y0 ; return home
M5 ; pen up
M2 ; end
