; evenHorizon plotter export
G21 ; mm
G90 ; absolute positioning
; draw feed: 3000.0 mm/min
; travel feed: 5000.0 mm/min
G28 ; home
M5
G0 X184.486 Y117.308 F5000.0
M3 S1000
G4 P50
M5
G0 X183.911 Y115.901 F5000.0
M3 S1000
G4 P50
M5
G0 X182.526 Y117.304 F5000.0
M3 S1000
G4 P50
M5
G0 X181.474 Y112.805 F5000.0
M3 S1000
G4 P50
M5
G0 X181.171 Y112.518 F5000.0
M3 S1000
G4 P50
M5
G0 X181.999 Y109.49 F5000.0
M3 S1000
G4 P50
M5
G0 X176.695 Y109.823 F5000.0
M3 S1000
G4 P50
M5
G0 X176.291 Y109.732 F5000.0
M3 S1000
G4 P50
M5
G0 X176.885 Y111.909 F5000.0
M3 S1000
G4 P50
M5
G0 X176.038 Y116.325 F5000.0
M3 S1000
G4 P50
M5
G0 X173.978 Y116.854 F5000.0
M3 S1000
G4 P50
M5
G0 X177.567 Y119.42 F5000.0
M3 S1000
G4 P50
M5
G0 X177.078 Y121.785 F5000.0
M3 S1000
G4 P50
M5
G0 X171.511 Y122.615 F5000.0
M3 S1000
G4 P50
M5
G0 X171.478 Y123.322 F5000.0
M3 S1000
G4 P50
M5
G0 X170.149 Y123.715 F5000.0
M3 S1000
G4 P50
M5
G0 X168.571 Y123.381 F5000.0
M3 S1000
G4 P50
M5
G0 X167.814 Y121.231 F5000.0
M3 S1000
G4 P50
M5
G0 X168.557 Y120.445 F5000.0
M3 S1000
G4 P50
M5
G0 X167.521 Y119.851 F5000.0
M3 S1000
G4 P50
M5
G0 X167.095 Y119.898 F5000.0
M3 S1000
G4 P50
M5
G0 X166.848 Y120.043 F5000.0
M3 S1000
G4 P50
M5
G0 X167.486 Y119.055 F5000.0
M3 S1000
G4 P50
M5
G0 X166.313 Y117.409 F5000.0
M3 S1000
G4 P50
M5
G0 X165.279 Y117.613 F5000.0
M3 S1000
G4 P50
M5
G0 X165.16 Y118.243 F5000.0
M3 S1000
G4 P50
M5
G0 X165.246 Y119.092 F5000.0
M3 S1000
G4 P50
M5
G0 X165.575 Y119.884 F5000.0
M3 S1000
G4 P50
M5
G0 X165.707 Y120.907 F5000.0
M3 S1000
G4 P50
M5
G0 X163.974 Y121.955 F5000.0
M3 S1000
G4 P50
M5
G0 X163.425 Y121.277 F5000.0
M3 S1000
G4 P50
M5
G0 X163.589 Y119.741 F5000.0
M3 S1000
G4 P50
M5
G0 X163.647 Y119.421 F5000.0
M3 S1000
G4 P50
M5
G0 X162.794 Y119.744 F5000.0
M3 S1000
G4 P50
M5
G0 X162.968 Y118.184 F5000.0
M3 S1000
G4 P50
M5
G0 X162.923 Y117.975 F5000.0
M3 S1000
G4 P50
M5
G0 X162.96 Y117.095 F5000.0
M3 S1000
G4 P50
M5
G0 X161.672 Y116.392 F5000.0
M3 S1000
G4 P50
M5
G0 X160.527 Y116.553 F5000.0
M3 S1000
G4 P50
M5
G0 X159.701 Y117.053 F5000.0
M3 S1000
G4 P50
M5
G0 X160.57 Y117.537 F5000.0
M3 S1000
G4 P50
M5
G0 X159.767 Y118.325 F5000.0
M3 S1000
G4 P50
M5
G0 X159.131 Y118.603 F5000.0
M3 S1000
G4 P50
M5
G0 X158.713 Y118.552 F5000.0
M3 S1000
G4 P50
M5
G0 X158.811 Y119.934 F5000.0
M3 S1000
G4 P50
M5
G0 X158.49 Y120.32 F5000.0
M3 S1000
G4 P50
M5
G0 X158.074 Y121.338 F5000.0
M3 S1000
G4 P50
M5
G0 X157.686 Y121.091 F5000.0
M3 S1000
G4 P50
M5
G0 X157.168 Y121.408 F5000.0
M3 S1000
G4 P50
M5
G0 X156.664 Y121.497 F5000.0
M3 S1000
G4 P50
M5
G0 X155.383 Y121.036 F5000.0
M3 S1000
G4 P50
M5
G0 X154.645 Y120.523 F5000.0
M3 S1000
G4 P50
M5
G0 X154.462 Y120.576 F5000.0
M3 S1000
G4 P50
M5
G0 X154.795 Y120.174 F5000.0
M3 S1000
G4 P50
M5
G0 X154.236 Y121.385 F5000.0
M3 S1000
G4 P50
M5
G0 X154.995 Y123.366 F5000.0
M3 S1000
G4 P50
M5
G0 X153.741 Y125.749 F5000.0
M3 S1000
G4 P50
M5
G0 X154.586 Y126.377 F5000.0
M3 S1000
G4 P50
M5
G0 X156.267 Y127.621 F5000.0
M3 S1000
G4 P50
M5
G0 X157.641 Y127.256 F5000.0
M3 S1000
G4 P50
M5
G0 X156.662 Y125.731 F5000.0
M3 S1000
G4 P50
M5
G0 X158.487 Y125.209 F5000.0
M3 S1000
G4 P50
M5
G0 X158.744 Y125.022 F5000.0
M3 S1000
G4 P50
M5
G0 X158.304 Y124.707 F5000.0
M3 S1000
G4 P50
M5
G0 X157.913 Y123.761 F5000.0
M3 S1000
G4 P50
M5
G0 X158.019 Y122.937 F5000.0
M3 S1000
G4 P50
M5
G0 X159.29 Y122.972 F5000.0
M3 S1000
G4 P50
M5
G0 X159.94 Y123.446 F5000.0
M3 S1000
G4 P50
M5
G0 X159.972 Y123.923 F5000.0
M3 S1000
G4 P50
M5
G0 X159.485 Y124.261 F5000.0
M3 S1000
G4 P50
M5
G0 X159.774 Y124.581 F5000.0
M3 S1000
G4 P50
M5
G0 X161.078 Y124.019 F5000.0
M3 S1000
G4 P50
M5
G0 X162.308 Y122.888 F5000.0
M3 S1000
G4 P50
M5
G0 X163.467 Y123.365 F5000.0
M3 S1000
G4 P50
M5
G0 X164.664 Y123.702 F5000.0
M3 S1000
G4 P50
M5
G0 X165.128 Y123.434 F5000.0
M3 S1000
G4 P50
M5
G0 X164.317 Y124.53 F5000.0
M3 S1000
G4 P50
M5
G0 X162.622 Y125.07 F5000.0
M3 S1000
G4 P50
M5
G0 X162.123 Y125.807 F5000.0
M3 S1000
G4 P50
M5
G0 X160.875 Y126.85 F5000.0
M3 S1000
G4 P50
M5
G0 X159.805 Y128.113 F5000.0
M3 S1000
G4 P50
M5
G0 X159.677 Y128.054 F5000.0
M3 S1000
G4 P50
M5
G0 X161.26 Y128.722 F5000.0
M3 S1000
G4 P50
M5
G0 X163.188 Y127.097 F5000.0
M3 S1000
G4 P50
M5
G0 X160.229 Y121.997 F5000.0
M3 S1000
G4 P50
M5
G0 X161.328 Y120.807 F5000.0
M3 S1000
G4 P50
M5
G0 X158.951 Y116.304 F5000.0
M3 S1000
G4 P50
M5
G0 X158.5 Y114.793 F5000.0
M3 S1000
G4 P50
M5
G0 X157.281 Y115.182 F5000.0
M3 S1000
G4 P50
M5
G0 X156.533 Y116.105 F5000.0
M3 S1000
G4 P50
M5
G0 X156.661 Y117.813 F5000.0
M3 S1000
G4 P50
M5
G0 X156.188 Y118.227 F5000.0
M3 S1000
G4 P50
M5
G0 X156.007 Y117.811 F5000.0
M3 S1000
G4 P50
M5
G0 X154.976 Y117.533 F5000.0
M3 S1000
G4 P50
M5
G0 X154.71 Y116.573 F5000.0
M3 S1000
G4 P50
M5
G0 X154.857 Y114.825 F5000.0
M3 S1000
G4 P50
M5
G0 X154.118 Y114.414 F5000.0
M3 S1000
G4 P50
M5
G0 X153.748 Y112.909 F5000.0
M3 S1000
G4 P50
M5
G0 X154.268 Y111.567 F5000.0
M3 S1000
G4 P50
M5
G0 X154.525 Y110.858 F5000.0
M3 S1000
G4 P50
M5
G0 X154.999 Y111.248 F5000.0
M3 S1000
G4 P50
M5
G0 X155.695 Y110.818 F5000.0
M3 S1000
G4 P50
M5
G0 X156.24 Y112.12 F5000.0
M3 S1000
G4 P50
M5
G0 X157.267 Y113.984 F5000.0
M3 S1000
G4 P50
M5
G0 X158.179 Y110.696 F5000.0
M3 S1000
G4 P50
M5
G0 X159.82 Y111.177 F5000.0
M3 S1000
G4 P50
M5
G0 X161.402 Y110.254 F5000.0
M3 S1000
G4 P50
M5
G0 X161.624 Y109.459 F5000.0
M3 S1000
G4 P50
M5
G0 X162.049 Y108.402 F5000.0
M3 S1000
G4 P50
M5
G0 X162.457 Y107.789 F5000.0
M3 S1000
G4 P50
M5
G0 X163.329 Y108.524 F5000.0
M3 S1000
G4 P50
M5
G0 X163.068 Y108.806 F5000.0
M3 S1000
G4 P50
M5
G0 X164.148 Y109.308 F5000.0
M3 S1000
G4 P50
M5
G0 X164.744 Y108.657 F5000.0
M3 S1000
G4 P50
M5
G0 X164.8 Y108.572 F5000.0
M3 S1000
G4 P50
M5
G0 X165.528 Y109.215 F5000.0
M3 S1000
G4 P50
M5
G0 X165.892 Y109.263 F5000.0
M3 S1000
G4 P50
M5
G0 X166.065 Y109.54 F5000.0
M3 S1000
G4 P50
M5
G0 X166.384 Y109.552 F5000.0
M3 S1000
G4 P50
M5
G0 X166.341 Y109.371 F5000.0
M3 S1000
G4 P50
M5
G0 X166.798 Y109.698 F5000.0
M3 S1000
G4 P50
M5
G0 X166.567 Y110.128 F5000.0
M3 S1000
G4 P50
M5
G0 X167.405 Y111.046 F5000.0
M3 S1000
G4 P50
M5
G0 X167.492 Y111.819 F5000.0
M3 S1000
G4 P50
M5
G0 X166.268 Y112.01 F5000.0
M3 S1000
G4 P50
M5
G0 X166.239 Y111.959 F5000.0
M3 S1000
G4 P50
M5
G0 X166.244 Y112.164 F5000.0
M3 S1000
G4 P50
M5
G0 X166.062 Y112.552 F5000.0
M3 S1000
G4 P50
M5
G0 X165.779 Y113.192 F5000.0
M3 S1000
G4 P50
M5
G0 X164.905 Y114.01 F5000.0
M3 S1000
G4 P50
M5
G0 X164.651 Y113.949 F5000.0
M3 S1000
G4 P50
M5
G0 X164.288 Y113.7 F5000.0
M3 S1000
G4 P50
M5
G0 X163.293 Y112.538 F5000.0
M3 S1000
G4 P50
M5
G0 X163.169 Y112.227 F5000.0
M3 S1000
G4 P50
M5
G0 X163.32 Y110.698 F5000.0
M3 S1000
G4 P50
M5
G0 X165.863 Y108.55 F5000.0
M3 S1000
G4 P50
M5
G0 X164.687 Y107.532 F5000.0
M3 S1000
G4 P50
M5
G0 X164.089 Y106.989 F5000.0
M3 S1000
G4 P50
M5
G0 X163.283 Y106.976 F5000.0
M3 S1000
G4 P50
M5
G0 X163.132 Y106.099 F5000.0
M3 S1000
G4 P50
M5
G0 X162.906 Y105.845 F5000.0
M3 S1000
G4 P50
M5
G0 X162.797 Y105.804 F5000.0
M3 S1000
G4 P50
M5
G0 X162.627 Y105.793 F5000.0
M3 S1000
G4 P50
M5
G0 X162.636 Y105.693 F5000.0
M3 S1000
G4 P50
M5
G0 X162.459 Y105.616 F5000.0
M3 S1000
G4 P50
M5
G0 X162.454 Y105.511 F5000.0
M3 S1000
G4 P50
M5
G0 X162.433 Y105.42 F5000.0
M3 S1000
G4 P50
M5
G0 X162.109 Y105.222 F5000.0
M3 S1000
G4 P50
M5
G0 X162.018 Y105.085 F5000.0
M3 S1000
G4 P50
M5
G0 X161.785 Y105.002 F5000.0
M3 S1000
G4 P50
M5
G0 X161.484 Y104.818 F5000.0
M3 S1000
G4 P50
M5
G0 X161.443 Y104.693 F5000.0
M3 S1000
G4 P50
M5
G0 X161.547 Y104.534 F5000.0
M3 S1000
G4 P50
M5
G0 X161.584 Y104.473 F5000.0
M3 S1000
G4 P50
M5
G0 X161.32 Y104.238 F5000.0
M3 S1000
G4 P50
M5
G0 X161.258 Y104.123 F5000.0
M3 S1000
G4 P50
M5
G0 X161.27 Y104.115 F5000.0
M3 S1000
G4 P50
M5
G0 X161.227 Y103.896 F5000.0
M3 S1000
G4 P50
M5
G0 X161.166 Y103.825 F5000.0
M3 S1000
G4 P50
M5
G0 X161.048 Y103.634 F5000.0
M3 S1000
G4 P50
M5
G0 X160.985 Y103.416 F5000.0
M3 S1000
G4 P50
M5
G0 X160.896 Y103.339 F5000.0
M3 S1000
G4 P50
M5
G0 X160.897 Y103.249 F5000.0
M3 S1000
G4 P50
M5
G0 X160.792 Y103.352 F5000.0
M3 S1000
G4 P50
M5
G0 X160.627 Y102.935 F5000.0
M3 S1000
G4 P50
M5
G0 X160.628 Y102.926 F5000.0
M3 S1000
G4 P50
M5
G0 X160.725 Y102.823 F5000.0
M3 S1000
G4 P50
M5
G0 X160.714 Y102.729 F5000.0
M3 S1000
G4 P50
M5
G0 X160.556 Y102.426 F5000.0
M3 S1000
G4 P50
M5
G0 X160.557 Y102.342 F5000.0
M3 S1000
G4 P50
M5
G0 X160.573 Y102.339 F5000.0
M3 S1000
G4 P50
M5
G0 X160.533 Y102.251 F5000.0
M3 S1000
G4 P50
M5
G0 X160.458 Y102.249 F5000.0
M3 S1000
G4 P50
M5
G0 X160.436 Y102.175 F5000.0
M3 S1000
G4 P50
M5
G0 X160.392 Y102.106 F5000.0
M3 S1000
G4 P50
M5
G0 X160.455 Y102.022 F5000.0
M3 S1000
G4 P50
M5
G0 X160.227 Y102.056 F5000.0
M3 S1000
G4 P50
M5
G0 X160.233 Y101.728 F5000.0
M3 S1000
G4 P50
M5
G0 X160.269 Y101.575 F5000.0
M3 S1000
G4 P50
M5
G0 X160.188 Y101.402 F5000.0
M3 S1000
G4 P50
M5
G0 X160.057 Y101.047 F5000.0
M3 S1000
G4 P50
M5
G0 X159.981 Y100.989 F5000.0
M3 S1000
G4 P50
M5
G0 X160.0 Y100.865 F5000.0
M3 S1000
G4 P50
M5
G0 X159.975 Y100.851 F5000.0
M3 S1000
G4 P50
M5
G0 X159.836 Y100.636 F5000.0
M3 S1000
G4 P50
M5
G0 X159.794 Y100.658 F5000.0
M3 S1000
G4 P50
M5
G0 X159.842 Y100.489 F5000.0
M3 S1000
G4 P50
M5
G0 X159.755 Y100.372 F5000.0
M3 S1000
G4 P50
M5
G0 X159.519 Y99.873 F5000.0
M3 S1000
G4 P50
M5
G0 X159.446 Y99.81 F5000.0
M3 S1000
G4 P50
M5
G0 X159.349 Y99.655 F5000.0
M3 S1000
G4 P50
M5
G0 X159.392 Y99.597 F5000.0
M3 S1000
G4 P50
M5
G0 X159.106 Y99.448 F5000.0
M3 S1000
G4 P50
M5
G0 X159.088 Y99.222 F5000.0
M3 S1000
G4 P50
M5
G0 X158.984 Y99.214 F5000.0
M3 S1000
G4 P50
M5
G0 X158.88 Y98.892 F5000.0
M3 S1000
G4 P50
M5
G0 X158.973 Y98.849 F5000.0
M3 S1000
G4 P50
M5
G0 X158.74 Y98.801 F5000.0
M3 S1000
G4 P50
M5
G0 X158.433 Y98.273 F5000.0
M3 S1000
G4 P50
M5
G0 X158.506 Y98.2 F5000.0
M3 S1000
G4 P50
M5
G0 X158.235 Y97.794 F5000.0
M3 S1000
G4 P50
M5
G0 X158.126 Y97.631 F5000.0
M3 S1000
G4 P50
M5
G0 X158.099 Y97.608 F5000.0
M3 S1000
G4 P50
M5
G0 X158.016 Y97.74 F5000.0
M3 S1000
G4 P50
M5
G0 X157.978 Y97.443 F5000.0
M3 S1000
G4 P50
M5
G0 X157.849 Y97.441 F5000.0
M3 S1000
G4 P50
M5
G0 X157.776 Y97.242 F5000.0
M3 S1000
G4 P50
M5
G0 X157.772 Y97.208 F5000.0
M3 S1000
G4 P50
M5
G0 X157.667 Y97.076 F5000.0
M3 S1000
G4 P50
M5
G0 X157.641 Y97.094 F5000.0
M3 S1000
G4 P50
M5
G0 X157.624 Y97.047 F5000.0
M3 S1000
G4 P50
M5
G0 X157.439 Y96.855 F5000.0
M3 S1000
G4 P50
M5
G0 X157.433 Y96.819 F5000.0
M3 S1000
G4 P50
M5
G0 X157.388 Y96.783 F5000.0
M3 S1000
G4 P50
M5
G0 X157.36 Y96.849 F5000.0
M3 S1000
G4 P50
M5
G0 X157.338 Y96.938 F5000.0
M3 S1000
G4 P50
M5
G0 X157.167 Y96.669 F5000.0
M3 S1000
G4 P50
M5
G0 X157.212 Y96.631 F5000.0
M3 S1000
G4 P50
M5
G0 X157.113 Y96.625 F5000.0
M3 S1000
G4 P50
M5
G0 X157.121 Y96.557 F5000.0
M3 S1000
G4 P50
M5
G0 X156.921 Y96.371 F5000.0
M3 S1000
G4 P50
M5
G0 X156.918 Y96.317 F5000.0
M3 S1000
G4 P50
M5
G0 X156.722 Y96.152 F5000.0
M3 S1000
G4 P50
M5
G0 X156.433 Y95.968 F5000.0
M3 S1000
G4 P50
M5
G0 X156.378 Y95.866 F5000.0
M3 S1000
G4 P50
M5
G0 X156.301 Y95.775 F5000.0
M3 S1000
G4 P50
M5
G0 X156.143 Y95.622 F5000.0
M3 S1000
G4 P50
M5
G0 X156.118 Y95.612 F5000.0
M3 S1000
G4 P50
M5
G0 X155.938 Y95.482 F5000.0
M3 S1000
G4 P50
M5
G0 X155.57 Y95.226 F5000.0
M3 S1000
G4 P50
M5
G0 X155.364 Y95.058 F5000.0
M3 S1000
G4 P50
M5
G0 X155.366 Y95.05 F5000.0
M3 S1000
G4 P50
M5
G0 X155.217 Y95.058 F5000.0
M3 S1000
G4 P50
M5
G0 X155.153 Y94.974 F5000.0
M3 S1000
G4 P50
M5
G0 X155.171 Y94.913 F5000.0
M3 S1000
G4 P50
M5
G0 X155.046 Y94.882 F5000.0
M3 S1000
G4 P50
M5
G0 X154.872 Y94.726 F5000.0
M3 S1000
G4 P50
M5
G0 X154.673 Y94.656 F5000.0
M3 S1000
G4 P50
M5
G0 X154.608 Y94.575 F5000.0
M3 S1000
G4 P50
M5
G0 X154.499 Y94.594 F5000.0
M3 S1000
G4 P50
M5
G0 X154.49 Y94.508 F5000.0
M3 S1000
G4 P50
M5
G0 X154.489 Y94.498 F5000.0
M3 S1000
G4 P50
M5
G0 X154.202 Y94.374 F5000.0
M3 S1000
G4 P50
M5
G0 X154.143 Y94.318 F5000.0
M3 S1000
G4 P50
M5
G0 X154.038 Y94.282 F5000.0
M3 S1000
G4 P50
M5
G0 X153.92 Y94.197 F5000.0
M3 S1000
G4 P50
M5
G0 X153.396 Y94.021 F5000.0
M3 S1000
G4 P50
M5
G0 X153.159 Y93.891 F5000.0
M3 S1000
G4 P50
M5
G0 X153.126 Y93.848 F5000.0
M3 S1000
G4 P50
M5
G0 X152.944 Y93.774 F5000.0
M3 S1000
G4 P50
M5
G0 X152.846 Y93.821 F5000.0
M3 S1000
G4 P50
M5
G0 X152.816 Y93.724 F5000.0
M3 S1000
G4 P50
M5
G0 X152.682 Y93.775 F5000.0
M3 S1000
G4 P50
M5
G0 X152.528 Y93.61 F5000.0
M3 S1000
G4 P50
M5
G0 X152.49 Y93.603 F5000.0
M3 S1000
G4 P50
M5
G0 X152.188 Y93.512 F5000.0
M3 S1000
G4 P50
M5
G0 X151.97 Y93.453 F5000.0
M3 S1000
G4 P50
M5
G0 X151.436 Y93.336 F5000.0
M3 S1000
G4 P50
M5
G0 X150.95 Y93.183 F5000.0
M3 S1000
G4 P50
M5
G0 X150.917 Y93.222 F5000.0
M3 S1000
G4 P50
M5
G0 X150.917 Y93.317 F5000.0
M3 S1000
G4 P50
M5
G0 X150.719 Y93.298 F5000.0
M3 S1000
G4 P50
M5
G0 X150.52 Y93.256 F5000.0
M3 S1000
G4 P50
M5
G0 X150.557 Y93.105 F5000.0
M3 S1000
G4 P50
M5
G0 X150.514 Y93.098 F5000.0
M3 S1000
G4 P50
M5
G0 X150.279 Y93.134 F5000.0
M3 S1000
G4 P50
M5
G0 X150.342 Y93.27 F5000.0
M3 S1000
G4 P50
M5
G0 X150.009 Y93.033 F5000.0
M3 S1000
G4 P50
M5
G0 X149.884 Y93.017 F5000.0
M3 S1000
G4 P50
M5
G0 X149.717 Y93.165 F5000.0
M3 S1000
G4 P50
M5
G0 X149.359 Y93.026 F5000.0
M3 S1000
G4 P50
M5
G0 X149.064 Y92.986 F5000.0
M3 S1000
G4 P50
M5
G0 X149.019 Y93.019 F5000.0
M3 S1000
G4 P50
M5
G0 X148.943 Y92.961 F5000.0
M3 S1000
G4 P50
M5
G0 X148.498 Y92.947 F5000.0
M3 S1000
G4 P50
M5
G0 X148.419 Y92.93 F5000.0
M3 S1000
G4 P50
M5
G0 X148.288 Y92.943 F5000.0
M3 S1000
G4 P50
M5
G0 X148.003 Y92.972 F5000.0
M3 S1000
G4 P50
M5
G0 X147.848 Y92.957 F5000.0
M3 S1000
G4 P50
M5
G0 X147.816 Y92.945 F5000.0
M3 S1000
G4 P50
M5
G0 X147.67 Y93.045 F5000.0
M3 S1000
G4 P50
M5
G0 X147.625 Y92.958 F5000.0
M3 S1000
G4 P50
M5
G0 X147.607 Y92.965 F5000.0
M3 S1000
G4 P50
M5
G0 X147.187 Y93.026 F5000.0
M3 S1000
G4 P50
M5
G0 X147.092 Y93.016 F5000.0
M3 S1000
G4 P50
M5
G0 X147.027 Y93.063 F5000.0
M3 S1000
G4 P50
M5
G0 X146.84 Y93.076 F5000.0
M3 S1000
G4 P50
M5
G0 X146.575 Y93.125 F5000.0
M3 S1000
G4 P50
M5
G0 X146.339 Y93.154 F5000.0
M3 S1000
G4 P50
M5
G0 X146.288 Y93.131 F5000.0
M3 S1000
G4 P50
M5
G0 X146.116 Y93.23 F5000.0
M3 S1000
G4 P50
M5
G0 X146.019 Y93.201 F5000.0
M3 S1000
G4 P50
M5
G0 X145.904 Y93.215 F5000.0
M3 S1000
G4 P50
M5
G0 X145.829 Y93.222 F5000.0
M3 S1000
G4 P50
M5
G0 X145.493 Y93.33 F5000.0
M3 S1000
G4 P50
M5
G0 X145.431 Y93.315 F5000.0
M3 S1000
G4 P50
M5
G0 X145.34 Y93.387 F5000.0
M3 S1000
G4 P50
M5
G0 X145.181 Y93.49 F5000.0
M3 S1000
G4 P50
M5
G0 X145.181 Y93.535 F5000.0
M3 S1000
G4 P50
M5
G0 X145.034 Y93.429 F5000.0
M3 S1000
G4 P50
M5
G0 X144.884 Y93.556 F5000.0
M3 S1000
G4 P50
M5
G0 X144.82 Y93.593 F5000.0
M3 S1000
G4 P50
M5
G0 X144.708 Y93.55 F5000.0
M3 S1000
G4 P50
M5
G0 X144.577 Y93.627 F5000.0
M3 S1000
G4 P50
M5
G0 X144.487 Y93.639 F5000.0
M3 S1000
G4 P50
M5
G0 X144.076 Y93.766 F5000.0
M3 S1000
G4 P50
M5
G0 X143.939 Y93.817 F5000.0
M3 S1000
G4 P50
M5
G0 X143.942 Y93.869 F5000.0
M3 S1000
G4 P50
M5
G0 X143.834 Y93.906 F5000.0
M3 S1000
G4 P50
M5
G0 X143.745 Y93.954 F5000.0
M3 S1000
G4 P50
M5
G0 X143.39 Y94.068 F5000.0
M3 S1000
G4 P50
M5
G0 X143.391 Y94.106 F5000.0
M3 S1000
G4 P50
M5
G0 X143.073 Y94.205 F5000.0
M3 S1000
G4 P50
M5
G0 X142.328 Y94.607 F5000.0
M3 S1000
G4 P50
M5
G0 X141.923 Y94.893 F5000.0
M3 S1000
G4 P50
M5
G0 X141.722 Y94.988 F5000.0
M3 S1000
G4 P50
M5
G0 X141.439 Y95.204 F5000.0
M3 S1000
G4 P50
M5
G0 X141.488 Y95.261 F5000.0
M3 S1000
G4 P50
M5
G0 X141.344 Y95.271 F5000.0
M3 S1000
G4 P50
M5
G0 X141.331 Y95.261 F5000.0
M3 S1000
G4 P50
M5
G0 X141.22 Y95.347 F5000.0
M3 S1000
G4 P50
M5
G0 X141.142 Y95.465 F5000.0
M3 S1000
G4 P50
M5
G0 X141.057 Y95.543 F5000.0
M3 S1000
G4 P50
M5
G0 X141.068 Y95.554 F5000.0
M3 S1000
G4 P50
M5
G0 X141.027 Y95.533 F5000.0
M3 S1000
G4 P50
M5
G0 X141.182 Y95.604 F5000.0
M3 S1000
G4 P50
M5
G0 X141.354 Y95.416 F5000.0
M3 S1000
G4 P50
M5
G0 X140.865 Y95.843 F5000.0
M3 S1000
G4 P50
M5
G0 X140.625 Y95.821 F5000.0
M3 S1000
G4 P50
M5
G0 X140.559 Y95.869 F5000.0
M3 S1000
G4 P50
M5
G0 X140.642 Y95.935 F5000.0
M3 S1000
G4 P50
M5
G0 X140.526 Y95.998 F5000.0
M3 S1000
G4 P50
M5
G0 X140.296 Y96.112 F5000.0
M3 S1000
G4 P50
M5
G0 X140.279 Y96.116 F5000.0
M3 S1000
G4 P50
M5
G0 X140.158 Y96.308 F5000.0
M3 S1000
G4 P50
M5
G0 X140.154 Y96.389 F5000.0
M3 S1000
G4 P50
M5
G0 X140.092 Y96.361 F5000.0
M3 S1000
G4 P50
M5
G0 X140.071 Y96.323 F5000.0
M3 S1000
G4 P50
M5
G0 X140.102 Y96.471 F5000.0
M3 S1000
G4 P50
M5
G0 X140.132 Y96.545 F5000.0
M3 S1000
G4 P50
M5
G0 X140.166 Y96.544 F5000.0
M3 S1000
G4 P50
M5
G0 X139.904 Y96.495 F5000.0
M3 S1000
G4 P50
M5
G0 X139.882 Y96.535 F5000.0
M3 S1000
G4 P50
M5
G0 X139.849 Y96.569 F5000.0
M3 S1000
G4 P50
M5
G0 X139.899 Y96.718 F5000.0
M3 S1000
G4 P50
M5
G0 X139.763 Y96.824 F5000.0
M3 S1000
G4 P50
M5
G0 X139.488 Y97.045 F5000.0
M3 S1000
G4 P50
M5
G0 X139.254 Y97.361 F5000.0
M3 S1000
G4 P50
M5
G0 X138.83 Y97.75 F5000.0
M3 S1000
G4 P50
M5
G0 X138.868 Y97.815 F5000.0
M3 S1000
G4 P50
M5
G0 X138.853 Y97.99 F5000.0
M3 S1000
G4 P50
M5
G0 X138.61 Y98.003 F5000.0
M3 S1000
G4 P50
M5
G0 X138.604 Y98.056 F5000.0
M3 S1000
G4 P50
M5
G0 X138.562 Y98.14 F5000.0
M3 S1000
G4 P50
M5
G0 X138.551 Y98.155 F5000.0
M3 S1000
G4 P50
M5
G0 X138.267 Y98.466 F5000.0
M3 S1000
G4 P50
M5
G0 X138.114 Y98.746 F5000.0
M3 S1000
G4 P50
M5
G0 X138.038 Y98.955 F5000.0
M3 S1000
G4 P50
M5
G0 X138.071 Y98.967 F5000.0
M3 S1000
G4 P50
M5
G0 X138.088 Y99.057 F5000.0
M3 S1000
G4 P50
M5
G0 X138.068 Y99.065 F5000.0
M3 S1000
G4 P50
M5
G0 X138.111 Y99.073 F5000.0
M3 S1000
G4 P50
M5
G0 X138.179 Y98.991 F5000.0
M3 S1000
G4 P50
M5
G0 X138.141 Y99.186 F5000.0
M3 S1000
G4 P50
M5
G0 X138.099 Y99.183 F5000.0
M3 S1000
G4 P50
M5
G0 X137.918 Y99.103 F5000.0
M3 S1000
G4 P50
M5
G0 X137.732 Y99.361 F5000.0
M3 S1000
G4 P50
M5
G0 X137.747 Y99.426 F5000.0
M3 S1000
G4 P50
M5
G0 X137.907 Y99.446 F5000.0
M3 S1000
G4 P50
M5
G0 X137.452 Y100.032 F5000.0
M3 S1000
G4 P50
M5
G0 X137.42 Y100.03 F5000.0
M3 S1000
G4 P50
M5
G0 X137.209 Y100.478 F5000.0
M3 S1000
G4 P50
M5
G0 X137.155 Y100.546 F5000.0
M3 S1000
G4 P50
M5
G0 X137.015 Y100.943 F5000.0
M3 S1000
G4 P50
M5
G0 X137.062 Y100.966 F5000.0
M3 S1000
G4 P50
M5
G0 X136.939 Y101.016 F5000.0
M3 S1000
G4 P50
M5
G0 X136.935 Y101.046 F5000.0
M3 S1000
G4 P50
M5
G0 X136.932 Y101.087 F5000.0
M3 S1000
G4 P50
M5
G0 X136.916 Y101.14 F5000.0
M3 S1000
G4 P50
M5
G0 X136.932 Y101.192 F5000.0
M3 S1000
G4 P50
M5
G0 X136.77 Y101.526 F5000.0
M3 S1000
G4 P50
M5
G0 X136.743 Y101.568 F5000.0
M3 S1000
G4 P50
M5
G0 X136.683 Y101.685 F5000.0
M3 S1000
G4 P50
M5
G0 X136.698 Y101.745 F5000.0
M3 S1000
G4 P50
M5
G0 X136.725 Y101.76 F5000.0
M3 S1000
G4 P50
M5
G0 X136.754 Y101.738 F5000.0
M3 S1000
G4 P50
M5
G0 X136.8 Y101.959 F5000.0
M3 S1000
G4 P50
M5
G0 X136.587 Y101.9 F5000.0
M3 S1000
G4 P50
M5
G0 X136.556 Y102.001 F5000.0
M3 S1000
G4 P50
M5
G0 X136.571 Y102.005 F5000.0
M3 S1000
G4 P50
M5
G0 X136.491 Y102.159 F5000.0
M3 S1000
G4 P50
M5
G0 X136.566 Y102.19 F5000.0
M3 S1000
G4 P50
M5
G0 X136.533 Y102.295 F5000.0
M3 S1000
G4 P50
M5
G0 X136.559 Y102.351 F5000.0
M3 S1000
G4 P50
M5
G0 X136.639 Y102.393 F5000.0
M3 S1000
G4 P50
M5
G0 X136.433 Y102.333 F5000.0
M3 S1000
G4 P50
M5
G0 X136.196 Y102.979 F5000.0
M3 S1000
G4 P50
M5
G0 X136.18 Y103.01 F5000.0
M3 S1000
G4 P50
M5
G0 X136.145 Y103.506 F5000.0
M3 S1000
G4 P50
M5
G0 X136.396 Y103.837 F5000.0
M3 S1000
G4 P50
M5
G0 X135.798 Y104.006 F5000.0
M3 S1000
G4 P50
M5
G0 X135.789 Y104.102 F5000.0
M3 S1000
G4 P50
M5
G0 X135.525 Y104.417 F5000.0
M3 S1000
G4 P50
M5
G0 X135.581 Y104.954 F5000.0
M3 S1000
G4 P50
M5
G0 X135.108 Y104.816 F5000.0
M3 S1000
G4 P50
M5
G0 X134.917 Y105.107 F5000.0
M3 S1000
G4 P50
M5
G0 X134.98 Y105.375 F5000.0
M3 S1000
G4 P50
M5
G0 X134.624 Y105.377 F5000.0
M3 S1000
G4 P50
M5
G0 X134.512 Y105.456 F5000.0
M3 S1000
G4 P50
M5
G0 X134.708 Y105.685 F5000.0
M3 S1000
G4 P50
M5
G0 X134.63 Y105.756 F5000.0
M3 S1000
G4 P50
M5
G0 X134.636 Y105.827 F5000.0
M3 S1000
G4 P50
M5
G0 X134.846 Y105.865 F5000.0
M3 S1000
G4 P50
M5
G0 X133.811 Y106.412 F5000.0
M3 S1000
G4 P50
M5
G0 X133.564 Y106.358 F5000.0
M3 S1000
G4 P50
M5
G0 X132.911 Y106.875 F5000.0
M3 S1000
G4 P50
M5
G0 X133.185 Y107.18 F5000.0
M3 S1000
G4 P50
M5
G0 X132.611 Y107.27 F5000.0
M3 S1000
G4 P50
M5
G0 X132.403 Y107.378 F5000.0
M3 S1000
G4 P50
M5
G0 X132.1 Y108.182 F5000.0
M3 S1000
G4 P50
M5
G0 X132.023 Y108.621 F5000.0
M3 S1000
G4 P50
M5
G0 X131.7 Y108.694 F5000.0
M3 S1000
G4 P50
M5
G0 X133.016 Y108.587 F5000.0
M3 S1000
G4 P50
M5
G0 X133.454 Y108.858 F5000.0
M3 S1000
G4 P50
M5
G0 X133.916 Y108.35 F5000.0
M3 S1000
G4 P50
M5
G0 X135.037 Y108.499 F5000.0
M3 S1000
G4 P50
M5
G0 X135.143 Y109.48 F5000.0
M3 S1000
G4 P50
M5
G0 X133.156 Y111.037 F5000.0
M3 S1000
G4 P50
M5
G0 X133.685 Y112.008 F5000.0
M3 S1000
G4 P50
M5
G0 X134.15 Y113.311 F5000.0
M3 S1000
G4 P50
M5
G0 X135.231 Y112.667 F5000.0
M3 S1000
G4 P50
M5
G0 X136.238 Y113.436 F5000.0
M3 S1000
G4 P50
M5
G0 X136.346 Y113.39 F5000.0
M3 S1000
G4 P50
M5
G0 X135.253 Y114.941 F5000.0
M3 S1000
G4 P50
M5
G0 X134.982 Y115.134 F5000.0
M3 S1000
G4 P50
M5
G0 X134.378 Y114.909 F5000.0
M3 S1000
G4 P50
M5
G0 X132.974 Y115.16 F5000.0
M3 S1000
G4 P50
M5
G0 X132.748 Y116.064 F5000.0
M3 S1000
G4 P50
M5
G0 X133.705 Y116.892 F5000.0
M3 S1000
G4 P50
M5
G0 X133.927 Y116.749 F5000.0
M3 S1000
G4 P50
M5
G0 X133.624 Y117.831 F5000.0
M3 S1000
G4 P50
M5
G0 X133.953 Y118.835 F5000.0
M3 S1000
G4 P50
M5
G0 X134.427 Y118.925 F5000.0
M3 S1000
G4 P50
M5
G0 X134.028 Y119.37 F5000.0
M3 S1000
G4 P50
M5
G0 X135.181 Y119.285 F5000.0
M3 S1000
G4 P50
M5
G0 X135.342 Y119.167 F5000.0
M3 S1000
G4 P50
M5
G0 X135.197 Y117.637 F5000.0
M3 S1000
G4 P50
M5
G0 X134.955 Y117.472 F5000.0
M3 S1000
G4 P50
M5
G0 X135.551 Y116.866 F5000.0
M3 S1000
G4 P50
M5
G0 X136.252 Y117.378 F5000.0
M3 S1000
G4 P50
M5
G0 X136.704 Y116.586 F5000.0
M3 S1000
G4 P50
M5
G0 X136.697 Y116.502 F5000.0
M3 S1000
G4 P50
M5
G0 X139.219 Y116.829 F5000.0
M3 S1000
G4 P50
M5
G0 X138.858 Y118.376 F5000.0
M3 S1000
G4 P50
M5
G0 X138.552 Y118.526 F5000.0
M3 S1000
G4 P50
M5
G0 X137.61 Y120.341 F5000.0
M3 S1000
G4 P50
M5
G0 X138.814 Y121.394 F5000.0
M3 S1000
G4 P50
M5
G0 X139.921 Y122.065 F5000.0
M3 S1000
G4 P50
M5
G0 X140.121 Y120.853 F5000.0
M3 S1000
G4 P50
M5
G0 X141.579 Y121.609 F5000.0
M3 S1000
G4 P50
M5
G0 X141.734 Y121.435 F5000.0
M3 S1000
G4 P50
M5
G0 X141.78 Y121.478 F5000.0
M3 S1000
G4 P50
M5
G0 X142.382 Y120.535 F5000.0
M3 S1000
G4 P50
M5
G0 X142.217 Y118.443 F5000.0
M3 S1000
G4 P50
M5
G0 X141.777 Y118.517 F5000.0
M3 S1000
G4 P50
M5
G0 X141.144 Y117.747 F5000.0
M3 S1000
G4 P50
M5
G0 X140.974 Y117.351 F5000.0
M3 S1000
G4 P50
M5
G0 X141.466 Y115.81 F5000.0
M3 S1000
G4 P50
M5
G0 X140.258 Y115.441 F5000.0
M3 S1000
G4 P50
M5
G0 X139.93 Y113.805 F5000.0
M3 S1000
G4 P50
M5
G0 X140.626 Y113.205 F5000.0
M3 S1000
G4 P50
M5
G0 X141.86 Y113.605 F5000.0
M3 S1000
G4 P50
M5
G0 X142.393 Y112.759 F5000.0
M3 S1000
G4 P50
M5
G0 X142.422 Y111.862 F5000.0
M3 S1000
G4 P50
M5
G0 X143.263 Y111.656 F5000.0
M3 S1000
G4 P50
M5
G0 X144.311 Y110.818 F5000.0
M3 S1000
G4 P50
M5
G0 X143.809 Y110.412 F5000.0
M3 S1000
G4 P50
M5
G0 X143.597 Y110.059 F5000.0
M3 S1000
G4 P50
M5
G0 X142.731 Y109.766 F5000.0
M3 S1000
G4 P50
M5
G0 X141.614 Y108.93 F5000.0
M3 S1000
G4 P50
M5
G0 X141.041 Y109.243 F5000.0
M3 S1000
G4 P50
M5
G0 X141.293 Y110.376 F5000.0
M3 S1000
G4 P50
M5
G0 X141.726 Y110.979 F5000.0
M3 S1000
G4 P50
M5
G0 X142.601 Y108.365 F5000.0
M3 S1000
G4 P50
M5
G0 X142.298 Y108.252 F5000.0
M3 S1000
G4 P50
M5
G0 X143.169 Y108.104 F5000.0
M3 S1000
G4 P50
M5
G0 X143.66 Y107.707 F5000.0
M3 S1000
G4 P50
M5
G0 X144.319 Y108.038 F5000.0
M3 S1000
G4 P50
M5
G0 X144.813 Y108.551 F5000.0
M3 S1000
G4 P50
M5
G0 X145.422 Y109.128 F5000.0
M3 S1000
G4 P50
M5
G0 X145.715 Y108.34 F5000.0
M3 S1000
G4 P50
M5
G0 X146.064 Y108.128 F5000.0
M3 S1000
G4 P50
M5
G0 X145.72 Y107.809 F5000.0
M3 S1000
G4 P50
M5
G0 X146.033 Y107.503 F5000.0
M3 S1000
G4 P50
M5
G0 X144.437 Y107.281 F5000.0
M3 S1000
G4 P50
M5
G0 X144.096 Y109.121 F5000.0
M3 S1000
G4 P50
M5
G0 X144.265 Y109.301 F5000.0
M3 S1000
G4 P50
M5
G0 X146.695 Y110.595 F5000.0
M3 S1000
G4 P50
M5
G0 X146.962 Y110.333 F5000.0
M3 S1000
G4 P50
M5
G0 X148.107 Y110.659 F5000.0
M3 S1000
G4 P50
M5
G0 X148.763 Y111.065 F5000.0
M3 S1000
G4 P50
M5
G0 X148.986 Y111.776 F5000.0
M3 S1000
G4 P50
M5
G0 X149.462 Y111.415 F5000.0
M3 S1000
G4 P50
M5
G0 X150.819 Y110.965 F5000.0
M3 S1000
G4 P50
M5
G0 X150.459 Y110.259 F5000.0
M3 S1000
G4 P50
M5
G0 X149.281 Y108.777 F5000.0
M3 S1000
G4 P50
M5
G0 X149.097 Y108.471 F5000.0
M3 S1000
G4 P50
M5
G0 X149.133 Y108.341 F5000.0
M3 S1000
G4 P50
M5
G0 X148.819 Y108.099 F5000.0
M3 S1000
G4 P50
M5
G0 X148.927 Y107.717 F5000.0
M3 S1000
G4 P50
M5
G0 X149.994 Y107.413 F5000.0
M3 S1000
G4 P50
M5
G0 X147.371 Y108.9 F5000.0
M3 S1000
G4 P50
M5
G0 X146.469 Y111.43 F5000.0
M3 S1000
G4 P50
M5
G0 X147.071 Y112.054 F5000.0
M3 S1000
G4 P50
M5
G0 X147.436 Y113.625 F5000.0
M3 S1000
G4 P50
M5
G0 X147.078 Y113.774 F5000.0
M3 S1000
G4 P50
M5
G0 X147.126 Y114.868 F5000.0
M3 S1000
G4 P50
M5
G0 X146.651 Y115.134 F5000.0
M3 S1000
G4 P50
M5
G0 X147.309 Y115.86 F5000.0
M3 S1000
G4 P50
M5
G0 X148.094 Y114.831 F5000.0
M3 S1000
G4 P50
M5
G0 X148.905 Y113.632 F5000.0
M3 S1000
G4 P50
M5
G0 X150.164 Y113.109 F5000.0
M3 S1000
G4 P50
M5
G0 X150.632 Y113.468 F5000.0
M3 S1000
G4 P50
M5
G0 X151.859 Y112.534 F5000.0
M3 S1000
G4 P50
M5
G0 X152.332 Y111.647 F5000.0
M3 S1000
G4 P50
M5
G0 X152.399 Y110.77 F5000.0
M3 S1000
G4 P50
M5
G0 X152.914 Y109.026 F5000.0
M3 S1000
G4 P50
M5
G0 X153.678 Y108.95 F5000.0
M3 S1000
G4 P50
M5
G0 X154.521 Y108.645 F5000.0
M3 S1000
G4 P50
M5
G0 X154.967 Y108.569 F5000.0
M3 S1000
G4 P50
M5
G0 X155.046 Y108.427 F5000.0
M3 S1000
G4 P50
M5
G0 X155.083 Y109.458 F5000.0
M3 S1000
G4 P50
M5
G0 X152.779 Y115.205 F5000.0
M3 S1000
G4 P50
M5
G0 X152.162 Y117.184 F5000.0
M3 S1000
G4 P50
M5
G0 X152.931 Y118.802 F5000.0
M3 S1000
G4 P50
M5
G0 X152.564 Y118.957 F5000.0
M3 S1000
G4 P50
M5
G0 X151.595 Y119.929 F5000.0
M3 S1000
G4 P50
M5
G0 X151.86 Y120.181 F5000.0
M3 S1000
G4 P50
M5
G0 X151.538 Y120.944 F5000.0
M3 S1000
G4 P50
M5
G0 X151.286 Y121.112 F5000.0
M3 S1000
G4 P50
M5
G0 X151.196 Y120.933 F5000.0
M3 S1000
G4 P50
M5
G0 X150.561 Y120.216 F5000.0
M3 S1000
G4 P50
M5
G0 X150.177 Y120.337 F5000.0
M3 S1000
G4 P50
M5
G0 X150.105 Y118.894 F5000.0
M3 S1000
G4 P50
M5
G0 X150.23 Y118.727 F5000.0
M3 S1000
G4 P50
M5
G0 X148.266 Y118.26 F5000.0
M3 S1000
G4 P50
M5
G0 X147.764 Y118.597 F5000.0
M3 S1000
G4 P50
M5
G0 X146.751 Y119.892 F5000.0
M3 S1000
G4 P50
M5
G0 X146.943 Y120.168 F5000.0
M3 S1000
G4 P50
M5
G0 X147.354 Y120.444 F5000.0
M3 S1000
G4 P50
M5
G0 X148.392 Y121.108 F5000.0
M3 S1000
G4 P50
M5
G0 X147.523 Y122.219 F5000.0
M3 S1000
G4 P50
M5
G0 X147.262 Y122.044 F5000.0
M3 S1000
G4 P50
M5
G0 X145.395 Y121.657 F5000.0
M3 S1000
G4 P50
M5
G0 X144.455 Y122.841 F5000.0
M3 S1000
G4 P50
M5
G0 X143.094 Y123.048 F5000.0
M3 S1000
G4 P50
M5
G0 X142.424 Y123.341 F5000.0
M3 S1000
G4 P50
M5
G0 X143.452 Y124.218 F5000.0
M3 S1000
G4 P50
M5
G0 X141.013 Y124.56 F5000.0
M3 S1000
G4 P50
M5
G0 X140.484 Y123.951 F5000.0
M3 S1000
G4 P50
M5
G0 X140.248 Y123.42 F5000.0
M3 S1000
G4 P50
M5
G0 X137.854 Y122.926 F5000.0
M3 S1000
G4 P50
M5
G0 X137.274 Y123.368 F5000.0
M3 S1000
G4 P50
M5
G0 X137.695 Y123.829 F5000.0
M3 S1000
G4 P50
M5
G0 X137.839 Y124.832 F5000.0
M3 S1000
G4 P50
M5
G0 X136.186 Y125.153 F5000.0
M3 S1000
G4 P50
M5
G0 X136.111 Y125.027 F5000.0
M3 S1000
G4 P50
M5
G0 X136.709 Y126.895 F5000.0
M3 S1000
G4 P50
M5
G0 X137.135 Y127.156 F5000.0
M3 S1000
G4 P50
M5
G0 X135.91 Y127.482 F5000.0
M3 S1000
G4 P50
M5
G0 X135.969 Y127.964 F5000.0
M3 S1000
G4 P50
M5
G0 X135.791 Y127.967 F5000.0
M3 S1000
G4 P50
M5
G0 X134.455 Y127.493 F5000.0
M3 S1000
G4 P50
M5
G0 X134.351 Y126.702 F5000.0
M3 S1000
G4 P50
M5
G0 X131.665 Y125.524 F5000.0
M3 S1000
G4 P50
M5
G0 X130.648 Y123.98 F5000.0
M3 S1000
G4 P50
M5
G0 X131.245 Y123.645 F5000.0
M3 S1000
G4 P50
M5
G0 X131.051 Y122.801 F5000.0
M3 S1000
G4 P50
M5
G0 X130.818 Y122.547 F5000.0
M3 S1000
G4 P50
M5
G0 X132.499 Y123.399 F5000.0
M3 S1000
G4 P50
M5
G0 X133.49 Y123.398 F5000.0
M3 S1000
G4 P50
M5
G0 X135.415 Y122.775 F5000.0
M3 S1000
G4 P50
M5
G0 X135.532 Y122.269 F5000.0
M3 S1000
G4 P50
M5
G0 X135.974 Y121.608 F5000.0
M3 S1000
G4 P50
M5
G0 X136.672 Y121.753 F5000.0
M3 S1000
G4 P50
M5
G0 X136.349 Y122.314 F5000.0
M3 S1000
G4 P50
M5
G0 X136.482 Y122.75 F5000.0
M3 S1000
G4 P50
M5
G0 X134.552 Y121.257 F5000.0
M3 S1000
G4 P50
M5
G0 X133.954 Y120.758 F5000.0
M3 S1000
G4 P50
M5
G0 X133.208 Y120.742 F5000.0
M3 S1000
G4 P50
M5
G0 X130.033 Y119.657 F5000.0
M3 S1000
G4 P50
M5
G0 X129.747 Y120.237 F5000.0
M3 S1000
G4 P50
M5
G0 X129.511 Y121.092 F5000.0
M3 S1000
G4 P50
M5
G0 X128.918 Y118.854 F5000.0
M3 S1000
G4 P50
M5
G0 X128.305 Y118.481 F5000.0
M3 S1000
G4 P50
M5
G0 X129.257 Y118.182 F5000.0
M3 S1000
G4 P50
M5
G0 X128.66 Y116.908 F5000.0
M3 S1000
G4 P50
M5
G0 X129.724 Y116.705 F5000.0
M3 S1000
G4 P50
M5
G0 X130.237 Y116.88 F5000.0
M3 S1000
G4 P50
M5
G0 X129.518 Y116.017 F5000.0
M3 S1000
G4 P50
M5
G0 X129.8 Y114.964 F5000.0
M3 S1000
G4 P50
M5
G0 X129.256 Y114.762 F5000.0
M3 S1000
G4 P50
M5
G0 X129.173 Y114.413 F5000.0
M3 S1000
G4 P50
M5
G0 X128.74 Y114.449 F5000.0
M3 S1000
G4 P50
M5
G0 X128.297 Y114.591 F5000.0
M3 S1000
G4 P50
M5
G0 X129.634 Y114.06 F5000.0
M3 S1000
G4 P50
M5
G0 X128.962 Y113.271 F5000.0
M3 S1000
G4 P50
M5
G0 X130.812 Y114.085 F5000.0
M3 S1000
G4 P50
M5
G0 X131.238 Y113.947 F5000.0
M3 S1000
G4 P50
M5
G0 X131.712 Y113.389 F5000.0
M3 S1000
G4 P50
M5
G0 X131.523 Y112.634 F5000.0
M3 S1000
G4 P50
M5
G0 X130.913 Y111.202 F5000.0
M3 S1000
G4 P50
M5
G0 X130.053 Y110.436 F5000.0
M3 S1000
G4 P50
M5
G0 X130.465 Y109.571 F5000.0
M3 S1000
G4 P50
M5
G0 X131.192 Y110.069 F5000.0
M3 S1000
G4 P50
M5
G0 X131.951 Y110.104 F5000.0
M3 S1000
G4 P50
M5
G0 X130.368 Y115.105 F5000.0
M3 S1000
G4 P50
M5
G0 X131.141 Y115.68 F5000.0
M3 S1000
G4 P50
M5
G0 X127.713 Y117.518 F5000.0
M3 S1000
G4 P50
M5
G0 X126.14 Y115.03 F5000.0
M3 S1000
G4 P50
M5
G0 X123.428 Y115.042 F5000.0
M3 S1000
G4 P50
M5
G0 X121.991 Y114.363 F5000.0
M3 S1000
G4 P50
M5
G0 X121.713 Y112.371 F5000.0
M3 S1000
G4 P50
M5
G0 X123.997 Y113.067 F5000.0
M3 S1000
G4 P50
M5
G0 X125.133 Y111.488 F5000.0
M3 S1000
G4 P50
M5
G0 X123.606 Y110.523 F5000.0
M3 S1000
G4 P50
M5
G0 X117.155 Y112.379 F5000.0
M3 S1000
G4 P50
M5
G0 X116.909 Y112.141 F5000.0
M3 S1000
G4 P50
M5
G0 X114.49 Y114.38 F5000.0
M3 S1000
G4 P50
M5
G0 X113.705 Y115.304 F5000.0
M3 S1000
G4 P50
M5
G0 X114.12 Y116.628 F5000.0
M3 S1000
G4 P50
M5
G0 X115.544 Y115.981 F5000.0
M3 S1000
G4 P50
M5
G0 X116.045 Y117.741 F5000.0
M3 S1000
G4 P50
M5
G0 X119.093 Y120.401 F5000.0
M3 S1000
G4 P50
M5
G0 X120.199 Y123.072 F5000.0
M3 S1000
G4 P50
M5
G0 X109.258 Y118.415 F5000.0
M3 S1000
G4 P50
M5
G0 X109.196 Y116.473 F5000.0
M3 S1000
G4 P50
M5
G0 X105.464 Y119.831 F5000.0
M3 S1000
G4 P50
M5
G0 X100.941 Y118.342 F5000.0
M3 S1000
G4 P50
M5
G0 X99.746 Y117.238 F5000.0
M3 S1000
G4 P50
M5
G0 X90.768 Y119.498 F5000.0
M3 S1000
G4 P50
M5
G0 X88.201 Y120.69 F5000.0
M3 S1000
G4 P50
M5
G0 X83.673 Y119.328 F5000.0
M3 S1000
G4 P50
M5
G0 X83.172 Y120.454 F5000.0
M3 S1000
G4 P50
M5
G0 X74.649 Y117.132 F5000.0
M3 S1000
G4 P50
M5
G0 X71.217 Y117.481 F5000.0
M3 S1000
G4 P50
M5
G0 X74.059 Y108.344 F5000.0
M3 S1000
G4 P50
M5
G0 X84.839 Y109.982 F5000.0
M3 S1000
G4 P50
M5
G0 X93.61 Y108.88 F5000.0
M3 S1000
G4 P50
M5
G0 X99.458 Y103.64 F5000.0
M3 S1000
G4 P50
M5
G0 X99.801 Y102.581 F5000.0
M3 S1000
G4 P50
M5
G0 X99.18 Y102.31 F5000.0
M3 S1000
G4 P50
M5
G0 X103.036 Y102.289 F5000.0
M3 S1000
G4 P50
M5
G0 X98.166 Y97.835 F5000.0
M3 S1000
G4 P50
M5
G0 X95.733 Y93.398 F5000.0
M3 S1000
G4 P50
M5
G0 X94.12 Y94.45 F5000.0
M3 S1000
G4 P50
M5
G0 X88.523 Y87.326 F5000.0
M3 S1000
G4 P50
M5
G0 X80.656 Y87.805 F5000.0
M3 S1000
G4 P50
M5
G0 X74.623 Y94.443 F5000.0
M3 S1000
G4 P50
M5
G0 X68.356 Y93.159 F5000.0
M3 S1000
G4 P50
M5
G0 X64.917 Y97.4 F5000.0
M3 S1000
G4 P50
M5
G0 X61.224 Y94.503 F5000.0
M3 S1000
G4 P50
M5
G0 X59.446 Y104.298 F5000.0
M3 S1000
G4 P50
M5
G0 X54.564 Y102.451 F5000.0
M3 S1000
G4 P50
M5
G0 X48.305 Y101.735 F5000.0
M3 S1000
G4 P50
M5
G0 X34.508 Y106.569 F5000.0
M3 S1000
G4 P50
M5
G0 X95.579 Y79.878 F5000.0
M3 S1000
G4 P50
M5
G0 X97.63 Y83.465 F5000.0
M3 S1000
G4 P50
M5
G0 X100.316 Y81.959 F5000.0
M3 S1000
G4 P50
M5
G0 X104.643 Y83.641 F5000.0
M3 S1000
G4 P50
M5
G0 X106.28 Y83.583 F5000.0
M3 S1000
G4 P50
M5
G0 X107.877 Y85.492 F5000.0
M3 S1000
G4 P50
M5
G0 X110.896 Y84.964 F5000.0
M3 S1000
G4 P50
M5
G0 X110.276 Y82.816 F5000.0
M3 S1000
G4 P50
M5
G0 X112.162 Y82.347 F5000.0
M3 S1000
G4 P50
M5
G0 X115.098 Y83.272 F5000.0
M3 S1000
G4 P50
M5
G0 X116.267 Y88.444 F5000.0
M3 S1000
G4 P50
M5
G0 X119.053 Y86.883 F5000.0
M3 S1000
G4 P50
M5
G0 X120.438 Y90.977 F5000.0
M3 S1000
G4 P50
M5
G0 X125.205 Y88.638 F5000.0
M3 S1000
G4 P50
M5
G0 X125.96 Y90.252 F5000.0
M3 S1000
G4 P50
M5
G0 X127.838 Y88.391 F5000.0
M3 S1000
G4 P50
M5
G0 X128.443 Y88.831 F5000.0
M3 S1000
G4 P50
M5
G0 X130.673 Y88.586 F5000.0
M3 S1000
G4 P50
M5
G0 X131.143 Y88.512 F5000.0
M3 S1000
G4 P50
M5
G0 X132.097 Y89.969 F5000.0
M3 S1000
G4 P50
M5
G0 X133.308 Y89.647 F5000.0
M3 S1000
G4 P50
M5
G0 X131.957 Y92.586 F5000.0
M3 S1000
G4 P50
M5
G0 X129.481 Y93.985 F5000.0
M3 S1000
G4 P50
M5
G0 X127.861 Y95.237 F5000.0
M3 S1000
G4 P50
M5
G0 X125.13 Y95.806 F5000.0
M3 S1000
G4 P50
M5
G0 X122.529 Y98.342 F5000.0
M3 S1000
G4 P50
M5
G0 X124.223 Y99.422 F5000.0
M3 S1000
G4 P50
M5
G0 X117.13 Y97.733 F5000.0
M3 S1000
G4 P50
M5
G0 X114.895 Y94.635 F5000.0
M3 S1000
G4 P50
M5
G0 X112.864 Y102.743 F5000.0
M3 S1000
G4 P50
M5
G0 X116.704 Y105.114 F5000.0
M3 S1000
G4 P50
M5
G0 X113.059 Y109.287 F5000.0
M3 S1000
G4 P50
M5
G0 X105.654 Y92.451 F5000.0
M3 S1000
G4 P50
M5
G0 X105.069 Y78.933 F5000.0
M3 S1000
G4 P50
M5
G0 X103.913 Y75.236 F5000.0
M3 S1000
G4 P50
M5
G0 X110.135 Y78.719 F5000.0
M3 S1000
G4 P50
M5
G0 X112.942 Y76.11 F5000.0
M3 S1000
G4 P50
M5
G0 X114.391 Y77.929 F5000.0
M3 S1000
G4 P50
M5
G0 X116.759 Y73.502 F5000.0
M3 S1000
G4 P50
M5
G0 X117.514 Y73.388 F5000.0
M3 S1000
G4 P50
M5
G0 X115.305 Y69.708 F5000.0
M3 S1000
G4 P50
M5
G0 X118.037 Y67.862 F5000.0
M3 S1000
G4 P50
M5
G0 X124.931 Y67.254 F5000.0
M3 S1000
G4 P50
M5
G0 X125.172 Y69.219 F5000.0
M3 S1000
G4 P50
M5
G0 X127.869 Y67.714 F5000.0
M3 S1000
G4 P50
M5
G0 X128.275 Y67.935 F5000.0
M3 S1000
G4 P50
M5
G0 X128.421 Y69.145 F5000.0
M3 S1000
G4 P50
M5
G0 X130.453 Y71.486 F5000.0
M3 S1000
G4 P50
M5
G0 X131.188 Y71.25 F5000.0
M3 S1000
G4 P50
M5
G0 X132.457 Y69.362 F5000.0
M3 S1000
G4 P50
M5
G0 X133.762 Y67.839 F5000.0
M3 S1000
G4 P50
M5
G0 X133.659 Y67.648 F5000.0
M3 S1000
G4 P50
M5
G0 X131.758 Y67.313 F5000.0
M3 S1000
G4 P50
M5
G0 X132.631 Y65.538 F5000.0
M3 S1000
G4 P50
M5
G0 X134.46 Y65.589 F5000.0
M3 S1000
G4 P50
M5
G0 X135.929 Y62.347 F5000.0
M3 S1000
G4 P50
M5
G0 X133.356 Y61.984 F5000.0
M3 S1000
G4 P50
M5
G0 X128.969 Y63.649 F5000.0
M3 S1000
G4 P50
M5
G0 X135.968 Y69.767 F5000.0
M3 S1000
G4 P50
M5
G0 X136.84 Y71.339 F5000.0
M3 S1000
G4 P50
M5
G0 X136.797 Y72.034 F5000.0
M3 S1000
G4 P50
M5
G0 X139.555 Y74.691 F5000.0
M3 S1000
G4 P50
M5
G0 X141.655 Y74.177 F5000.0
M3 S1000
G4 P50
M5
G0 X146.276 Y71.264 F5000.0
M3 S1000
G4 P50
M5
G0 X148.279 Y73.809 F5000.0
M3 S1000
G4 P50
M5
G0 X149.761 Y73.309 F5000.0
M3 S1000
G4 P50
M5
G0 X149.85 Y72.353 F5000.0
M3 S1000
G4 P50
M5
G0 X149.883 Y71.114 F5000.0
M3 S1000
G4 P50
M5
G0 X151.878 Y69.673 F5000.0
M3 S1000
G4 P50
M5
G0 X149.946 Y68.083 F5000.0
M3 S1000
G4 P50
M5
G0 X149.693 Y63.819 F5000.0
M3 S1000
G4 P50
M5
G0 X147.361 Y63.438 F5000.0
M3 S1000
G4 P50
M5
G0 X146.972 Y63.805 F5000.0
M3 S1000
G4 P50
M5
G0 X144.929 Y64.742 F5000.0
M3 S1000
G4 P50
M5
G0 X145.45 Y66.72 F5000.0
M3 S1000
G4 P50
M5
G0 X141.067 Y66.118 F5000.0
M3 S1000
G4 P50
M5
G0 X140.653 Y64.797 F5000.0
M3 S1000
G4 P50
M5
G0 X138.642 Y62.789 F5000.0
M3 S1000
G4 P50
M5
G0 X146.991 Y61.269 F5000.0
M3 S1000
G4 P50
M5
G0 X147.055 Y61.046 F5000.0
M3 S1000
G4 P50
M5
G0 X148.138 Y60.879 F5000.0
M3 S1000
G4 P50
M5
G0 X155.666 Y61.866 F5000.0
M3 S1000
G4 P50
M5
G0 X155.328 Y64.406 F5000.0
M3 S1000
G4 P50
M5
G0 X156.469 Y64.883 F5000.0
M3 S1000
G4 P50
M5
G0 X154.801 Y66.029 F5000.0
M3 S1000
G4 P50
M5
G0 X157.009 Y68.402 F5000.0
M3 S1000
G4 P50
M5
G0 X157.851 Y68.155 F5000.0
M3 S1000
G4 P50
M5
G0 X157.932 Y68.23 F5000.0
M3 S1000
G4 P50
M5
G0 X158.951 Y67.342 F5000.0
M3 S1000
G4 P50
M5
G0 X162.863 Y64.739 F5000.0
M3 S1000
G4 P50
M5
G0 X162.479 Y63.815 F5000.0
M3 S1000
G4 P50
M5
G0 X163.514 Y62.569 F5000.0
M3 S1000
G4 P50
M5
G0 X158.666 Y61.481 F5000.0
M3 S1000
G4 P50
M5
G0 X165.887 Y69.138 F5000.0
M3 S1000
G4 P50
M5
G0 X166.177 Y68.858 F5000.0
M3 S1000
G4 P50
M5
G0 X167.757 Y71.0 F5000.0
M3 S1000
G4 P50
M5
G0 X170.002 Y72.159 F5000.0
M3 S1000
G4 P50
M5
G0 X170.796 Y73.313 F5000.0
M3 S1000
G4 P50
M5
G0 X175.061 Y72.204 F5000.0
M3 S1000
G4 P50
M5
G0 X175.632 Y73.609 F5000.0
M3 S1000
G4 P50
M5
G0 X176.961 Y73.449 F5000.0
M3 S1000
G4 P50
M5
G0 X182.121 Y77.435 F5000.0
M3 S1000
G4 P50
M5
G0 X183.246 Y77.162 F5000.0
M3 S1000
G4 P50
M5
G0 X185.368 Y76.214 F5000.0
M3 S1000
G4 P50
M5
G0 X179.602 Y83.334 F5000.0
M3 S1000
G4 P50
M5
G0 X178.866 Y87.025 F5000.0
M3 S1000
G4 P50
M5
G0 X175.418 Y84.764 F5000.0
M3 S1000
G4 P50
M5
G0 X175.087 Y83.865 F5000.0
M3 S1000
G4 P50
M5
G0 X175.568 Y82.221 F5000.0
M3 S1000
G4 P50
M5
G0 X172.715 Y78.467 F5000.0
M3 S1000
G4 P50
M5
G0 X170.94 Y80.527 F5000.0
M3 S1000
G4 P50
M5
G0 X170.767 Y83.246 F5000.0
M3 S1000
G4 P50
M5
G0 X170.81 Y83.759 F5000.0
M3 S1000
G4 P50
M5
G0 X168.503 Y87.006 F5000.0
M3 S1000
G4 P50
M5
G0 X171.325 Y89.879 F5000.0
M3 S1000
G4 P50
M5
G0 X172.112 Y91.989 F5000.0
M3 S1000
G4 P50
M5
G0 X173.426 Y91.189 F5000.0
M3 S1000
G4 P50
M5
G0 X174.434 Y90.756 F5000.0
M3 S1000
G4 P50
M5
G0 X173.509 Y88.513 F5000.0
M3 S1000
G4 P50
M5
G0 X168.925 Y94.592 F5000.0
M3 S1000
G4 P50
M5
G0 X171.317 Y99.038 F5000.0
M3 S1000
G4 P50
M5
G0 X170.055 Y100.693 F5000.0
M3 S1000
G4 P50
M5
G0 X172.159 Y103.919 F5000.0
M3 S1000
G4 P50
M5
G0 X174.035 Y98.932 F5000.0
M3 S1000
G4 P50
M5
G0 X177.564 Y96.998 F5000.0
M3 S1000
G4 P50
M5
G0 X178.13 Y103.211 F5000.0
M3 S1000
G4 P50
M5
G0 X171.535 Y109.887 F5000.0
M3 S1000
G4 P50
M5
G0 X170.504 Y111.136 F5000.0
M3 S1000
G4 P50
M5
G0 X170.779 Y112.783 F5000.0
M3 S1000
G4 P50
M5
G0 X169.569 Y113.112 F5000.0
M3 S1000
G4 P50
M5
G0 X168.511 Y114.054 F5000.0
M3 S1000
G4 P50
M5
G0 X168.375 Y114.139 F5000.0
M3 S1000
G4 P50
M5
G0 X168.612 Y116.307 F5000.0
M3 S1000
G4 P50
M5
G0 X166.027 Y115.375 F5000.0
M3 S1000
G4 P50
M5
G0 X164.762 Y115.721 F5000.0
M3 S1000
G4 P50
M5
G0 X164.106 Y115.605 F5000.0
M3 S1000
G4 P50
M5
G0 X164.115 Y115.344 F5000.0
M3 S1000
G4 P50
M5
G0 X156.539 Y118.89 F5000.0
M3 S1000
G4 P50
M5
G0 X154.096 Y118.603 F5000.0
M3 S1000
G4 P50
M5
G0 X148.906 Y116.044 F5000.0
M3 S1000
G4 P50
M5
G0 X148.498 Y116.961 F5000.0
M3 S1000
G4 P50
M5
G0 X145.873 Y117.495 F5000.0
M3 S1000
G4 P50
M5
G0 X145.571 Y116.368 F5000.0
M3 S1000
G4 P50
M5
G0 X144.728 Y115.677 F5000.0
M3 S1000
G4 P50
M5
G0 X144.762 Y113.887 F5000.0
M3 S1000
G4 P50
M5
G0 X144.531 Y113.464 F5000.0
M3 S1000
G4 P50
M5
G0 X145.14 Y113.207 F5000.0
M3 S1000
G4 P50
M5
G0 X145.066 Y112.976 F5000.0
M3 S1000
G4 P50
M5
G0 X145.538 Y113.587 F5000.0
M3 S1000
G4 P50
M5
G0 X146.009 Y114.156 F5000.0
M3 S1000
G4 P50
M5
G0 X144.195 Y117.996 F5000.0
M3 S1000
G4 P50
M5
G0 X144.14 Y119.348 F5000.0
M3 S1000
G4 P50
M5
G0 X145.233 Y119.832 F5000.0
M3 S1000
G4 P50
M5
G0 X148.64 Y124.918 F5000.0
M3 S1000
G4 P50
M5
G0 X150.812 Y125.988 F5000.0
M3 S1000
G4 P50
M5
G0 X151.574 Y125.699 F5000.0
M3 S1000
G4 P50
M5
G0 X152.076 Y124.728 F5000.0
M3 S1000
G4 P50
M5
G0 X149.425 Y128.243 F5000.0
M3 S1000
G4 P50
M5
G0 X149.478 Y128.647 F5000.0
M3 S1000
G4 P50
M5
G0 X149.486 Y129.159 F5000.0
M3 S1000
G4 P50
M5
G0 X149.493 Y130.348 F5000.0
M3 S1000
G4 P50
M5
G0 X150.859 Y129.67 F5000.0
M3 S1000
G4 P50
M5
G0 X152.683 Y130.87 F5000.0
M3 S1000
G4 P50
M5
G0 X152.942 Y131.411 F5000.0
M3 S1000
G4 P50
M5
G0 X153.692 Y131.138 F5000.0
M3 S1000
G4 P50
M5
G0 X153.028 Y132.257 F5000.0
M3 S1000
G4 P50
M5
G0 X154.828 Y132.091 F5000.0
M3 S1000
G4 P50
M5
G0 X155.421 Y129.941 F5000.0
M3 S1000
G4 P50
M5
G0 X154.842 Y129.724 F5000.0
M3 S1000
G4 P50
M5
G0 X154.784 Y129.762 F5000.0
M3 S1000
G4 P50
M5
G0 X154.257 Y129.763 F5000.0
M3 S1000
G4 P50
M5
G0 X157.242 Y130.755 F5000.0
M3 S1000
G4 P50
M5
G0 X157.545 Y130.353 F5000.0
M3 S1000
G4 P50
M5
G0 X157.714 Y131.04 F5000.0
M3 S1000
G4 P50
M5
G0 X149.279 Y131.891 F5000.0
M3 S1000
G4 P50
M5
G0 X148.272 Y132.877 F5000.0
M3 S1000
G4 P50
M5
G0 X147.585 Y132.812 F5000.0
M3 S1000
G4 P50
M5
G0 X147.543 Y132.738 F5000.0
M3 S1000
G4 P50
M5
G0 X147.759 Y132.023 F5000.0
M3 S1000
G4 P50
M5
G0 X147.502 Y131.89 F5000.0
M3 S1000
G4 P50
M5
G0 X146.149 Y131.5 F5000.0
M3 S1000
G4 P50
M5
G0 X146.443 Y130.81 F5000.0
M3 S1000
G4 P50
M5
G0 X146.913 Y129.076 F5000.0
M3 S1000
G4 P50
M5
G0 X148.337 Y128.038 F5000.0
M3 S1000
G4 P50
M5
G0 X147.068 Y126.783 F5000.0
M3 S1000
G4 P50
M5
G0 X143.497 Y127.527 F5000.0
M3 S1000
G4 P50
M5
G0 X141.992 Y127.052 F5000.0
M3 S1000
G4 P50
M5
G0 X140.392 Y127.84 F5000.0
M3 S1000
G4 P50
M5
G0 X140.482 Y128.146 F5000.0
M3 S1000
G4 P50
M5
G0 X140.081 Y128.671 F5000.0
M3 S1000
G4 P50
M5
G0 X138.947 Y129.088 F5000.0
M3 S1000
G4 P50
M5
G0 X138.906 Y129.147 F5000.0
M3 S1000
G4 P50
M5
G0 X138.53 Y129.793 F5000.0
M3 S1000
G4 P50
M5
G0 X139.564 Y130.085 F5000.0
M3 S1000
G4 P50
M5
G0 X139.266 Y131.227 F5000.0
M3 S1000
G4 P50
M5
G0 X140.693 Y131.488 F5000.0
M3 S1000
G4 P50
M5
G0 X142.269 Y131.678 F5000.0
M3 S1000
G4 P50
M5
G0 X143.39 Y131.18 F5000.0
M3 S1000
G4 P50
M5
G0 X143.579 Y130.739 F5000.0
M3 S1000
G4 P50
M5
G0 X137.868 Y128.933 F5000.0
M3 S1000
G4 P50
M5
G0 X138.045 Y128.223 F5000.0
M3 S1000
G4 P50
M5
G0 X136.778 Y129.819 F5000.0
M3 S1000
G4 P50
M5
G0 X138.488 Y110.792 F5000.0
M3 S1000
G4 P50
M5
G0 X131.911 Y99.436 F5000.0
M3 S1000
G4 P50
M5
G0 X138.201 Y91.872 F5000.0
M3 S1000
G4 P50
M5
G0 X140.377 Y91.67 F5000.0
M3 S1000
G4 P50
M5
G0 X140.507 Y91.15 F5000.0
M3 S1000
G4 P50
M5
G0 X141.134 Y90.19 F5000.0
M3 S1000
G4 P50
M5
G0 X143.769 Y89.431 F5000.0
M3 S1000
G4 P50
M5
G0 X146.806 Y88.488 F5000.0
M3 S1000
G4 P50
M5
G0 X150.334 Y88.223 F5000.0
M3 S1000
G4 P50
M5
G0 X150.751 Y88.383 F5000.0
M3 S1000
G4 P50
M5
G0 X152.194 Y88.307 F5000.0
M3 S1000
G4 P50
M5
G0 X151.901 Y87.152 F5000.0
M3 S1000
G4 P50
M5
G0 X152.853 Y90.051 F5000.0
M3 S1000
G4 P50
M5
G0 X154.542 Y90.313 F5000.0
M3 S1000
G4 P50
M5
G0 X156.694 Y91.017 F5000.0
M3 S1000
G4 P50
M5
G0 X157.009 Y90.359 F5000.0
M3 S1000
G4 P50
M5
G0 X157.529 Y90.824 F5000.0
M3 S1000
G4 P50
M5
G0 X157.611 Y89.258 F5000.0
M3 S1000
G4 P50
M5
G0 X160.612 Y88.927 F5000.0
M3 S1000
G4 P50
M5
G0 X160.776 Y86.174 F5000.0
M3 S1000
G4 P50
M5
G0 X158.406 Y84.981 F5000.0
M3 S1000
G4 P50
M5
G0 X156.566 Y86.209 F5000.0
M3 S1000
G4 P50
M5
G0 X160.842 Y81.743 F5000.0
M3 S1000
G4 P50
M5
G0 X162.963 Y80.911 F5000.0
M3 S1000
G4 P50
M5
G0 X164.563 Y78.505 F5000.0
M3 S1000
G4 P50
M5
G0 X164.464 Y77.272 F5000.0
M3 S1000
G4 P50
M5
G0 X162.782 Y77.087 F5000.0
M3 S1000
G4 P50
M5
G0 X162.406 Y76.86 F5000.0
M3 S1000
G4 P50
M5
G0 X161.909 Y78.047 F5000.0
M3 S1000
G4 P50
M5
G0 X159.594 Y76.822 F5000.0
M3 S1000
G4 P50
M5
G0 X156.655 Y76.357 F5000.0
M3 S1000
G4 P50
M5
G0 X155.327 Y77.974 F5000.0
M3 S1000
G4 P50
M5
G0 X152.422 Y78.586 F5000.0
M3 S1000
G4 P50
M5
G0 X151.463 Y78.109 F5000.0
M3 S1000
G4 P50
M5
G0 X152.955 Y80.423 F5000.0
M3 S1000
G4 P50
M5
G0 X148.673 Y80.385 F5000.0
M3 S1000
G4 P50
M5
G0 X146.628 Y76.534 F5000.0
M3 S1000
G4 P50
M5
G0 X141.022 Y82.426 F5000.0
M3 S1000
G4 P50
M5
G0 X140.262 Y85.233 F5000.0
M3 S1000
G4 P50
M5
G0 X140.504 Y85.576 F5000.0
M3 S1000
G4 P50
M5
G0 X138.455 Y85.994 F5000.0
M3 S1000
G4 P50
M5
G0 X136.375 Y84.478 F5000.0
M3 S1000
G4 P50
M5
G0 X134.767 Y85.655 F5000.0
M3 S1000
G4 P50
M5
G0 X132.625 Y82.515 F5000.0
M3 S1000
G4 P50
M5
G0 X131.798 Y81.201 F5000.0
M3 S1000
G4 P50
M5
G0 X130.175 Y80.597 F5000.0
M3 S1000
G4 P50
M5
G0 X133.114 Y79.825 F5000.0
M3 S1000
G4 P50
M5
G0 X133.692 Y79.194 F5000.0
M3 S1000
G4 P50
M5
G0 X133.554 Y77.199 F5000.0
M3 S1000
G4 P50
M5
G0 X130.139 Y75.32 F5000.0
M3 S1000
G4 P50
M5
G0 X130.234 Y75.107 F5000.0
M3 S1000
G4 P50
M5
G0 X124.838 Y75.998 F5000.0
M3 S1000
G4 P50
M5
G0 X127.934 Y84.579 F5000.0
M3 S1000
G4 P50
M5
G0 X127.928 Y85.436 F5000.0
M3 S1000
G4 P50
M5
G0 X127.394 Y86.794 F5000.0
M3 S1000
G4 P50
M5
G0 X130.58 Y85.781 F5000.0
M3 S1000
G4 P50
M5
G0 X130.959 Y86.113 F5000.0
M3 S1000
G4 P50
M5
G0 X137.952 Y81.457 F5000.0
M3 S1000
G4 P50
M5
G0 X138.154 Y80.541 F5000.0
M3 S1000
G4 P50
M5
G0 X138.766 Y79.571 F5000.0
M3 S1000
G4 P50
M5
G0 X159.572 Y72.755 F5000.0
M3 S1000
G4 P50
M5
G0 X161.732 Y72.783 F5000.0
M3 S1000
G4 P50
M5
G0 X168.94 Y78.521 F5000.0
M3 S1000
G4 P50
M5
G0 X173.504 Y67.381 F5000.0
M3 S1000
G4 P50
M5
G0 X169.715 Y65.561 F5000.0
M3 S1000
G4 P50
M5
G0 X163.411 Y89.511 F5000.0
M3 S1000
G4 P50
M5
G0 X160.366 Y92.165 F5000.0
M3 S1000
G4 P50
M5
G0 X154.743 Y94.92 F5000.0
M3 S1000
G4 P50
M5
G0 X160.457 Y102.463 F5000.0
M3 S1000
G4 P50
M5
G0 X161.5 Y105.594 F5000.0
M3 S1000
G4 P50
M5
G0 X161.902 Y105.809 F5000.0
M3 S1000
G4 P50
M5
G0 X162.726 Y106.016 F5000.0
M3 S1000
G4 P50
M5
G0 X164.349 Y99.616 F5000.0
M3 S1000
G4 P50
M5
G0 X163.646 Y98.832 F5000.0
M3 S1000
G4 P50
M5
G0 X182.386 Y90.429 F5000.0
M3 S1000
G4 P50
M5
G0 X184.845 Y90.326 F5000.0
M3 S1000
G4 P50
M5
G0 X185.482 Y90.493 F5000.0
M3 S1000
G4 P50
M5
G0 X185.558 Y90.38 F5000.0
M3 S1000
G4 P50
M5
G0 X189.834 Y95.695 F5000.0
M3 S1000
G4 P50
M5
G0 X192.099 Y95.445 F5000.0
M3 S1000
G4 P50
M5
G0 X196.728 Y93.062 F5000.0
M3 S1000
G4 P50
M5
G0 X203.199 Y90.864 F5000.0
M3 S1000
G4 P50
M5
G0 X204.387 Y91.3 F5000.0
M3 S1000
G4 P50
M5
G0 X204.639 Y89.065 F5000.0
M3 S1000
G4 P50
M5
G0 X201.738 Y85.884 F5000.0
M3 S1000
G4 P50
M5
G0 X201.493 Y81.023 F5000.0
M3 S1000
G4 P50
M5
G0 X199.303 Y81.64 F5000.0
M3 S1000
G4 P50
M5
G0 X195.198 Y78.747 F5000.0
M3 S1000
G4 P50
M5
G0 X209.387 Y85.526 F5000.0
M3 S1000
G4 P50
M5
G0 X211.796 Y88.89 F5000.0
M3 S1000
G4 P50
M5
G0 X215.475 Y88.589 F5000.0
M3 S1000
G4 P50
M5
G0 X222.223 Y86.071 F5000.0
M3 S1000
G4 P50
M5
G0 X228.897 Y88.564 F5000.0
M3 S1000
G4 P50
M5
G0 X222.811 Y93.374 F5000.0
M3 S1000
G4 P50
M5
G0 X223.85 Y95.388 F5000.0
M3 S1000
G4 P50
M5
G0 X228.066 Y101.101 F5000.0
M3 S1000
G4 P50
M5
G0 X230.12 Y102.009 F5000.0
M3 S1000
G4 P50
M5
G0 X227.885 Y104.502 F5000.0
M3 S1000
G4 P50
M5
G0 X221.611 Y103.806 F5000.0
M3 S1000
G4 P50
M5
G0 X221.499 Y107.608 F5000.0
M3 S1000
G4 P50
M5
G0 X217.547 Y112.516 F5000.0
M3 S1000
G4 P50
M5
G0 X219.029 Y114.961 F5000.0
M3 S1000
G4 P50
M5
G0 X221.206 Y118.521 F5000.0
M3 S1000
G4 P50
M5
G0 X215.632 Y119.799 F5000.0
M3 S1000
G4 P50
M5
G0 X208.872 Y120.041 F5000.0
M3 S1000
G4 P50
M5
G0 X208.731 Y118.762 F5000.0
M3 S1000
G4 P50
M5
G0 X208.251 Y115.639 F5000.0
M3 S1000
G4 P50
M5
G0 X205.122 Y117.482 F5000.0
M3 S1000
G4 P50
M5
G0 X204.561 Y112.51 F5000.0
M3 S1000
G4 P50
M5
G0 X211.112 Y109.303 F5000.0
M3 S1000
G4 P50
M5
G0 X211.165 Y108.722 F5000.0
M3 S1000
G4 P50
M5
G0 X215.503 Y109.643 F5000.0
M3 S1000
G4 P50
M5
G0 X216.247 Y102.009 F5000.0
M3 S1000
G4 P50
M5
G0 X214.454 Y101.297 F5000.0
M3 S1000
G4 P50
M5
G0 X203.942 Y101.041 F5000.0
M3 S1000
G4 P50
M5
G0 X204.028 Y104.99 F5000.0
M3 S1000
G4 P50
M5
G0 X191.48 Y106.021 F5000.0
M3 S1000
G4 P50
M5
G0 X188.609 Y105.562 F5000.0
M3 S1000
G4 P50
M5
G0 X188.621 Y99.638 F5000.0
M3 S1000
G4 P50
M5
G0 X192.832 Y114.466 F5000.0
M3 S1000
G4 P50
M5
G0 X191.781 Y117.596 F5000.0
M3 S1000
G4 P50
M5
G0 X191.393 Y120.423 F5000.0
M3 S1000
G4 P50
M5
G0 X191.002 Y121.904 F5000.0
M3 S1000
G4 P50
M5
G0 X231.377 Y112.689 F5000.0
M3 S1000
G4 P50
M5
G0 X232.0 Y115.592 F5000.0
M3 S1000
G4 P50
M5
G0 X245.275 Y113.391 F5000.0
M3 S1000
G4 P50
M5
G0 X247.273 Y108.98 F5000.0
M3 S1000
G4 P50
M5
G0 X244.997 Y102.093 F5000.0
M3 S1000
G4 P50
M5
G0 X243.405 Y99.433 F5000.0
M3 S1000
G4 P50
M5
G0 X233.345 Y100.228 F5000.0
M3 S1000
G4 P50
M5
G0 X232.41 Y98.696 F5000.0
M3 S1000
G4 P50
M5
G0 X111.607 Y73.735 F5000.0
M3 S1000
G4 P50
M5
G0 X0 Y0 ; return home
M5 ; pen up
M2 ; end
